{"type":"FeatureCollection","features":[{"type":"Feature","id":296505029,"geometry":{"type":"Point","coordinates":[44.2103236,15.377481500000002]},"properties":{"id":296505029,"name":"شرطة صنعاء السياحية","type":"police","category":"emergency","subcategory":"police","osmType":"node","alt_name":"شرطة صنعاء السياحية","amenity":"police","name:ar":"شرطة صنعاء السياحية","name:en":"Sana Tourist Police"}},{"type":"Feature","id":760300039,"geometry":{"type":"Point","coordinates":[44.2355007,15.3064198]},"properties":{"id":760300039,"name":"قسم شرطة علايه شميله","type":"police","category":"emergency","subcategory":"police","osmType":"node","amenity":"police","name:latin":"qsm shrta 'layh shmylh"}},{"type":"Feature","id":760301676,"geometry":{"type":"Point","coordinates":[44.2350112,15.318051900000002]},"properties":{"id":760301676,"name":"","type":"fire_station","category":"emergency","subcategory":"fire","osmType":"node","amenity":"fire_station"}},{"type":"Feature","id":2342143498,"geometry":{"type":"Point","coordinates":[44.2033853,15.374308400000002]},"properties":{"id":2342143498,"name":"قسم الحصبة","type":"police","category":"emergency","subcategory":"police","osmType":"node","amenity":"police","name:ar":"قسم الحصبه","name:en":"AlHasabah police station"}},{"type":"Feature","id":3362535163,"geometry":{"type":"Point","coordinates":[44.197491500000005,15.346617700000001]},"properties":{"id":3362535163,"name":"قسم شرطة العلفي","type":"police","category":"emergency","subcategory":"police","osmType":"node","amenity":"police","name:ar":"قسم شرطة العلفي","name:en":"Aloloffy police station"}},{"type":"Feature","id":4380050689,"geometry":{"type":"Point","coordinates":[44.219072100000005,15.355909]},"properties":{"id":4380050689,"name":"الامن القومي صنعاء","type":"police","category":"emergency","subcategory":"police","osmType":"node","amenity":"police","name:ar":"الامن القومي صنعاء","name:en":"National Security main Office"}},{"type":"Feature","id":4418395990,"geometry":{"type":"Point","coordinates":[44.239547900000005,15.413883900000002]},"properties":{"id":4418395990,"name":"الامن القومي - صرف","type":"police","category":"emergency","subcategory":"police","osmType":"node","amenity":"police","name:ar":"الامن القومي - صرف","name:latin":"al-amn al-qwmy - srf"}},{"type":"Feature","id":4431879589,"geometry":{"type":"Point","coordinates":[44.1993968,15.300402700000001]},"properties":{"id":4431879589,"name":"مركز شرطة الشهيد الجوفي","type":"police","category":"emergency","subcategory":"police","osmType":"node","addr:street":"شارع 14 أكتوبر","amenity":"police","name:ar":"مركز شرطة سهيل الجوفي","name:en":"Suhail Aljawfi Police Station","opening_hours":"24/7"}},{"type":"Feature","id":4473001417,"geometry":{"type":"Point","coordinates":[44.200846000000006,15.341751600000002]},"properties":{"id":4473001417,"name":"قسم النصر","type":"police","category":"emergency","subcategory":"police","osmType":"node","amenity":"police","name:ar":"قسم النصر","name:latin":"qsm al-nsr"}},{"type":"Feature","id":4581247295,"geometry":{"type":"Point","coordinates":[44.2280425,15.3977137]},"properties":{"id":4581247295,"name":"مكتب شرطه","type":"police","category":"emergency","subcategory":"police","osmType":"node","amenity":"police","name:ar":"مكتب شرطه","name:latin":"mktb shrth"}},{"type":"Feature","id":4581305890,"geometry":{"type":"Point","coordinates":[44.234726900000005,15.378849500000001]},"properties":{"id":4581305890,"name":"مركز شرطة الوحدة","type":"police","category":"emergency","subcategory":"police","osmType":"node","amenity":"police","name:ar":"مركز شرطة الوحدة","name:latin":"mrkz shrta al-whda"}},{"type":"Feature","id":4690490690,"geometry":{"type":"Point","coordinates":[44.2010276,15.449557800000001]},"properties":{"id":4690490690,"name":"وادي احمد","type":"police","category":"emergency","subcategory":"police","osmType":"node","addr:street":"الوادي","amenity":"police","name:ar":"وادي احمد","opening_hours":"24/7","name:latin":"wady ahmd"}},{"type":"Feature","id":4954926421,"geometry":{"type":"Point","coordinates":[44.18387620000001,15.295916300000002]},"properties":{"id":4954926421,"name":"مركز شرطة حدة","type":"police","category":"emergency","subcategory":"police","osmType":"node","amenity":"police","name:ar":"مركز شرطة حدة","name:latin":"mrkz shrta hda"}},{"type":"Feature","id":4994799923,"geometry":{"type":"Point","coordinates":[44.1438648,15.499023200000002]},"properties":{"id":4994799923,"name":"","type":"police","category":"emergency","subcategory":"police","osmType":"node","amenity":"police"}},{"type":"Feature","id":5010217434,"geometry":{"type":"Point","coordinates":[44.215947400000005,15.328616100000001]},"properties":{"id":5010217434,"name":"قسم ذي يزن","type":"police","category":"emergency","subcategory":"police","osmType":"node","addr:street":"شارع ال 45 متر","amenity":"police","name:ar":"قسم ذي يزن","opening_hours":"24/7","name:latin":"qsm dhy yzn"}},{"type":"Feature","id":5079942623,"geometry":{"type":"Point","coordinates":[44.22416200000001,15.3507323]},"properties":{"id":5079942623,"name":"قسم شرطة الثورة","type":"police","category":"emergency","subcategory":"police","osmType":"node","amenity":"police","name:ar":"قسم شرطة الثورة","name:en":"Althawrah police station"}},{"type":"Feature","id":5079976321,"geometry":{"type":"Point","coordinates":[44.2266023,15.346668300000001]},"properties":{"id":5079976321,"name":"قسم شرطة آزال","type":"police","category":"emergency","subcategory":"police","osmType":"node","amenity":"police","name:ar":"قسم شرطة آزال","name:latin":"qsm shrta azal"}},{"type":"Feature","id":5363476921,"geometry":{"type":"Point","coordinates":[44.2182777,15.403563300000002]},"properties":{"id":5363476921,"name":"قسم شرطة","type":"police","category":"emergency","subcategory":"police","osmType":"node","amenity":"police","name:ar":"قسم شرطة","name:latin":"qsm shrta"}},{"type":"Feature","id":5673796823,"geometry":{"type":"Point","coordinates":[44.181686500000005,15.346056]},"properties":{"id":5673796823,"name":"قسم المعلمي","type":"police","category":"emergency","subcategory":"police","osmType":"node","addr:street":"شارع 16","amenity":"police","name:ar":"قسم المعلمي","name:latin":"qsm al-m'lmy"}},{"type":"Feature","id":5676721626,"geometry":{"type":"Point","coordinates":[44.2165186,15.269300500000002]},"properties":{"id":5676721626,"name":"قسم شرطه","type":"police","category":"emergency","subcategory":"police","osmType":"node","amenity":"police","name:ar":"قسم شرطه","name:latin":"qsm shrth"}},{"type":"Feature","id":5930745887,"geometry":{"type":"Point","coordinates":[44.211574500000005,15.296410000000002]},"properties":{"id":5930745887,"name":"","type":"police","category":"emergency","subcategory":"police","osmType":"node","amenity":"police"}},{"type":"Feature","id":6007559285,"geometry":{"type":"Point","coordinates":[44.224332100000005,15.312883500000002]},"properties":{"id":6007559285,"name":"مديرية أمن السبعين","type":"police","category":"emergency","subcategory":"police","osmType":"node","amenity":"police","name:ar":"مديرية أمن السبعين علايه","name:latin":"mdyrya amn al-sb'yn"}},{"type":"Feature","id":6029109277,"geometry":{"type":"Point","coordinates":[44.2281959,15.361626000000001]},"properties":{"id":6029109277,"name":"قسم شرطة آزال","type":"police","category":"emergency","subcategory":"police","osmType":"node","addr:street":"شارع نشوان الحميري","amenity":"police","name:latin":"qsm shrta azal"}},{"type":"Feature","id":6059929638,"geometry":{"type":"Point","coordinates":[44.2235494,15.384842200000001]},"properties":{"id":6059929638,"name":"قسم شرطة هبرة","type":"police","category":"emergency","subcategory":"police","osmType":"node","amenity":"police","name:en":"Habrah police station"}},{"type":"Feature","id":6269132285,"geometry":{"type":"Point","coordinates":[44.2224493,15.332072900000002]},"properties":{"id":6269132285,"name":"مرور منطقة الصافية","type":"police","category":"emergency","subcategory":"police","osmType":"node","amenity":"police","name:en":"Alsafiah Traffic police offic"}},{"type":"Feature","id":6861874286,"geometry":{"type":"Point","coordinates":[44.190478000000006,15.353696800000002]},"properties":{"id":6861874286,"name":"قسم الجديري","type":"police","category":"emergency","subcategory":"police","osmType":"node","amenity":"police","name:latin":"qsm al-jdyry"}},{"type":"Feature","id":6937224326,"geometry":{"type":"Point","coordinates":[44.206864,15.354799000000002]},"properties":{"id":6937224326,"name":"قسم شرطة جمال جميل","type":"police","category":"emergency","subcategory":"police","osmType":"node","GNS:dsg_code":"PP","GNS:dsg_name":"police post","GNS:id":"10834522","amenity":"police","int_name":"Qism Shurţah Jamāl Jamīl","name:ar":"قسم شرطة جمال جميل","name:en":"Qism Shurtah Jamal Jamil","source:name":"GNS"}},{"type":"Feature","id":6937224473,"geometry":{"type":"Point","coordinates":[44.23484800000001,15.378930000000002]},"properties":{"id":6937224473,"name":"قسم شرطة مدينة الوحدة","type":"police","category":"emergency","subcategory":"police","osmType":"node","GNS:dsg_code":"PP","GNS:dsg_name":"police post","GNS:id":"10832215","amenity":"police","int_name":"Qism Shurţah Madīnah al Wahidah","name:ar":"قسم شرطة مدينة الوحدة","name:en":"Qism Shurtah Madinah al Wahidah","source:name":"GNS"}},{"type":"Feature","id":6937224571,"geometry":{"type":"Point","coordinates":[44.225762,15.338048]},"properties":{"id":6937224571,"name":"قسم شرطة العمري","type":"police","category":"emergency","subcategory":"police","osmType":"node","GNS:dsg_code":"PP","GNS:dsg_name":"police post","GNS:id":"10834658","amenity":"police","int_name":"Qism Shurţat al ‘Umarī","name:ar":"قسم شرطة العمري","name:en":"Qism Shurtat al `Umari","source:name":"GNS"}},{"type":"Feature","id":7108269591,"geometry":{"type":"Point","coordinates":[44.308742900000006,15.3125423]},"properties":{"id":7108269591,"name":"المرور","type":"police","category":"emergency","subcategory":"police","osmType":"node","addr:street":"المرور","amenity":"police","name:en":"Mror"}},{"type":"Feature","id":7129329685,"geometry":{"type":"Point","coordinates":[44.214599500000006,15.270942400000001]},"properties":{"id":7129329685,"name":"قسم شرطة بيت بوس وأرتل","type":"police","category":"emergency","subcategory":"police","osmType":"node","addr:street":"شارع الثلاثين","amenity":"police","name:latin":"qsm shrta byt bws wartl"}},{"type":"Feature","id":7581307886,"geometry":{"type":"Point","coordinates":[44.1651188,15.354080800000002]},"properties":{"id":7581307886,"name":"قسم شرطة السنينة","type":"police","category":"emergency","subcategory":"police","osmType":"node","amenity":"police","name:latin":"qsm shrta al-snyna"}},{"type":"Feature","id":7812542485,"geometry":{"type":"Point","coordinates":[44.1954846,15.366224400000002]},"properties":{"id":7812542485,"name":"الانتربول","type":"police","category":"emergency","subcategory":"police","osmType":"node","amenity":"police","name:en":"Interpol"}},{"type":"Feature","id":8400972517,"geometry":{"type":"Point","coordinates":[44.25178270000001,15.302009000000002]},"properties":{"id":8400972517,"name":"قسم شرطة القلفان","type":"police","category":"emergency","subcategory":"police","osmType":"node","amenity":"police","name:latin":"qsm shrta al-qlfan"}},{"type":"Feature","id":8993126676,"geometry":{"type":"Point","coordinates":[44.258082900000005,15.442207500000002]},"properties":{"id":8993126676,"name":"نقطة خشم البكرة","type":"police","category":"emergency","subcategory":"police","osmType":"node","amenity":"police","name:latin":"nqta khshm al-bkra"}},{"type":"Feature","id":9445913540,"geometry":{"type":"Point","coordinates":[44.175639600000004,15.366352200000001]},"properties":{"id":9445913540,"name":"قسم شرطة 14 اكتوبر","type":"police","category":"emergency","subcategory":"police","osmType":"node","amenity":"police","name:latin":"qsm shrta 14 aktwbr"}}]}