{"type":"FeatureCollection","features":[{"type":"Feature","id":265965118,"geometry":{"type":"Point","coordinates":[44.197044500000004,15.305954800000002]},"properties":{"id":265965118,"name":"البنك التجاري اليمني","type":"bank","category":"finance","subcategory":"bank","osmType":"node","addr:street":"شارع صفر","amenity":"bank","atm":"yes","name:latin":"al-bnk al-tjary al-ymny"}},{"type":"Feature","id":577378946,"geometry":{"type":"Point","coordinates":[44.20411970000001,15.3475683]},"properties":{"id":577378946,"name":"البنك العربي","type":"bank","category":"finance","subcategory":"bank","osmType":"node","alt_name":"بنك العرب","amenity":"bank","atm":"yes","name:ar":"البنك العربي","name:en":"Arab Bank","operator":"Arab Bank"}},{"type":"Feature","id":590512192,"geometry":{"type":"Point","coordinates":[44.21583330000001,15.351845700000002]},"properties":{"id":590512192,"name":"","type":"bureau_de_change","category":"finance","subcategory":"exchange","osmType":"node","amenity":"bureau_de_change"}},{"type":"Feature","id":689213784,"geometry":{"type":"Point","coordinates":[44.2052017,15.353717300000001]},"properties":{"id":689213784,"name":"","type":"atm","category":"finance","subcategory":"atm","osmType":"node","amenity":"atm","operator":"YCB"}},{"type":"Feature","id":692017869,"geometry":{"type":"Point","coordinates":[44.215099900000006,15.359129800000002]},"properties":{"id":692017869,"name":"","type":"atm","category":"finance","subcategory":"atm","osmType":"node","amenity":"atm"}},{"type":"Feature","id":692122735,"geometry":{"type":"Point","coordinates":[44.2150219,15.359726400000001]},"properties":{"id":692122735,"name":"","type":"atm","category":"finance","subcategory":"atm","osmType":"node","amenity":"atm"}},{"type":"Feature","id":692130027,"geometry":{"type":"Point","coordinates":[44.206549300000006,15.331839900000002]},"properties":{"id":692130027,"name":"بنك اليمن والكويت","type":"atm","category":"finance","subcategory":"atm","osmType":"node","amenity":"atm","name:en":"YCB","operator":"YCB"}},{"type":"Feature","id":765817207,"geometry":{"type":"Point","coordinates":[44.219576700000005,15.278533500000002]},"properties":{"id":765817207,"name":"بنك التضامن الاسلامي الدولي","type":"bank","category":"finance","subcategory":"bank","osmType":"node","addr:street":"شارع الاربعين","amenity":"bank","name:ar":"بنك التضامن الاسلامي الدولي","name:en":"Altadhamon Islamic International Bank","opening_hours":"Su-Th 08:00-15:00"}},{"type":"Feature","id":2458655239,"geometry":{"type":"Point","coordinates":[44.2072568,15.349255600000001]},"properties":{"id":2458655239,"name":"البنك المركزي اليمني","type":"bank","category":"finance","subcategory":"bank","osmType":"node","addr:city":"صنعاء","amenity":"bank","name:ar":"البنك المركزي اليمني","name:en":"Centeral Bank of Yemen","wikidata":"Q1797039"}},{"type":"Feature","id":3777230257,"geometry":{"type":"Point","coordinates":[44.228115900000006,15.448896800000002]},"properties":{"id":3777230257,"name":"صراف آلي - بنك اليمن الدولي","type":"atm","category":"finance","subcategory":"atm","osmType":"node","amenity":"atm","name:ar":"صراف آلي - بنك اليمن الدولي","name:en":"ATM - Yemen International Bank"}},{"type":"Feature","id":4182489289,"geometry":{"type":"Point","coordinates":[44.1667751,15.342472100000002]},"properties":{"id":4182489289,"name":"","type":"atm","category":"finance","subcategory":"atm","osmType":"node","amenity":"atm","operator":"كاك بنك"}},{"type":"Feature","id":4190394293,"geometry":{"type":"Point","coordinates":[44.19850520000001,15.319878200000002]},"properties":{"id":4190394293,"name":"بنك التضامن الإسلامي الدولي","type":"bank","category":"finance","subcategory":"bank","osmType":"node","addr:street":"شارع الستين","amenity":"bank","name:ar":"بنك التضامن الإسلامي الدولي","name:en":"Altadhamon Islamic International Bank"}},{"type":"Feature","id":4242594507,"geometry":{"type":"Point","coordinates":[44.20565740000001,15.369873600000002]},"properties":{"id":4242594507,"name":"كاك بنك المركز الرئيسي","type":"bank","category":"finance","subcategory":"bank","osmType":"node","amenity":"bank","name:ar":"كاك بنك المركز الرئيسي","name:latin":"kak bnk al-mrkz al-r'ysy"}},{"type":"Feature","id":4242712598,"geometry":{"type":"Point","coordinates":[44.2097497,15.377840200000001]},"properties":{"id":4242712598,"name":"","type":"atm","category":"finance","subcategory":"atm","osmType":"node","amenity":"atm","operator":"صراف بنك اليمن الدولي"}},{"type":"Feature","id":4242720601,"geometry":{"type":"Point","coordinates":[44.20627210000001,15.370017700000002]},"properties":{"id":4242720601,"name":"كاك بنك خدمة عملاء الحصبة","type":"bank","category":"finance","subcategory":"bank","osmType":"node","amenity":"bank","name:ar":"كاك بنك خدمة عملاء الحصبة","name:latin":"kak bnk khdma 'mla' al-hsba"}},{"type":"Feature","id":4242721198,"geometry":{"type":"Point","coordinates":[44.205919800000004,15.3696394]},"properties":{"id":4242721198,"name":"","type":"atm","category":"finance","subcategory":"atm","osmType":"node","amenity":"atm","operator":"كاك بنك"}},{"type":"Feature","id":4242721295,"geometry":{"type":"Point","coordinates":[44.206396100000006,15.368638500000001]},"properties":{"id":4242721295,"name":"","type":"atm","category":"finance","subcategory":"atm","osmType":"node","amenity":"atm","operator":"صراف البريد"}},{"type":"Feature","id":4242750903,"geometry":{"type":"Point","coordinates":[44.20495210000001,15.380094800000002]},"properties":{"id":4242750903,"name":"بنك الكريمي","type":"bank","category":"finance","subcategory":"bank","osmType":"node","addr:city":"صنعاء","addr:street":"شارع مازدا","amenity":"bank","name:latin":"bnk al-krymy"}},{"type":"Feature","id":4242784013,"geometry":{"type":"Point","coordinates":[44.2063142,15.3691878]},"properties":{"id":4242784013,"name":"بنك التضامن الإسلامي الدولي","type":"bank","category":"finance","subcategory":"bank","osmType":"node","addr:street":"شارع القيادة","amenity":"bank","name:ar":"بنك التضامن الإسلامي الدولي","name:latin":"bnk al-tdamn al-islamy al-dwly"}},{"type":"Feature","id":4242794629,"geometry":{"type":"Point","coordinates":[44.205057200000006,15.374311600000002]},"properties":{"id":4242794629,"name":"البنك اليمني للإنشاء والتعمير","type":"bank","category":"finance","subcategory":"bank","osmType":"node","addr:street":"شارع القيادة","amenity":"bank","name:ar":"البنك اليمني للإنشاء والتعمير","name:latin":"al-bnk al-ymny llinsha' walt'myr"}},{"type":"Feature","id":4242816050,"geometry":{"type":"Point","coordinates":[44.190065700000005,15.369508500000002]},"properties":{"id":4242816050,"name":"","type":"atm","category":"finance","subcategory":"atm","osmType":"node","amenity":"atm","opening_hours":"24/7","operator":"صراف آلي - بنك اليمن الدولي"}},{"type":"Feature","id":4242816382,"geometry":{"type":"Point","coordinates":[44.19908220000001,15.369734700000002]},"properties":{"id":4242816382,"name":"بنك الكريمي","type":"bank","category":"finance","subcategory":"bank","osmType":"node","addr:city":"صنعاء","addr:street":"شارع القاهرة","amenity":"bank","name:latin":"bnk al-krymy"}},{"type":"Feature","id":4242852944,"geometry":{"type":"Point","coordinates":[44.18291910000001,15.3721571]},"properties":{"id":4242852944,"name":"","type":"atm","category":"finance","subcategory":"atm","osmType":"node","amenity":"atm","operator":"صراف آلي - بنك اليمن الدولي"}},{"type":"Feature","id":4253584789,"geometry":{"type":"Point","coordinates":[44.194301800000005,15.362624300000002]},"properties":{"id":4253584789,"name":"","type":"atm","category":"finance","subcategory":"atm","osmType":"node","amenity":"atm","opening_hours":"24/7"}},{"type":"Feature","id":4298020909,"geometry":{"type":"Point","coordinates":[44.185638000000004,15.343308000000002]},"properties":{"id":4298020909,"name":"","type":"atm","category":"finance","subcategory":"atm","osmType":"node","amenity":"atm","name:en":"ATM"}},{"type":"Feature","id":4298021765,"geometry":{"type":"Point","coordinates":[44.190392100000004,15.3080738]},"properties":{"id":4298021765,"name":"بنك الكريمي","type":"bank","category":"finance","subcategory":"bank","osmType":"node","addr:city":"صنعاء","addr:street":"شارع حدة","amenity":"bank","atm":"yes","name:en":"Alkuremi Bank"}},{"type":"Feature","id":4298021766,"geometry":{"type":"Point","coordinates":[44.229291100000005,15.3204492]},"properties":{"id":4298021766,"name":"بنك الكريمي","type":"bank","category":"finance","subcategory":"bank","osmType":"node","amenity":"bank","name:en":"Alkuremi Com. For Exchange"}},{"type":"Feature","id":4298021767,"geometry":{"type":"Point","coordinates":[44.217004300000006,15.3361619]},"properties":{"id":4298021767,"name":"بنك الكريمي","type":"bank","category":"finance","subcategory":"bank","osmType":"node","amenity":"bank","name:ar":"الكريمي للصرافة","name:latin":"bnk al-krymy"}},{"type":"Feature","id":4298021769,"geometry":{"type":"Point","coordinates":[44.198856000000006,15.341077000000002]},"properties":{"id":4298021769,"name":"بنك الكريمي","type":"bank","category":"finance","subcategory":"bank","osmType":"node","addr:street":"شارع حدة","amenity":"bank","name:en":"Alkuremi Com. For Exchange"}},{"type":"Feature","id":4298021770,"geometry":{"type":"Point","coordinates":[44.189072,15.361633000000001]},"properties":{"id":4298021770,"name":"بنك الكريمي","type":"bureau_de_change","category":"finance","subcategory":"exchange","osmType":"node","addr:street":"الخط الدائري","amenity":"bureau_de_change","name:en":"Alkuremi Com. For Exchange"}},{"type":"Feature","id":4298021920,"geometry":{"type":"Point","coordinates":[44.2060134,15.351404500000001]},"properties":{"id":4298021920,"name":"Almhaned For Exchange","type":"bureau_de_change","category":"finance","subcategory":"exchange","osmType":"node","amenity":"bureau_de_change","name:en":"Almhaned For Exchange"}},{"type":"Feature","id":4298021974,"geometry":{"type":"Point","coordinates":[44.192889900000004,15.336466900000001]},"properties":{"id":4298021974,"name":"المرادي للتحويلات","type":"bureau_de_change","category":"finance","subcategory":"exchange","osmType":"node","addr:street":"الخط الدائري","amenity":"bureau_de_change","name:ar":"المرادي للتحويلات","name:latin":"al-mrady llthwylat"}},{"type":"Feature","id":4298022239,"geometry":{"type":"Point","coordinates":[44.193706000000006,15.344338]},"properties":{"id":4298022239,"name":"Alomgi Co. For Exchange","type":"bureau_de_change","category":"finance","subcategory":"exchange","osmType":"node","addr:street":"شارع الزبيري","amenity":"bureau_de_change","name:en":"Alomgi Co. For Exchange"}},{"type":"Feature","id":4298022465,"geometry":{"type":"Point","coordinates":[44.236665,15.301509000000001]},"properties":{"id":4298022465,"name":"الصيفي للتحويلات المالية","type":"bureau_de_change","category":"finance","subcategory":"exchange","osmType":"node","amenity":"bureau_de_change","name:en":"Alsefi Co. For Exchange"}},{"type":"Feature","id":4298022466,"geometry":{"type":"Point","coordinates":[44.20244890000001,15.346874600000001]},"properties":{"id":4298022466,"name":"الصيفي للصرافة والتحويلات","type":"bureau_de_change","category":"finance","subcategory":"exchange","osmType":"node","addr:street":"شارع الزبيري","amenity":"bureau_de_change","name:en":"Alsefi Co. For Exchange"}},{"type":"Feature","id":4298022686,"geometry":{"type":"Point","coordinates":[44.1913503,15.344373000000001]},"properties":{"id":4298022686,"name":"بنك التضامن الإسلامي الدولي","type":"bank","category":"finance","subcategory":"bank","osmType":"node","addr:street":"شارع الزبيري","amenity":"bank","name:en":"Altadhamon Islamic International Bank"}},{"type":"Feature","id":4298023426,"geometry":{"type":"Point","coordinates":[44.1683541,15.341591000000001]},"properties":{"id":4298023426,"name":"بن مسعود للصرافة والتحويلات","type":"bureau_de_change","category":"finance","subcategory":"exchange","osmType":"node","amenity":"bureau_de_change","name:en":"Bin Masood For Exchange"}},{"type":"Feature","id":4298023591,"geometry":{"type":"Point","coordinates":[44.2259796,15.3267032]},"properties":{"id":4298023591,"name":"كاك بانك","type":"bank","category":"finance","subcategory":"bank","osmType":"node","amenity":"bank","name:en":"Cac Bank"}},{"type":"Feature","id":4298023602,"geometry":{"type":"Point","coordinates":[44.178159,15.342326800000002]},"properties":{"id":4298023602,"name":"كاك بنك الاسلامي","type":"bank","category":"finance","subcategory":"bank","osmType":"node","addr:street":"شارع الزبيري","amenity":"bank","name:en":"Islamic CAC Bank","opening_hours":"Su-Th 08:00-14:00"}},{"type":"Feature","id":4298023854,"geometry":{"type":"Point","coordinates":[44.198871000000004,15.3378004]},"properties":{"id":4298023854,"name":"الخليج للصرافة","type":"bureau_de_change","category":"finance","subcategory":"exchange","osmType":"node","amenity":"bureau_de_change","name:en":"Gulf For Exchange"}},{"type":"Feature","id":4298023958,"geometry":{"type":"Point","coordinates":[44.238177300000004,15.296043300000001]},"properties":{"id":4298023958,"name":"بنك اليمن الدولي","type":"bank","category":"finance","subcategory":"bank","osmType":"node","addr:city":"صنعاء","addr:street":"شارع تعز","amenity":"bank","name:en":"Internatioal Yemen Bank"}},{"type":"Feature","id":4298023965,"geometry":{"type":"Point","coordinates":[44.189801,15.325885000000001]},"properties":{"id":4298023965,"name":"International Yemen Bank","type":"bank","category":"finance","subcategory":"bank","osmType":"node","addr:street":"شارع الستين","amenity":"bank","name:ar":"بنك اليمن الدولي","name:en":"International Yemen of Bank","opening_hours":"Sa-Th 08:00-14:00"}},{"type":"Feature","id":4298024494,"geometry":{"type":"Point","coordinates":[44.2039674,15.347123600000002]},"properties":{"id":4298024494,"name":"البنك الأهلي اليمني","type":"bank","category":"finance","subcategory":"bank","osmType":"node","addr:street":"شارع الزبيري","amenity":"bank","name:en":"National Yemen Bank"}},{"type":"Feature","id":4298024793,"geometry":{"type":"Point","coordinates":[44.198084,15.315499]},"properties":{"id":4298024793,"name":"بنك سبأ الإسلامي","type":"bank","category":"finance","subcategory":"bank","osmType":"node","addr:street":"شارع حدة","amenity":"bank","name:en":"Saba Islamic Bank","opening_hours":"Su-Th 08:00-15:00"}},{"type":"Feature","id":4298024794,"geometry":{"type":"Point","coordinates":[44.227309000000005,15.32464]},"properties":{"id":4298024794,"name":"بنك سبأ الاسلامي","type":"bank","category":"finance","subcategory":"bank","osmType":"node","amenity":"bank","name:en":"Saba Islamic Bank"}},{"type":"Feature","id":4298024795,"geometry":{"type":"Point","coordinates":[44.20327700000001,15.350862000000001]},"properties":{"id":4298024795,"name":"بنك سبأ الاسلامي","type":"bank","category":"finance","subcategory":"bank","osmType":"node","amenity":"bank","name:en":"Saba Islamic Bank"}},{"type":"Feature","id":4298024966,"geometry":{"type":"Point","coordinates":[44.2289918,15.321312]},"properties":{"id":4298024966,"name":"بنك التضامن الإسلامي","type":"bank","category":"finance","subcategory":"bank","osmType":"node","addr:city":"صنعاء","addr:street":"شارع تعز","amenity":"bank","name:en":"Tadhamon Internatioal Islamic Bank"}},{"type":"Feature","id":4298025032,"geometry":{"type":"Point","coordinates":[44.177399,15.342407000000001]},"properties":{"id":4298025032,"name":"بانک","type":"bank","category":"finance","subcategory":"bank","osmType":"node","amenity":"bank","name:en":"United Bank"}},{"type":"Feature","id":4298025066,"geometry":{"type":"Point","coordinates":[44.190316,15.307689000000002]},"properties":{"id":4298025066,"name":"بنك اليمن والبحرين","type":"bank","category":"finance","subcategory":"bank","osmType":"node","amenity":"bank","name:en":"Yemen And Bahrain Bank"}},{"type":"Feature","id":4298025067,"geometry":{"type":"Point","coordinates":[44.16916140000001,15.339091300000002]},"properties":{"id":4298025067,"name":"بنك اليمن البحرين الشامل","type":"bank","category":"finance","subcategory":"bank","osmType":"node","addr:city":"صنعاء","addr:street":"شارع الستين","amenity":"bank","name:en":"Yemen And Bahrain Bank","opening_hours":"Su-Th 08:00-14:00"}},{"type":"Feature","id":4298025075,"geometry":{"type":"Point","coordinates":[44.198899000000004,15.337644000000001]},"properties":{"id":4298025075,"name":"البنك اليمني للانشاء والتعمير","type":"bank","category":"finance","subcategory":"bank","osmType":"node","amenity":"bank","name:en":"Yemen Bank For Construction And Reconstruction"}},{"type":"Feature","id":4298025076,"geometry":{"type":"Point","coordinates":[44.192505000000004,15.344424000000002]},"properties":{"id":4298025076,"name":"Yemen Bank For Construction And Reconstruction","type":"bank","category":"finance","subcategory":"bank","osmType":"node","addr:street":"شارع الزبيري","amenity":"bank","name:en":"Yemen Bank For Construction And Reconstruction"}},{"type":"Feature","id":4298025077,"geometry":{"type":"Point","coordinates":[44.198078,15.345262600000002]},"properties":{"id":4298025077,"name":"شركة البرق للصرافة","type":"bureau_de_change","category":"finance","subcategory":"exchange","osmType":"node","amenity":"bureau_de_change","name:latin":"shrka al-brq llsrafa"}},{"type":"Feature","id":4298025079,"geometry":{"type":"Point","coordinates":[44.189329,15.360990000000001]},"properties":{"id":4298025079,"name":"Yemen Bank For Construction And Reconstruction","type":"bank","category":"finance","subcategory":"bank","osmType":"node","amenity":"bank","name:en":"Yemen Bank For Construction And Reconstruction"}},{"type":"Feature","id":4298025082,"geometry":{"type":"Point","coordinates":[44.229198100000005,15.320830700000002]},"properties":{"id":4298025082,"name":"البنك التجاري اليمني","type":"bank","category":"finance","subcategory":"bank","osmType":"node","addr:city":"صنعاء","addr:street":"شارع تعز","amenity":"bank","name:en":"Yemen Commercial Bank"}},{"type":"Feature","id":4298025099,"geometry":{"type":"Point","coordinates":[44.229541000000005,15.320005000000002]},"properties":{"id":4298025099,"name":"بنك اليمن والكويت","type":"bank","category":"finance","subcategory":"bank","osmType":"node","addr:city":"صنعاء","addr:street":"شارع تعز","amenity":"bank","name:en":"Yemen Kuwait Bank"}},{"type":"Feature","id":4340982690,"geometry":{"type":"Point","coordinates":[44.21584670000001,15.4387164]},"properties":{"id":4340982690,"name":"","type":"atm","category":"finance","subcategory":"atm","osmType":"node","amenity":"atm","opening_hours":"24/7","operator":"الكريمي للصرافة شارع المطار دارس"}},{"type":"Feature","id":4346544712,"geometry":{"type":"Point","coordinates":[44.170084200000005,15.3375634]},"properties":{"id":4346544712,"name":"بنك سبأ الاسلامي","type":"bank","category":"finance","subcategory":"bank","osmType":"node","addr:city":"صنعاء","addr:street":"شارع الستين","amenity":"bank","name:en":"shiba Islamic Bank"}},{"type":"Feature","id":4368802392,"geometry":{"type":"Point","coordinates":[44.20037310000001,15.406650200000001]},"properties":{"id":4368802392,"name":"","type":"atm","category":"finance","subcategory":"atm","osmType":"node","amenity":"atm","operator":"كاك بنك"}},{"type":"Feature","id":4368802393,"geometry":{"type":"Point","coordinates":[44.2049322,15.374976900000002]},"properties":{"id":4368802393,"name":"","type":"atm","category":"finance","subcategory":"atm","osmType":"node","amenity":"atm","operator":"كاك بنك"}},{"type":"Feature","id":4368802394,"geometry":{"type":"Point","coordinates":[44.1931336,15.3543134]},"properties":{"id":4368802394,"name":"","type":"atm","category":"finance","subcategory":"atm","osmType":"node","amenity":"atm","operator":"كاك بنك"}},{"type":"Feature","id":4368802395,"geometry":{"type":"Point","coordinates":[44.1892465,15.3601357]},"properties":{"id":4368802395,"name":"","type":"atm","category":"finance","subcategory":"atm","osmType":"node","amenity":"atm","operator":"كاك بنك"}},{"type":"Feature","id":4368819390,"geometry":{"type":"Point","coordinates":[44.2055445,15.394396700000001]},"properties":{"id":4368819390,"name":"","type":"atm","category":"finance","subcategory":"atm","osmType":"node","amenity":"atm","operator":"كاك بنك"}},{"type":"Feature","id":4368819391,"geometry":{"type":"Point","coordinates":[44.2040865,15.3528435]},"properties":{"id":4368819391,"name":"","type":"atm","category":"finance","subcategory":"atm","osmType":"node","amenity":"atm","operator":"كاك بنك"}},{"type":"Feature","id":4368819392,"geometry":{"type":"Point","coordinates":[44.2000802,15.356507800000001]},"properties":{"id":4368819392,"name":"","type":"atm","category":"finance","subcategory":"atm","osmType":"node","amenity":"atm","operator":"كاك بنك"}},{"type":"Feature","id":4368819394,"geometry":{"type":"Point","coordinates":[44.197523800000006,15.3349062]},"properties":{"id":4368819394,"name":"","type":"atm","category":"finance","subcategory":"atm","osmType":"node","amenity":"atm","operator":"كاك بنك"}},{"type":"Feature","id":4368828390,"geometry":{"type":"Point","coordinates":[44.193568400000004,15.422592400000001]},"properties":{"id":4368828390,"name":"","type":"atm","category":"finance","subcategory":"atm","osmType":"node","amenity":"atm","operator":"كاك بنك"}},{"type":"Feature","id":4368828489,"geometry":{"type":"Point","coordinates":[44.176303600000004,15.397393100000002]},"properties":{"id":4368828489,"name":"","type":"atm","category":"finance","subcategory":"atm","osmType":"node","amenity":"atm","operator":"كاك بنك"}},{"type":"Feature","id":4368828589,"geometry":{"type":"Point","coordinates":[44.1833114,15.405770600000002]},"properties":{"id":4368828589,"name":"","type":"atm","category":"finance","subcategory":"atm","osmType":"node","amenity":"atm","operator":"كاك بنك"}},{"type":"Feature","id":4368828591,"geometry":{"type":"Point","coordinates":[44.199940100000006,15.381193600000001]},"properties":{"id":4368828591,"name":"","type":"atm","category":"finance","subcategory":"atm","osmType":"node","amenity":"atm","operator":"كاك بنك"}},{"type":"Feature","id":4368828592,"geometry":{"type":"Point","coordinates":[44.196346500000004,15.350219700000002]},"properties":{"id":4368828592,"name":"","type":"atm","category":"finance","subcategory":"atm","osmType":"node","amenity":"atm","operator":"كاك بنك"}},{"type":"Feature","id":4368828689,"geometry":{"type":"Point","coordinates":[44.213593200000005,15.403977900000001]},"properties":{"id":4368828689,"name":"","type":"atm","category":"finance","subcategory":"atm","osmType":"node","amenity":"atm","operator":"كاك بنك"}},{"type":"Feature","id":4368828690,"geometry":{"type":"Point","coordinates":[44.18683720000001,15.343399200000002]},"properties":{"id":4368828690,"name":"كاك بنك","type":"bank","category":"finance","subcategory":"bank","osmType":"node","addr:street":"شارع الزبيري","amenity":"bank","name:ar":"كاك بنك","name:latin":"kak bnk"}},{"type":"Feature","id":4368828789,"geometry":{"type":"Point","coordinates":[44.20622410000001,15.353497700000002]},"properties":{"id":4368828789,"name":"","type":"atm","category":"finance","subcategory":"atm","osmType":"node","amenity":"atm","operator":"كاك بنك"}},{"type":"Feature","id":4368828889,"geometry":{"type":"Point","coordinates":[44.194682300000004,15.359008300000001]},"properties":{"id":4368828889,"name":"","type":"atm","category":"finance","subcategory":"atm","osmType":"node","amenity":"atm","operator":"كاك بنك"}},{"type":"Feature","id":4368828890,"geometry":{"type":"Point","coordinates":[44.198512400000006,15.337521700000002]},"properties":{"id":4368828890,"name":"","type":"atm","category":"finance","subcategory":"atm","osmType":"node","amenity":"atm","operator":"كاك بنك"}},{"type":"Feature","id":4368828989,"geometry":{"type":"Point","coordinates":[44.196588000000006,15.3457187]},"properties":{"id":4368828989,"name":"","type":"atm","category":"finance","subcategory":"atm","osmType":"node","amenity":"atm","operator":"كاك بنك"}},{"type":"Feature","id":4368829089,"geometry":{"type":"Point","coordinates":[44.1705869,15.3370884]},"properties":{"id":4368829089,"name":"كاك بنك","type":"bank","category":"finance","subcategory":"bank","osmType":"node","addr:street":"شارع الستين","amenity":"bank","name:ar":"كاك بنك","name:en":"CAC Bank","opening_hours":"Su-Th 08:00-14:00"}},{"type":"Feature","id":4397814892,"geometry":{"type":"Point","coordinates":[44.175872500000004,15.297953500000002]},"properties":{"id":4397814892,"name":"بنك الكريمي","type":"bank","category":"finance","subcategory":"bank","osmType":"node","addr:street":"شارع حدة","amenity":"bank","fixme":"name, name:ar mismatch. name, name:ar mismatch. name, name:ar mismatch.","name:ar":"بنك الكريمي المركز الرئيسي","name:en":"Alkuraimi HQ","opening_hours":"Mo-Th, Sa, Su 09:00-20:00","website":"http://Www.alkuraimi.com"}},{"type":"Feature","id":4413032498,"geometry":{"type":"Point","coordinates":[44.193170800000004,15.344493700000001]},"properties":{"id":4413032498,"name":"بنك اليمن الدوليAT","type":"atm","category":"finance","subcategory":"atm","osmType":"node","amenity":"atm","name:ar":"بنك اليمن الدوليAT","name:en":"ATM IBY"}},{"type":"Feature","id":4413033993,"geometry":{"type":"Point","coordinates":[44.193767900000005,15.3445955]},"properties":{"id":4413033993,"name":"بنك اليمن والكويت","type":"bank","category":"finance","subcategory":"bank","osmType":"node","addr:city":"صنعاء","addr:street":"شارع الزبيري","amenity":"bank","name:latin":"bnk al-ymn walkwyt"}},{"type":"Feature","id":4413068789,"geometry":{"type":"Point","coordinates":[44.19345620000001,15.344565200000002]},"properties":{"id":4413068789,"name":"بنك اليمن الدوليIBY","type":"bank","category":"finance","subcategory":"bank","osmType":"node","addr:street":"شارع الزبيري","amenity":"bank","name:ar":"بنك اليمن الدوليIBY","name:en":"IBY"}},{"type":"Feature","id":4418292289,"geometry":{"type":"Point","coordinates":[44.1931991,15.343296500000001]},"properties":{"id":4418292289,"name":"سويد للصرافة","type":"bureau_de_change","category":"finance","subcategory":"exchange","osmType":"node","amenity":"bureau_de_change","name:ar":"سويد للصرافة","name:en":"Swaid Exchange"}},{"type":"Feature","id":4431823390,"geometry":{"type":"Point","coordinates":[44.1952312,15.3120322]},"properties":{"id":4431823390,"name":"بنك اليمن الدولي","type":"bank","category":"finance","subcategory":"bank","osmType":"node","addr:street":"IBY ST","amenity":"bank","email":"info@ibyemen.com","name:ar":"بنك اليمن الدولي","name:en":"IBY","opening_hours":"Su-Th 09:00-16:00","website":"https://www.ibyemen.com/"}},{"type":"Feature","id":4431879591,"geometry":{"type":"Point","coordinates":[44.1954828,15.312770800000001]},"properties":{"id":4431879591,"name":"بنك التسليف التعاوني والزراعي;كاك بنك","type":"bank","category":"finance","subcategory":"bank","osmType":"node","addr:street":"شارع حدة","amenity":"bank","name:ar":"بنك التسليف التعاوني والزراعي;كاك بنك","name:en":"CAC Bank","opening_hours":"Su-Th 08:00-14:00","website":"http://cacbank.com.ye"}},{"type":"Feature","id":4431880290,"geometry":{"type":"Point","coordinates":[44.198531300000006,15.305569100000001]},"properties":{"id":4431880290,"name":"بنك الكريمي","type":"bank","category":"finance","subcategory":"bank","osmType":"node","addr:city":"صنعاء","addr:street":"شارع بيروت","amenity":"bank","name:en":"Al-Kuraimi Bank","opening_hours":"Sa-Th 09:00-18:00"}},{"type":"Feature","id":4431897989,"geometry":{"type":"Point","coordinates":[44.2179238,15.278490500000002]},"properties":{"id":4431897989,"name":"بنك اليمن والكويت","type":"bank","category":"finance","subcategory":"bank","osmType":"node","addr:street":"شارع الخمسين","amenity":"bank","name:ar":"بنك اليمن والكويت","name:en":"Yemen&Kuwait bank","opening_hours":"Su-Th 08:00-14:00"}},{"type":"Feature","id":4462688202,"geometry":{"type":"Point","coordinates":[44.182414,15.357432200000002]},"properties":{"id":4462688202,"name":"البنك التجاري اليمني فرع هائل","type":"bank","category":"finance","subcategory":"bank","osmType":"node","addr:street":"شارع الرقاص تقاطع شارع الرياض \"هايل سابقا\"","amenity":"bank","name:ar":"البنك التجاري اليمني فرع هائل","name:latin":"al-bnk al-tjary al-ymny fr' ha'l"}},{"type":"Feature","id":4472905437,"geometry":{"type":"Point","coordinates":[44.1892076,15.334216900000001]},"properties":{"id":4472905437,"name":"بن مسعود للصرافة","type":"bureau_de_change","category":"finance","subcategory":"exchange","osmType":"node","amenity":"bureau_de_change","name:ar":"بن مسعود للصرافه","name:en":"Masood For Exchange"}},{"type":"Feature","id":4490257089,"geometry":{"type":"Point","coordinates":[44.1964838,15.322886300000002]},"properties":{"id":4490257089,"name":"NMFY","type":"bank","category":"finance","subcategory":"bank","osmType":"node","addr:housenumber":"01440551","addr:street":"شارع حدة","amenity":"bank","email":"infonmf@nmfy.org","name:ar":"المؤسسة الوطنية للتمويل الاصغر","name:en":"NMFY","opening_hours":"Su-Th 08:00-16:00","phone":"01440551"}},{"type":"Feature","id":4493523292,"geometry":{"type":"Point","coordinates":[44.221533900000004,15.350045500000002]},"properties":{"id":4493523292,"name":"صرافة الصيفي","type":"bureau_de_change","category":"finance","subcategory":"exchange","osmType":"node","amenity":"bureau_de_change","name:ar":"صرافة الصيفي","name:latin":"srafa al-syfy"}},{"type":"Feature","id":4544311523,"geometry":{"type":"Point","coordinates":[44.212797800000004,15.281789400000001]},"properties":{"id":4544311523,"name":"بنك سبأ","type":"bank","category":"finance","subcategory":"bank","osmType":"node","addr:street":"شارع الخمسين","amenity":"bank","name:ar":"بنك سبأ","name:en":"Shiba Bank","opening_hours":"Su-Th 09:00-02:00"}},{"type":"Feature","id":4571473291,"geometry":{"type":"Point","coordinates":[44.1763027,15.3804408]},"properties":{"id":4571473291,"name":"","type":"atm","category":"finance","subcategory":"atm","osmType":"node","amenity":"atm"}},{"type":"Feature","id":4581290995,"geometry":{"type":"Point","coordinates":[44.230896900000005,15.3841844]},"properties":{"id":4581290995,"name":"عبدالله مفتاح للصرافة","type":"bank","category":"finance","subcategory":"bank","osmType":"node","addr:street":"شارع النصر","amenity":"bank","name:ar":"عبدالله مفتاح للصرافة","name:en":"Abdallah Mofftah currency exchange"}},{"type":"Feature","id":4581305393,"geometry":{"type":"Point","coordinates":[44.230795400000005,15.387045]},"properties":{"id":4581305393,"name":"صرافة","type":"bureau_de_change","category":"finance","subcategory":"exchange","osmType":"node","addr:street":"شارع النصر","amenity":"bureau_de_change","name:ar":"صرافة","operator":"الورقي","name:latin":"srafa"}},{"type":"Feature","id":4581307089,"geometry":{"type":"Point","coordinates":[44.230035900000004,15.382536400000001]},"properties":{"id":4581307089,"name":"بنك الكريمي","type":"bureau_de_change","category":"finance","subcategory":"exchange","osmType":"node","amenity":"bureau_de_change","name:en":"Alkorimi Bank"}},{"type":"Feature","id":4607722395,"geometry":{"type":"Point","coordinates":[44.2203171,15.280451200000002]},"properties":{"id":4607722395,"name":"علي العنسي للصرافة والتحويلات","type":"bureau_de_change","category":"finance","subcategory":"exchange","osmType":"node","addr:city":"صنعاء","addr:street":"شارع الأربعين","amenity":"bureau_de_change","name:ar":"علي العنسي للصرافة والتحويلات","name:en":"Ali alansi for axchange& transfer","phone":"01682012"}},{"type":"Feature","id":4693614991,"geometry":{"type":"Point","coordinates":[44.2237091,15.3220585]},"properties":{"id":4693614991,"name":"المؤتمن للصرفة والتحويلات","type":"bureau_de_change","category":"finance","subcategory":"exchange","osmType":"node","addr:street":"60 meters St","amenity":"bureau_de_change","name:ar":"المؤتمن للصرفة والتحويلات","phone":"+967771181690","name:latin":"al-m'tmn llsrfa walthwylat"}},{"type":"Feature","id":4739543221,"geometry":{"type":"Point","coordinates":[44.1988235,15.340894]},"properties":{"id":4739543221,"name":"بنك الكريمي","type":"bureau_de_change","category":"finance","subcategory":"exchange","osmType":"node","addr:city":"صنعاء","addr:street":"شارع حدة","amenity":"bureau_de_change","name:en":"Alkuraimi Bank","opening_hours":"Sa-Th 08:00-19:00; Fr 02:00-19:00","phone":"01503888-8008800"}},{"type":"Feature","id":4793848823,"geometry":{"type":"Point","coordinates":[44.1800002,15.357178800000002]},"properties":{"id":4793848823,"name":"بنك الكريمي","type":"bank","category":"finance","subcategory":"bank","osmType":"node","addr:street":"شارع الرقاص","amenity":"bank","name:ar":"الكريمي للصرافة","name:latin":"bnk al-krymy"}},{"type":"Feature","id":4811192121,"geometry":{"type":"Point","coordinates":[44.2059773,15.354600900000001]},"properties":{"id":4811192121,"name":"البنك اليمني للإنشاء والتعمير","type":"bank","category":"finance","subcategory":"bank","osmType":"node","addr:city":"صنعاء","addr:street":"ميدان التحرير","amenity":"bank","name:ar":"البنك اليمني للإنشاء والتعمير","name:latin":"al-bnk al-ymny llinsha' walt'myr"}},{"type":"Feature","id":4859614421,"geometry":{"type":"Point","coordinates":[44.170643600000005,15.338368200000001]},"properties":{"id":4859614421,"name":"","type":"atm","category":"finance","subcategory":"atm","osmType":"node","amenity":"atm"}},{"type":"Feature","id":4915720922,"geometry":{"type":"Point","coordinates":[44.180593200000004,15.3520081]},"properties":{"id":4915720922,"name":"بنك الكريمي","type":"bank","category":"finance","subcategory":"bank","osmType":"node","addr:street":"شارع 20","amenity":"bank","name:ar":"الكريمي للصرافه والحوالات","name:en":"Al-kurimi express"}},{"type":"Feature","id":4972300123,"geometry":{"type":"Point","coordinates":[44.2182906,15.278866700000002]},"properties":{"id":4972300123,"name":"الصيفي للصرافة","type":"bureau_de_change","category":"finance","subcategory":"exchange","osmType":"node","amenity":"bureau_de_change","name:ar":"الصيفي للصرافة","name:en":"Al-Saifi Money Exchange"}},{"type":"Feature","id":5041773521,"geometry":{"type":"Point","coordinates":[44.17356890000001,15.361131700000001]},"properties":{"id":5041773521,"name":"بنك الكريمي","type":"bank","category":"finance","subcategory":"bank","osmType":"node","addr:city":"صنعاء","addr:street":"شارع الستين","amenity":"bank","name:latin":"bnk al-krymy"}},{"type":"Feature","id":5052014525,"geometry":{"type":"Point","coordinates":[44.2276146,15.331494200000002]},"properties":{"id":5052014525,"name":"بنك اليمن الدولي","type":"bank","category":"finance","subcategory":"bank","osmType":"node","addr:street":"شارع 45","amenity":"bank","name:en":"IBY POS 45","opening_hours":"Sa-Th 08:00-14:00"}},{"type":"Feature","id":5079942633,"geometry":{"type":"Point","coordinates":[44.1835145,15.3355928]},"properties":{"id":5079942633,"name":"بنك الكريمي","type":"bank","category":"finance","subcategory":"bank","osmType":"node","addr:city":"صنعاء","addr:street":"شارع الجزائر","amenity":"bank","name:latin":"bnk al-krymy"}},{"type":"Feature","id":5102752521,"geometry":{"type":"Point","coordinates":[44.1832744,15.3545136]},"properties":{"id":5102752521,"name":"النجم للصرافة والتحويلات","type":"bureau_de_change","category":"finance","subcategory":"exchange","osmType":"node","addr:street":"شارع هائل","amenity":"bureau_de_change","name:ar":"النجم للصرافة والتحويلات","name:latin":"al-njm llsrafa walthwylat"}},{"type":"Feature","id":5179394921,"geometry":{"type":"Point","coordinates":[44.199025400000004,15.318794300000002]},"properties":{"id":5179394921,"name":"","type":"atm","category":"finance","subcategory":"atm","osmType":"node","amenity":"atm","opening_hours":"24/7","operator":"بنك اليمن الدولي"}},{"type":"Feature","id":5179394922,"geometry":{"type":"Point","coordinates":[44.1992805,15.3174088]},"properties":{"id":5179394922,"name":"","type":"atm","category":"finance","subcategory":"atm","osmType":"node","amenity":"atm","opening_hours":"24/7","operator":"بنك اليمن الدولي"}},{"type":"Feature","id":5179395121,"geometry":{"type":"Point","coordinates":[44.1987278,15.3190614]},"properties":{"id":5179395121,"name":"","type":"atm","category":"finance","subcategory":"atm","osmType":"node","amenity":"atm","opening_hours":"24/7","operator":"كاك بنك"}},{"type":"Feature","id":5206907721,"geometry":{"type":"Point","coordinates":[44.2361487,15.302516500000001]},"properties":{"id":5206907721,"name":"شركة انجاز للصرافة","type":"bureau_de_change","category":"finance","subcategory":"exchange","osmType":"node","amenity":"bureau_de_change","name:ar":"شركة انجاز للصرافة","name:latin":"shrka anjaz llsrafa"}},{"type":"Feature","id":5302424021,"geometry":{"type":"Point","coordinates":[44.1974054,15.323085200000001]},"properties":{"id":5302424021,"name":"المؤسسة الوطنية للتمويل الاصغر","type":"bank","category":"finance","subcategory":"bank","osmType":"node","addr:street":"شارع حدة","amenity":"bank","name:ar":"المؤسسة الوطنية للتمويل الاصغر","name:en":"National Microfinance Foundation","opening_hours":"Su-Th 08:00-16:00"}},{"type":"Feature","id":5325373825,"geometry":{"type":"Point","coordinates":[44.2185397,15.3621358]},"properties":{"id":5325373825,"name":"بنك الكريمي","type":"bank","category":"finance","subcategory":"bank","osmType":"node","amenity":"bank","name:ar":"فرع الكريمي للصرافة / المشهد شعوب","name:latin":"bnk al-krymy"}},{"type":"Feature","id":5337612821,"geometry":{"type":"Point","coordinates":[44.1842198,15.334380500000002]},"properties":{"id":5337612821,"name":"بنك الامل للتمويل الاصغر","type":"bank","category":"finance","subcategory":"bank","osmType":"node","addr:housenumber":"009671449731","addr:street":"شارع بغداد","amenity":"bank","email":"malmaktary@alamalbank.org","name:ar":"بنك الامل للتمويل الاصغر","opening_hours":"Su-We 08:00-15:00; Th 08:00-14:00","phone":"009671449731","website":"https://alamalbank.com/","name:latin":"bnk al-aml lltmwyl al-asghr"}},{"type":"Feature","id":5349430921,"geometry":{"type":"Point","coordinates":[44.1827593,15.3565906]},"properties":{"id":5349430921,"name":"شركة المريسي للصرافة","type":"bureau_de_change","category":"finance","subcategory":"exchange","osmType":"node","addr:street":"شارع هائل","amenity":"bureau_de_change","name:ar":"شركة المريسي للصرافة","phone":"012471122","name:latin":"shrka al-mrysy llsrafa"}},{"type":"Feature","id":5500468623,"geometry":{"type":"Point","coordinates":[44.1912322,15.369559800000001]},"properties":{"id":5500468623,"name":"بنك سبأ","type":"bank","category":"finance","subcategory":"bank","osmType":"node","addr:street":"شارع القاهرة","amenity":"bank","name:ar":"بنك سبأ فرع الجامعة","name:en":"saba bank universities branch"}},{"type":"Feature","id":5555922222,"geometry":{"type":"Point","coordinates":[44.235814500000004,15.3028343]},"properties":{"id":5555922222,"name":"محسن شرهان للصرافة","type":"bank","category":"finance","subcategory":"bank","osmType":"node","addr:street":"Ta'izz road","amenity":"bank","name:ar":"محسن شرهان للصرافه","opening_hours":"24/7","phone":"713020732","name:latin":"mhsn shrhan llsrafa"}},{"type":"Feature","id":5555957322,"geometry":{"type":"Point","coordinates":[44.234287300000005,15.3067492]},"properties":{"id":5555957322,"name":"البازل للصرافة والتحويلات","type":"bureau_de_change","category":"finance","subcategory":"exchange","osmType":"node","addr:street":"Ta'izz road","amenity":"bureau_de_change","name:ar":"البازل للصرافه والتحويلات","name:latin":"al-bazl llsrafa walthwylat"}},{"type":"Feature","id":5605956626,"geometry":{"type":"Point","coordinates":[44.174611000000006,15.357716600000002]},"properties":{"id":5605956626,"name":"المؤتمن إكسبرس للصرافة والتحويلات","type":"bureau_de_change","category":"finance","subcategory":"exchange","osmType":"node","addr:street":"شارع الستين","amenity":"bureau_de_change","name:ar":"المؤتمن إكسبرس للصرافة والتحويلات","name:latin":"al-m'tmn iksbrs llsrafa walthwylat"}},{"type":"Feature","id":5677928323,"geometry":{"type":"Point","coordinates":[44.2209586,15.2861407]},"properties":{"id":5677928323,"name":"بنك الكريمي","type":"bank","category":"finance","subcategory":"bank","osmType":"node","addr:street":"شارع الاربعين","amenity":"bank","name:ar":"بنك الكريمي","name:en":"Alkuraimi Bank","opening_hours":"Sa-Th 09:00-20:00"}},{"type":"Feature","id":5677933821,"geometry":{"type":"Point","coordinates":[44.222229500000005,15.296100200000001]},"properties":{"id":5677933821,"name":"حمود الحبله للصرافه","type":"bureau_de_change","category":"finance","subcategory":"exchange","osmType":"node","addr:street":"شارع الاربعين","amenity":"bureau_de_change","name:ar":"حمود الحبله للصرافه","opening_hours":"Sa-Th 09:00-19:00","name:latin":"hmwd al-hblh llsrafh"}},{"type":"Feature","id":5709382626,"geometry":{"type":"Point","coordinates":[44.231055000000005,15.379512000000002]},"properties":{"id":5709382626,"name":"بنك اليمن والكويت","type":"bank","category":"finance","subcategory":"bank","osmType":"node","addr:city":"صنعاء","addr:street":"شارع النصر","amenity":"bank","name:ar":"بنك اليمن والكويت","name:latin":"bnk al-ymn walkwyt"}},{"type":"Feature","id":5709382640,"geometry":{"type":"Point","coordinates":[44.232773200000004,15.375783000000002]},"properties":{"id":5709382640,"name":"صراف بنك التسليف التعاوني","type":"atm","category":"finance","subcategory":"atm","osmType":"node","amenity":"atm","name:ar":"صراف بنك التسليف التعاوني","name:latin":"sraf bnk al-tslyf al-t'awny"}},{"type":"Feature","id":5712437516,"geometry":{"type":"Point","coordinates":[44.2050921,15.373400000000002]},"properties":{"id":5712437516,"name":"شركة الرشيد للصرافة والتحويلات","type":"bureau_de_change","category":"finance","subcategory":"exchange","osmType":"node","addr:city":"صنعاء","addr:street":"شارع القيادة","amenity":"bureau_de_change","name:ar":"شركة الرشيد للصرافة والتحويلات","name:latin":"shrka al-rshyd llsrafa walthwylat"}},{"type":"Feature","id":5768426657,"geometry":{"type":"Point","coordinates":[44.2052963,15.372704200000001]},"properties":{"id":5768426657,"name":"بنك اليمن والبحرين","type":"bank","category":"finance","subcategory":"bank","osmType":"node","addr:street":"شارع القيادة","amenity":"bank","name:latin":"bnk al-ymn walbhryn"}},{"type":"Feature","id":5786621356,"geometry":{"type":"Point","coordinates":[44.219831500000005,15.2800094]},"properties":{"id":5786621356,"name":"السباحي للصرافة والتحويلات","type":"bureau_de_change","category":"finance","subcategory":"exchange","osmType":"node","addr:street":"شارع الاربعين","amenity":"bureau_de_change","opening_hours":"Sa-Th 13:00-02:00; Fr 21:00-02:00","name:latin":"al-sbahy llsrafa walthwylat"}},{"type":"Feature","id":5792818299,"geometry":{"type":"Point","coordinates":[44.2352277,15.285919800000002]},"properties":{"id":5792818299,"name":"بنك اليمن والكويت مكتب سبأ مول","type":"bank","category":"finance","subcategory":"bank","osmType":"node","addr:street":"شارع الحربي","amenity":"bank","name:en":"Yemen & Kuwait Bank Pos","opening_hours":"Su-Th 08:00-14:00"}},{"type":"Feature","id":5799990256,"geometry":{"type":"Point","coordinates":[44.222422400000006,15.370015600000002]},"properties":{"id":5799990256,"name":"الكريمي","type":"bank","category":"finance","subcategory":"bank","osmType":"node","amenity":"bank","name:latin":"al-krymy"}},{"type":"Feature","id":5816242957,"geometry":{"type":"Point","coordinates":[44.2062637,15.386885300000001]},"properties":{"id":5816242957,"name":"المنتاب للصرافة","type":"bureau_de_change","category":"finance","subcategory":"exchange","osmType":"node","addr:street":"شارع مازدا","amenity":"bureau_de_change","name:latin":"al-mntab llsrafa"}},{"type":"Feature","id":5875416575,"geometry":{"type":"Point","coordinates":[44.177290600000006,15.397632500000002]},"properties":{"id":5875416575,"name":"بنك اليمن والكويت","type":"bank","category":"finance","subcategory":"bank","osmType":"node","addr:city":"صنعاء","addr:street":"شارع الستين","amenity":"bank","name:latin":"bnk al-ymn walkwyt"}},{"type":"Feature","id":5875416576,"geometry":{"type":"Point","coordinates":[44.1760968,15.3972244]},"properties":{"id":5875416576,"name":"شركة الأكوع للصرافة","type":"bureau_de_change","category":"finance","subcategory":"exchange","osmType":"node","addr:city":"صنعاء","addr:street":"شارع الستين","amenity":"bureau_de_change","name:latin":"shrka al-akw' llsrafa"}},{"type":"Feature","id":5875416581,"geometry":{"type":"Point","coordinates":[44.17300230000001,15.394217500000002]},"properties":{"id":5875416581,"name":"أبو هشام للصرافة والتحويلات","type":"bureau_de_change","category":"finance","subcategory":"exchange","osmType":"node","addr:city":"صنعاء","addr:street":"شارع الستين","amenity":"bureau_de_change","name:latin":"abw hsham llsrafa walthwylat"}},{"type":"Feature","id":5875416896,"geometry":{"type":"Point","coordinates":[44.177591400000004,15.375733300000002]},"properties":{"id":5875416896,"name":"","type":"atm","category":"finance","subcategory":"atm","osmType":"node","amenity":"atm","operator":"اليمن البحرين الشامل"}},{"type":"Feature","id":5875416903,"geometry":{"type":"Point","coordinates":[44.1747494,15.3750002]},"properties":{"id":5875416903,"name":"بنك الكريمي","type":"bank","category":"finance","subcategory":"bank","osmType":"node","amenity":"bank","name:latin":"bnk al-krymy"}},{"type":"Feature","id":5875416940,"geometry":{"type":"Point","coordinates":[44.174379200000004,15.360546900000001]},"properties":{"id":5875416940,"name":"الصيفي للصرافة","type":"bureau_de_change","category":"finance","subcategory":"exchange","osmType":"node","addr:city":"صنعاء","addr:street":"شارع الستين","amenity":"bureau_de_change","name:latin":"al-syfy llsrafa"}},{"type":"Feature","id":5875416943,"geometry":{"type":"Point","coordinates":[44.1752751,15.3595815]},"properties":{"id":5875416943,"name":"البنك اليمني للانشاء والتعمير","type":"bank","category":"finance","subcategory":"bank","osmType":"node","addr:street":"شارع الرباط","amenity":"bank","name:latin":"al-bnk al-ymny llansha' walt'myr"}},{"type":"Feature","id":5895667988,"geometry":{"type":"Point","coordinates":[44.18332350000001,15.360541900000001]},"properties":{"id":5895667988,"name":"المتحدة للصرافة والتحويلات","type":"bureau_de_change","category":"finance","subcategory":"exchange","osmType":"node","addr:street":"شارع الرباط","amenity":"bureau_de_change","name:en":"The United for exchange and transfers."}},{"type":"Feature","id":5895667990,"geometry":{"type":"Point","coordinates":[44.1851635,15.360120300000002]},"properties":{"id":5895667990,"name":"بنك التضامن الإسلامي الدولي","type":"bank","category":"finance","subcategory":"bank","osmType":"node","addr:street":"شارع الرباط","amenity":"bank","name:latin":"bnk al-tdamn al-islamy al-dwly"}},{"type":"Feature","id":5967546661,"geometry":{"type":"Point","coordinates":[44.18412180000001,15.335263200000002]},"properties":{"id":5967546661,"name":"كاك بنك","type":"bank","category":"finance","subcategory":"bank","osmType":"node","amenity":"bank","name:latin":"kak bnk"}},{"type":"Feature","id":6009344397,"geometry":{"type":"Point","coordinates":[44.252973600000004,15.373113600000002]},"properties":{"id":6009344397,"name":"","type":"atm","category":"finance","subcategory":"atm","osmType":"node","amenity":"atm","operator":"المخازن"}},{"type":"Feature","id":6022377613,"geometry":{"type":"Point","coordinates":[44.19739250000001,15.315029000000001]},"properties":{"id":6022377613,"name":"بنك اليمن والكويت","type":"atm","category":"finance","subcategory":"atm","osmType":"node","amenity":"atm","name:latin":"bnk al-ymn walkwyt"}},{"type":"Feature","id":6028250145,"geometry":{"type":"Point","coordinates":[44.185269700000006,15.344712600000001]},"properties":{"id":6028250145,"name":"بنك الكريمي","type":"bank","category":"finance","subcategory":"bank","osmType":"node","addr:street":"شارع هائل","amenity":"bank","name:latin":"bnk al-krymy"}},{"type":"Feature","id":6028250158,"geometry":{"type":"Point","coordinates":[44.185225800000005,15.346430000000002]},"properties":{"id":6028250158,"name":"بنك سبأ الاسلامي","type":"bank","category":"finance","subcategory":"bank","osmType":"node","addr:street":"شارع هائل","amenity":"bank","name:latin":"bnk sba al-aslamy"}},{"type":"Feature","id":6124682886,"geometry":{"type":"Point","coordinates":[44.239296800000005,15.307826200000001]},"properties":{"id":6124682886,"name":"الكريمي","type":"bank","category":"finance","subcategory":"bank","osmType":"node","amenity":"bank","name:en":"Alkurymi Bank"}},{"type":"Feature","id":6124682887,"geometry":{"type":"Point","coordinates":[44.23591940000001,15.3032575]},"properties":{"id":6124682887,"name":"بنك الكريمي","type":"bank","category":"finance","subcategory":"bank","osmType":"node","addr:street":"شارع تعز","amenity":"bank","name:latin":"bnk al-krymy"}},{"type":"Feature","id":6198461385,"geometry":{"type":"Point","coordinates":[44.225045800000004,15.329476500000002]},"properties":{"id":6198461385,"name":"شركه العامري للصرافة والتحويلات","type":"bureau_de_change","category":"finance","subcategory":"exchange","osmType":"node","addr:street":"شارع ال45","amenity":"bureau_de_change","opening_hours":"Sa-Th 00:00-24:00","phone":"01600307","name:latin":"shrkh al-'amry llsrafa walthwylat"}},{"type":"Feature","id":6198469685,"geometry":{"type":"Point","coordinates":[44.2242448,15.319851700000001]},"properties":{"id":6198469685,"name":"شركه العامري للصرافة والتحويلات","type":"bureau_de_change","category":"finance","subcategory":"exchange","osmType":"node","addr:housenumber":"01625871","addr:street":"شارع 16","amenity":"bureau_de_change","opening_hours":"Sa-Th 09:00-20:00","website":"https://alameriexchange.com","name:latin":"shrkh al-'amry llsrafa walthwylat"}},{"type":"Feature","id":6216536956,"geometry":{"type":"Point","coordinates":[44.2061251,15.350497200000001]},"properties":{"id":6216536956,"name":"Dhahab Shell","type":"bureau_de_change","category":"finance","subcategory":"exchange","osmType":"node","amenity":"bureau_de_change"}},{"type":"Feature","id":6335971487,"geometry":{"type":"Point","coordinates":[44.23100960000001,15.304084800000002]},"properties":{"id":6335971487,"name":"المريسي للصرافة","type":"bureau_de_change","category":"finance","subcategory":"exchange","osmType":"node","addr:street":"شارع بينون","amenity":"bureau_de_change","name:en":"Almorisi Exchanges","opening_hours":"Sa-Th 09:00-21:00"}},{"type":"Feature","id":6338101285,"geometry":{"type":"Point","coordinates":[44.1758716,15.297962700000001]},"properties":{"id":6338101285,"name":"بنك الكريمي المركز الرئيسي","type":"bank","category":"finance","subcategory":"bank","osmType":"node","addr:street":"شارع حدة","amenity":"bank","name:en":"Alkuraimi Bank HQ","opening_hours":"Sa-Th 09:00-20:00","website":"http://www.alkuraimi.com"}},{"type":"Feature","id":6357184585,"geometry":{"type":"Point","coordinates":[44.222233900000006,15.293123600000001]},"properties":{"id":6357184585,"name":"رشاد بحير للصرافة","type":"bureau_de_change","category":"finance","subcategory":"exchange","osmType":"node","addr:street":"شارع 22 مايو","amenity":"bureau_de_change","opening_hours":"Mo-Th, Sa, Su 09:00-20:00","name:latin":"rshad bhyr llsrafa"}},{"type":"Feature","id":6370050188,"geometry":{"type":"Point","coordinates":[44.2321098,15.312812200000002]},"properties":{"id":6370050188,"name":"بنك الأمل","type":"bank","category":"finance","subcategory":"bank","osmType":"node","addr:city":"صنعاء","addr:street":"شارع تعز","amenity":"bank","name:latin":"bnk al-aml"}},{"type":"Feature","id":6423557153,"geometry":{"type":"Point","coordinates":[44.2337009,15.309702500000002]},"properties":{"id":6423557153,"name":"شركة العمقي وإخوانه للصرافة","type":"bureau_de_change","category":"finance","subcategory":"exchange","osmType":"node","addr:full":"جوار البريد","amenity":"bureau_de_change","branch":"فرع شميلة - صنعاء","name:ar":"شركة العمقي وإخوانه للصرافة - فرع شميلة - صنعاء","name:en":"AlOmqy & Bros. Money Exchange Company - SHAMEELAH Branch","opening_hours":"Sa-Th 08:30-20:00","operator":"شركة العمقي وإخوانه للصرافة","phone":"+9671620168;+9671620560","source":"Alomqy Jawal Android App as requested form AlOmqy Co.","source:omqy_id":"75","website":"https://alomqy.com/"}},{"type":"Feature","id":6423559792,"geometry":{"type":"Point","coordinates":[44.193501000000005,15.344442]},"properties":{"id":6423559792,"name":"شركة العمقي وإخوانه للصرافة - فرع صنعاء الزبيري","type":"bureau_de_change","category":"finance","subcategory":"exchange","osmType":"node","addr:full":"شارع الزبيري – أمام بنك اليمن الدولي","amenity":"bureau_de_change","branch":"فرع صنعاء الزبيري","name:ar":"شركة العمقي وإخوانه للصرافة - فرع صنعاء الزبيري","name:en":"AlOmqy & Bros. Money Exchange Company - AL-ZUBEERIY Branch","opening_hours":"Sa-Th 08:30-20:00","operator":"شركة العمقي وإخوانه للصرافة","phone":"+9671536302;+9671536303","source":"Alomqy Jawal Android App as requested form AlOmqy Co.","source:omqy_id":"21","website":"https://alomqy.com/"}},{"type":"Feature","id":6449398285,"geometry":{"type":"Point","coordinates":[44.2299554,15.466633600000002]},"properties":{"id":6449398285,"name":"الكريمي للصرافة","type":"bureau_de_change","category":"finance","subcategory":"exchange","osmType":"node","addr:street":"شارع مصعب بن عمير - الخط الجديد","amenity":"bureau_de_change","name:en":"AL-Kurymy for Currency Exchange","opening_hours":"Sa-Th 09:00-18:00"}},{"type":"Feature","id":6918427385,"geometry":{"type":"Point","coordinates":[44.2143139,15.271571200000002]},"properties":{"id":6918427385,"name":"شركة الظفري للصرافة والتحويلات","type":"bank","category":"finance","subcategory":"bank","osmType":"node","addr:housenumber":"0165556","addr:street":"شارع ‏الثلاثين","amenity":"bank","name:en":"الإدارة العامة","name:latin":"shrka al-zfry llsrafa walthwylat"}},{"type":"Feature","id":6919672387,"geometry":{"type":"Point","coordinates":[44.20797030000001,15.387625800000002]},"properties":{"id":6919672387,"name":"العيدروس للصرافة","type":"bureau_de_change","category":"finance","subcategory":"exchange","osmType":"node","addr:city":"صنعاء","addr:street":"شارع التلفزيون","amenity":"bureau_de_change","name:latin":"al-'ydrws llsrafa"}},{"type":"Feature","id":7428153086,"geometry":{"type":"Point","coordinates":[44.217952800000006,15.399260100000001]},"properties":{"id":7428153086,"name":"","type":"atm","category":"finance","subcategory":"atm","osmType":"node","amenity":"atm"}},{"type":"Feature","id":7434399967,"geometry":{"type":"Point","coordinates":[44.1843201,15.335515800000001]},"properties":{"id":7434399967,"name":"شركه ضفار للصرافه والتحويلات","type":"bureau_de_change","category":"finance","subcategory":"exchange","osmType":"node","amenity":"bureau_de_change","name:latin":"shrkh dfar llsrafh walthwylat"}},{"type":"Feature","id":7445083692,"geometry":{"type":"Point","coordinates":[44.21993500000001,15.328976500000001]},"properties":{"id":7445083692,"name":"بنك الكريمي","type":"bank","category":"finance","subcategory":"bank","osmType":"node","amenity":"bank","name:latin":"bnk al-krymy"}},{"type":"Feature","id":7490797894,"geometry":{"type":"Point","coordinates":[44.1743431,15.3554109]},"properties":{"id":7490797894,"name":"شركة الرحاب للصرافة","type":"bureau_de_change","category":"finance","subcategory":"exchange","osmType":"node","addr:street":"شارع الستين","amenity":"bureau_de_change","opening_hours":"Mo-Su 08:00-21:00","name:latin":"shrka al-rhab llsrafa"}},{"type":"Feature","id":7669719086,"geometry":{"type":"Point","coordinates":[44.232774000000006,15.311760300000001]},"properties":{"id":7669719086,"name":"دحان مفتاح للصرافة","type":"bureau_de_change","category":"finance","subcategory":"exchange","osmType":"node","addr:street":"شارع السفينة","amenity":"bureau_de_change","name:en":"DAHAN X PRESS"}},{"type":"Feature","id":7702811534,"geometry":{"type":"Point","coordinates":[44.178934000000005,15.399236700000001]},"properties":{"id":7702811534,"name":"بنك اليمن والكويت","type":"bank","category":"finance","subcategory":"bank","osmType":"node","amenity":"bank","name:latin":"bnk al-ymn walkwyt"}},{"type":"Feature","id":7711237220,"geometry":{"type":"Point","coordinates":[44.204824300000006,15.397320700000002]},"properties":{"id":7711237220,"name":"بنك الكريمي","type":"bank","category":"finance","subcategory":"bank","osmType":"node","amenity":"bank","name:latin":"bnk al-krymy"}},{"type":"Feature","id":7775619886,"geometry":{"type":"Point","coordinates":[44.2326373,15.2857654]},"properties":{"id":7775619886,"name":"شركة أحمد العامري للصرافة والتحويلات","type":"bureau_de_change","category":"finance","subcategory":"exchange","osmType":"node","addr:street":"شارع الحربي","amenity":"bureau_de_change","opening_hours":"Sa-Th 09:00-13:00, 16:00-21:00","name:latin":"shrka ahmd al-'amry llsrafa walthwylat"}},{"type":"Feature","id":7881529285,"geometry":{"type":"Point","coordinates":[44.1745979,15.357882400000001]},"properties":{"id":7881529285,"name":"المستقبل للصرافة والتحويلات","type":"bureau_de_change","category":"finance","subcategory":"exchange","osmType":"node","addr:housenumber":"01214690","addr:street":"شارع الستين متر","amenity":"bureau_de_change","name:latin":"al-mstqbl llsrafa walthwylat"}},{"type":"Feature","id":8026160785,"geometry":{"type":"Point","coordinates":[44.2406579,15.289505000000002]},"properties":{"id":8026160785,"name":"بنك الكريمي","type":"bank","category":"finance","subcategory":"bank","osmType":"node","addr:city":"صنعاء","addr:street":"شارع تعز","amenity":"bank","name:latin":"bnk al-krymy"}},{"type":"Feature","id":8026160886,"geometry":{"type":"Point","coordinates":[44.2406141,15.289676000000002]},"properties":{"id":8026160886,"name":"شركة الزاجل للصرافة والتحويلات","type":"bureau_de_change","category":"finance","subcategory":"exchange","osmType":"node","addr:city":"صنعاء","addr:street":"شارع تعز","amenity":"bureau_de_change","name:ar":"شركة الزاجل للصرافة والتحويلات /شارع تعز تقاطع الحربي","name:latin":"shrka al-zajl llsrafa walthwylat"}},{"type":"Feature","id":8026160888,"geometry":{"type":"Point","coordinates":[44.2405893,15.289758100000002]},"properties":{"id":8026160888,"name":"اوكلاند للصرافة والتحويلات","type":"bureau_de_change","category":"finance","subcategory":"exchange","osmType":"node","addr:city":"صنعاء","addr:street":"شارع تعز","amenity":"bureau_de_change","name:latin":"awkland llsrafa walthwylat"}},{"type":"Feature","id":8173491017,"geometry":{"type":"Point","coordinates":[44.20717990000001,15.3888402]},"properties":{"id":8173491017,"name":"شركة العيدروس للصرافة والتحويلات","type":"bureau_de_change","category":"finance","subcategory":"exchange","osmType":"node","addr:housenumber":"1315000","addr:street":"شارع التلفزيون","amenity":"bureau_de_change","opening_hours":"Sa-Th 09:00-21:00; Fr 16:00-20:00","phone":"+9671313000","name:latin":"shrka al-'ydrws llsrafa walthwylat"}},{"type":"Feature","id":8355731702,"geometry":{"type":"Point","coordinates":[44.1900472,15.307814900000002]},"properties":{"id":8355731702,"name":"بنك التضامن (فرع المدينة)","type":"bank","category":"finance","subcategory":"bank","osmType":"node","amenity":"bank","atm":"yes","name:latin":"bnk al-tdamn (fr' al-mdyna)"}},{"type":"Feature","id":8383195019,"geometry":{"type":"Point","coordinates":[44.2067357,15.3658069]},"properties":{"id":8383195019,"name":"شركة الحجري للصرافة الإدارة العامة","type":"bank","category":"finance","subcategory":"bank","osmType":"node","addr:street":"شارع القيادة","amenity":"bank","name:latin":"shrka al-hjry llsrafa al-idara al-'ama"}},{"type":"Feature","id":8383195818,"geometry":{"type":"Point","coordinates":[44.244235,15.384316900000002]},"properties":{"id":8383195818,"name":"شركة سنان مفتاح للصرافة","type":"bank","category":"finance","subcategory":"bank","osmType":"node","amenity":"bank","name:latin":"shrka snan mftah llsrafa"}},{"type":"Feature","id":8383195819,"geometry":{"type":"Point","coordinates":[44.2232684,15.387772900000002]},"properties":{"id":8383195819,"name":"آزال للتمويل الأصغر فرع غيمان","type":"bank","category":"finance","subcategory":"bank","osmType":"node","addr:street":"شارع الشيخ زايد","amenity":"bank","name:latin":"azal lltmwyl al-asghr fr' ghyman"}},{"type":"Feature","id":8383195824,"geometry":{"type":"Point","coordinates":[44.194065900000005,15.338352500000001]},"properties":{"id":8383195824,"name":"شركة الصيفي للصرافة شارع صخر","type":"bureau_de_change","category":"finance","subcategory":"exchange","osmType":"node","amenity":"bureau_de_change","name:latin":"shrka al-syfy llsrafa shar' skhr"}},{"type":"Feature","id":8395475494,"geometry":{"type":"Point","coordinates":[44.23002640000001,15.3044185]},"properties":{"id":8395475494,"name":"الكريمي إكسبرس","type":"bank","category":"finance","subcategory":"bank","osmType":"node","addr:street":"شارع بينون","amenity":"bank","name:latin":"al-krymy iksbrs"}},{"type":"Feature","id":8638349217,"geometry":{"type":"Point","coordinates":[44.1990448,15.3376221]},"properties":{"id":8638349217,"name":"النجم للحوالات المالية","type":"bureau_de_change","category":"finance","subcategory":"exchange","osmType":"node","amenity":"bureau_de_change","name:latin":"al-njm llhwalat al-malya"}},{"type":"Feature","id":8638932204,"geometry":{"type":"Point","coordinates":[44.2005435,15.303977300000001]},"properties":{"id":8638932204,"name":"الأمازون اكسبرس للصرافة والتحويلات المالية","type":"bureau_de_change","category":"finance","subcategory":"exchange","osmType":"node","amenity":"bureau_de_change","name:latin":"al-amazwn aksbrs llsrafa walthwylat al-malya"}},{"type":"Feature","id":8687996469,"geometry":{"type":"Point","coordinates":[44.2047346,15.398708100000002]},"properties":{"id":8687996469,"name":"ابن الشرفي للصرافة والتحويلات","type":"bureau_de_change","category":"finance","subcategory":"exchange","osmType":"node","amenity":"bureau_de_change","name:latin":"abn al-shrfy llsrafa walthwylat"}},{"type":"Feature","id":8703359517,"geometry":{"type":"Point","coordinates":[44.1776947,15.397994500000001]},"properties":{"id":8703359517,"name":"بنك الكريمي","type":"bank","category":"finance","subcategory":"bank","osmType":"node","addr:city":"صنعاء","addr:street":"شارع الستين","amenity":"bank","name:latin":"bnk al-krymy"}},{"type":"Feature","id":8750093174,"geometry":{"type":"Point","coordinates":[44.22641470000001,15.321390800000001]},"properties":{"id":8750093174,"name":"مؤسسة القرماني للصرافة","type":"bureau_de_change","category":"finance","subcategory":"exchange","osmType":"node","addr:city":"صنعاء","addr:street":"شارع 17","amenity":"bureau_de_change","currency:AED":"yes","currency:EUR":"yes","currency:SAR":"yes","currency:USD":"yes","currency:YER":"yes","name:latin":"m'ssa al-qrmany llsrafa"}},{"type":"Feature","id":8809415619,"geometry":{"type":"Point","coordinates":[44.2413613,15.308953400000002]},"properties":{"id":8809415619,"name":"","type":"atm","category":"finance","subcategory":"atm","osmType":"node","amenity":"atm"}},{"type":"Feature","id":8829384518,"geometry":{"type":"Point","coordinates":[44.182892100000004,15.3722492]},"properties":{"id":8829384518,"name":"بنك اليمن الدولي","type":"bank","category":"finance","subcategory":"bank","osmType":"node","amenity":"bank","name:latin":"bnk al-ymn al-dwly"}},{"type":"Feature","id":8879846417,"geometry":{"type":"Point","coordinates":[44.168606700000005,15.376679000000001]},"properties":{"id":8879846417,"name":"عرفات","type":"bank","category":"finance","subcategory":"bank","osmType":"node","amenity":"bank","name:latin":"'rfat"}},{"type":"Feature","id":8900172017,"geometry":{"type":"Point","coordinates":[44.1897305,15.4207674]},"properties":{"id":8900172017,"name":"شركة الضمان للصرافة","type":"bureau_de_change","category":"finance","subcategory":"exchange","osmType":"node","amenity":"bureau_de_change","name:latin":"shrka al-dman llsrafa"}},{"type":"Feature","id":8947066117,"geometry":{"type":"Point","coordinates":[44.2306637,15.316601100000002]},"properties":{"id":8947066117,"name":"شركة ظفار للصرافة والتحويلات","type":"bureau_de_change","category":"finance","subcategory":"exchange","osmType":"node","addr:street":"شارع تعز","amenity":"bureau_de_change","name:en":"dhofar express for exchange & remittance co","phone":"01683199"}},{"type":"Feature","id":9024978817,"geometry":{"type":"Point","coordinates":[44.227908000000006,15.3721127]},"properties":{"id":9024978817,"name":"شركة الأكوع فرع المنزل","type":"bureau_de_change","category":"finance","subcategory":"exchange","osmType":"node","amenity":"bureau_de_change","name:latin":"shrka al-akw' fr' al-mnzl"}},{"type":"Feature","id":9029904618,"geometry":{"type":"Point","coordinates":[44.2173949,15.351914500000001]},"properties":{"id":9029904618,"name":"","type":"atm","category":"finance","subcategory":"atm","osmType":"node","amenity":"atm","operator":"الاهلي للصرافة والتحويلات"}},{"type":"Feature","id":9445923243,"geometry":{"type":"Point","coordinates":[44.2143134,15.379924700000002]},"properties":{"id":9445923243,"name":"النعمان للصرافة","type":"bureau_de_change","category":"finance","subcategory":"exchange","osmType":"node","amenity":"bureau_de_change","name:latin":"al-n'man llsrafa"}},{"type":"Feature","id":9445928124,"geometry":{"type":"Point","coordinates":[44.20531810000001,15.397167200000002]},"properties":{"id":9445928124,"name":"بنك اليمن الدولي","type":"bank","category":"finance","subcategory":"bank","osmType":"node","addr:city":"صنعاء","addr:street":"شارع التلفزيون","amenity":"bank","name:latin":"bnk al-ymn al-dwly"}},{"type":"Feature","id":9540310330,"geometry":{"type":"Point","coordinates":[44.207671000000005,15.3511199]},"properties":{"id":9540310330,"name":"","type":"atm","category":"finance","subcategory":"atm","osmType":"node","amenity":"atm","operator":"شركة النعمان للصرافة"}},{"type":"Feature","id":9540310332,"geometry":{"type":"Point","coordinates":[44.1924575,15.344847200000002]},"properties":{"id":9540310332,"name":"البنك الإسلامي اليمني","type":"bank","category":"finance","subcategory":"bank","osmType":"node","amenity":"bank","name:en":"Islamic Bank of Yemen"}},{"type":"Feature","id":9557809934,"geometry":{"type":"Point","coordinates":[44.206749200000004,15.357685600000002]},"properties":{"id":9557809934,"name":"بنك الكريمي","type":"bank","category":"finance","subcategory":"bank","osmType":"node","amenity":"bank","name:latin":"bnk al-krymy"}},{"type":"Feature","id":9921053703,"geometry":{"type":"Point","coordinates":[44.2139341,15.3800015]},"properties":{"id":9921053703,"name":"بنك الكريمي","type":"bank","category":"finance","subcategory":"bank","osmType":"node","amenity":"bank","atm":"yes","name:latin":"bnk al-krymy"}},{"type":"Feature","id":9975466817,"geometry":{"type":"Point","coordinates":[44.235784100000004,15.302820700000002]},"properties":{"id":9975466817,"name":"","type":"bureau_de_change","category":"finance","subcategory":"exchange","osmType":"node","addr:street":"شارع تعز","amenity":"bureau_de_change","opening_hours":"24/7","phone":"01630333"}},{"type":"Feature","id":10614857179,"geometry":{"type":"Point","coordinates":[44.2069222,15.3898164]},"properties":{"id":10614857179,"name":"شركة الصيفي للصرافة","type":"bureau_de_change","category":"finance","subcategory":"exchange","osmType":"node","addr:city":"صنعاء","addr:street":"شارع التلفزيون","amenity":"bureau_de_change","name:latin":"shrka al-syfy llsrafa"}},{"type":"Feature","id":10624927347,"geometry":{"type":"Point","coordinates":[44.1891971,15.3359903]},"properties":{"id":10624927347,"name":"بنك الكريمي الإسلامي","type":"bank","category":"finance","subcategory":"bank","osmType":"node","addr:city":"مدينة صنعاء","addr:street":"شارع عمان","amenity":"bank","name:latin":"bnk al-krymy al-islamy"}},{"type":"Feature","id":10632742534,"geometry":{"type":"Point","coordinates":[44.223916800000005,15.331115900000002]},"properties":{"id":10632742534,"name":"البنك اليمني للانشاء والتعمير","type":"bank","category":"finance","subcategory":"bank","osmType":"node","addr:city":"صنعاء","addr:street":"شارع تعز","amenity":"bank","phone":"+967 1 288880","name:latin":"al-bnk al-ymny llansha' walt'myr"}},{"type":"Feature","id":10761192555,"geometry":{"type":"Point","coordinates":[44.2051281,15.3962134]},"properties":{"id":10761192555,"name":"شركة أولاد أمين صالح للصرافة والتحويلات","type":"money_transfer","category":"finance","subcategory":"exchange","osmType":"node","addr:street":"شارع صوفان","amenity":"money_transfer","name:latin":"shrka awlad amyn salh llsrafa walthwylat"}},{"type":"Feature","id":11079015846,"geometry":{"type":"Point","coordinates":[44.20586780000001,15.351748700000002]},"properties":{"id":11079015846,"name":"المهند للصرافة والتحويلات","type":"bureau_de_change","category":"finance","subcategory":"exchange","osmType":"node","amenity":"bureau_de_change","name:latin":"al-mhnd llsrafa walthwylat"}},{"type":"Feature","id":11079015869,"geometry":{"type":"Point","coordinates":[44.203305400000005,15.351356200000001]},"properties":{"id":11079015869,"name":"العطيري للصرافة","type":"bureau_de_change","category":"finance","subcategory":"exchange","osmType":"node","amenity":"bureau_de_change","name:latin":"al-'tyry llsrafa"}},{"type":"Feature","id":11112247305,"geometry":{"type":"Point","coordinates":[44.1567586,15.3940084]},"properties":{"id":11112247305,"name":"الشوخي للصرافة","type":"bureau_de_change","category":"finance","subcategory":"exchange","osmType":"node","amenity":"bureau_de_change","name:latin":"al-shwkhy llsrafa"}},{"type":"Feature","id":11367283138,"geometry":{"type":"Point","coordinates":[44.2079066,15.387707500000001]},"properties":{"id":11367283138,"name":"العروي للصرافة والتحويلات","type":"bureau_de_change","category":"finance","subcategory":"exchange","osmType":"node","addr:city":"صنعاء","addr:street":"شارع التلفزيون","amenity":"bureau_de_change","name:latin":"al-'rwy llsrafa walthwylat"}},{"type":"Feature","id":11367283140,"geometry":{"type":"Point","coordinates":[44.2076903,15.387978600000002]},"properties":{"id":11367283140,"name":"الغيث للصرافة والتحويلات","type":"bureau_de_change","category":"finance","subcategory":"exchange","osmType":"node","addr:city":"صنعاء","addr:street":"شارع التلفزيون","amenity":"bureau_de_change","name:latin":"al-ghyth llsrafa walthwylat"}},{"type":"Feature","id":11627201674,"geometry":{"type":"Point","coordinates":[44.2616085,15.2803739]},"properties":{"id":11627201674,"name":"","type":"bureau_de_change","category":"finance","subcategory":"exchange","osmType":"node","amenity":"bureau_de_change"}},{"type":"Feature","id":11844857205,"geometry":{"type":"Point","coordinates":[44.167514800000006,15.341559600000002]},"properties":{"id":11844857205,"name":"المسعودي للصرافة","type":"bureau_de_change","category":"finance","subcategory":"exchange","osmType":"node","amenity":"bureau_de_change","name:latin":"al-ms'wdy llsrafa"}},{"type":"Feature","id":11844863370,"geometry":{"type":"Point","coordinates":[44.1919076,15.3442307]},"properties":{"id":11844863370,"name":"شركة الحزمي للصرافه","type":"bureau_de_change","category":"finance","subcategory":"exchange","osmType":"node","addr:street":"شارع الزبيري","amenity":"bureau_de_change","name:latin":"shrka al-hzmy llsrafh"}},{"type":"Feature","id":11876195669,"geometry":{"type":"Point","coordinates":[44.200128500000005,15.290887000000001]},"properties":{"id":11876195669,"name":"القاسمي للصرافة","type":"bureau_de_change","category":"finance","subcategory":"exchange","osmType":"node","amenity":"bureau_de_change","name:en":"Al qasmi for exchange"}},{"type":"Feature","id":11882046569,"geometry":{"type":"Point","coordinates":[44.1666576,15.343062000000002]},"properties":{"id":11882046569,"name":"الصراف الالي","type":"bureau_de_change","category":"finance","subcategory":"exchange","osmType":"node","addr:street":"شارع الضغط العالي الكهرباء","amenity":"bureau_de_change","name:latin":"al-sraf al-aly"}},{"type":"Feature","id":12403304124,"geometry":{"type":"Point","coordinates":[44.245072500000006,15.3705998]},"properties":{"id":12403304124,"name":"بنك الكريمي","type":"bank","category":"finance","subcategory":"bank","osmType":"node","addr:city":"صنعاء","addr:street":"شارع الأربعين","amenity":"bank","name:latin":"bnk al-krymy"}},{"type":"Feature","id":12403304154,"geometry":{"type":"Point","coordinates":[44.245541100000004,15.3723217]},"properties":{"id":12403304154,"name":"شركة الجهوي للصرافة والتحويلات","type":"bureau_de_change","category":"finance","subcategory":"exchange","osmType":"node","addr:city":"صنعاء","addr:street":"شارع الأربعين","amenity":"bureau_de_change","name:latin":"shrka al-jhwy llsrafa walthwylat"}},{"type":"Feature","id":12409058828,"geometry":{"type":"Point","coordinates":[44.198863300000006,15.327148200000002]},"properties":{"id":12409058828,"name":"شركة اليحيى للصرافة","type":"bureau_de_change","category":"finance","subcategory":"exchange","osmType":"node","addr:city":"صنعاء","addr:street":"شارع حدة","amenity":"bureau_de_change","name:latin":"shrka al-yhya llsrafa"}},{"type":"Feature","id":12411808592,"geometry":{"type":"Point","coordinates":[44.2047741,15.397662200000001]},"properties":{"id":12411808592,"name":"البلاد للصرافة","type":"bureau_de_change","category":"finance","subcategory":"exchange","osmType":"node","amenity":"bureau_de_change","name:latin":"al-blad llsrafa"}},{"type":"Feature","id":12538695273,"geometry":{"type":"Point","coordinates":[44.2012544,15.305639900000001]},"properties":{"id":12538695273,"name":"بيتكوين للصرافة والتحويلات","type":"bureau_de_change","category":"finance","subcategory":"exchange","osmType":"node","addr:city":"صنعاء","addr:street":"شارع 14 أكتوبر","amenity":"bureau_de_change","name:latin":"bytkwyn llsrafa walthwylat"}},{"type":"Feature","id":12559596139,"geometry":{"type":"Point","coordinates":[44.198199300000006,15.343720000000001]},"properties":{"id":12559596139,"name":"الحمدي للصرافة","type":"bureau_de_change","category":"finance","subcategory":"exchange","osmType":"node","addr:city":"صنعاء","addr:street":"شارع حدة","amenity":"bureau_de_change","name:latin":"al-hmdy llsrafa"}},{"type":"Feature","id":12559596149,"geometry":{"type":"Point","coordinates":[44.198332300000004,15.342140500000001]},"properties":{"id":12559596149,"name":"شركة الناصر للصرافة","type":"bureau_de_change","category":"finance","subcategory":"exchange","osmType":"node","addr:city":"صنعاء","addr:street":"شارع حدة","amenity":"bureau_de_change","name:latin":"shrka al-nasr llsrafa"}},{"type":"Feature","id":12559596155,"geometry":{"type":"Point","coordinates":[44.198452700000004,15.3413172]},"properties":{"id":12559596155,"name":"شركة الغراسي للصرافة","type":"bureau_de_change","category":"finance","subcategory":"exchange","osmType":"node","addr:city":"صنعاء","addr:street":"شارع حدة","amenity":"bureau_de_change","name:latin":"shrka al-ghrasy llsrafa"}},{"type":"Feature","id":12559596183,"geometry":{"type":"Point","coordinates":[44.198458300000006,15.335714600000001]},"properties":{"id":12559596183,"name":"بنك التسليف التعاوني الزراعي","type":"bank","category":"finance","subcategory":"bank","osmType":"node","addr:city":"صنعاء","addr:street":"شارع حدة","amenity":"bank","name:latin":"bnk al-tslyf al-t'awny al-zra'y"}},{"type":"Feature","id":12563189824,"geometry":{"type":"Point","coordinates":[44.2384964,15.2967092]},"properties":{"id":12563189824,"name":"بنك اليمن والكويت الإسلامي","type":"bank","category":"finance","subcategory":"bank","osmType":"node","addr:city":"صنعاء","addr:street":"شارع تعز","amenity":"bank","name:latin":"bnk al-ymn walkwyt al-islamy"}},{"type":"Feature","id":12573635352,"geometry":{"type":"Point","coordinates":[44.2275678,15.3232683]},"properties":{"id":12573635352,"name":"شركة الحزمي للصرافة","type":"bureau_de_change","category":"finance","subcategory":"exchange","osmType":"node","addr:city":"صنعاء","addr:street":"شارع تعز","amenity":"bureau_de_change","name:latin":"shrka al-hzmy llsrafa"}},{"type":"Feature","id":12573635369,"geometry":{"type":"Point","coordinates":[44.231673900000004,15.285985100000001]},"properties":{"id":12573635369,"name":"الحزمي للصرافة","type":"bureau_de_change","category":"finance","subcategory":"exchange","osmType":"node","addr:city":"صنعاء","addr:street":"شارع الحربي","amenity":"bureau_de_change","name:latin":"al-hzmy llsrafa"}},{"type":"Feature","id":12573635378,"geometry":{"type":"Point","coordinates":[44.16858010000001,15.341616900000002]},"properties":{"id":12573635378,"name":"بنك الكريمي","type":"bank","category":"finance","subcategory":"bank","osmType":"node","addr:city":"صنعاء","addr:street":"طريق صنعاء الحديدة","amenity":"bank","name:latin":"bnk al-krymy"}},{"type":"Feature","id":12583232258,"geometry":{"type":"Point","coordinates":[44.217299100000005,15.347567800000002]},"properties":{"id":12583232258,"name":"بنك الكريمي","type":"bank","category":"finance","subcategory":"bank","osmType":"node","addr:city":"صنعاء","addr:street":"شارع تعز","amenity":"bank","name:latin":"bnk al-krymy"}},{"type":"Feature","id":12583232918,"geometry":{"type":"Point","coordinates":[44.213442400000005,15.281383900000002]},"properties":{"id":12583232918,"name":"بنك الكريمي","type":"bank","category":"finance","subcategory":"bank","osmType":"node","addr:city":"صنعاء","addr:street":"شارع الخمسين","amenity":"bank","name:latin":"bnk al-krymy"}},{"type":"Feature","id":12587121815,"geometry":{"type":"Point","coordinates":[44.2527855,15.2366749]},"properties":{"id":12587121815,"name":"بنك الكريمي","type":"bank","category":"finance","subcategory":"bank","osmType":"node","addr:street":"طريق صنعاء تعز","amenity":"bank","name:latin":"bnk al-krymy"}},{"type":"Feature","id":12589613318,"geometry":{"type":"Point","coordinates":[44.2048776,15.386219900000002]},"properties":{"id":12589613318,"name":"المحبشي للصرافة","type":"bureau_de_change","category":"finance","subcategory":"exchange","osmType":"node","amenity":"bureau_de_change","name:latin":"al-mhbshy llsrafa"}},{"type":"Feature","id":12615185308,"geometry":{"type":"Point","coordinates":[44.188797,15.351428000000002]},"properties":{"id":12615185308,"name":"بنك الكريمي","type":"bank","category":"finance","subcategory":"bank","osmType":"node","amenity":"bank","name:latin":"bnk al-krymy"}},{"type":"Feature","id":12621496388,"geometry":{"type":"Point","coordinates":[44.22175480000001,15.287850500000001]},"properties":{"id":12621496388,"name":"بنك التضامن الإسلامي","type":"bank","category":"finance","subcategory":"bank","osmType":"node","addr:city":"صنعاء","addr:street":"شارع الأربعين","amenity":"bank","name:latin":"bnk al-tdamn al-islamy"}},{"type":"Feature","id":13437302936,"geometry":{"type":"Point","coordinates":[44.22766730000001,15.3333194]},"properties":{"id":13437302936,"name":"بنك الكريمي","type":"bank","category":"finance","subcategory":"bank","osmType":"node","amenity":"bank","atm":"yes","name:latin":"bnk al-krymy"}},{"type":"Feature","id":13437302978,"geometry":{"type":"Point","coordinates":[44.216162600000004,15.335805200000001]},"properties":{"id":13437302978,"name":"العمدة للصرافة والتحويلات","type":"money_transfer","category":"finance","subcategory":"exchange","osmType":"node","amenity":"money_transfer","name:latin":"al-'mda llsrafa walthwylat"}},{"type":"Feature","id":13437302980,"geometry":{"type":"Point","coordinates":[44.2164811,15.336126000000002]},"properties":{"id":13437302980,"name":"شركة الصيفي للصرافة","type":"bureau_de_change","category":"finance","subcategory":"exchange","osmType":"node","amenity":"bureau_de_change","name:latin":"shrka al-syfy llsrafa"}},{"type":"Feature","id":13438580899,"geometry":{"type":"Point","coordinates":[44.209420200000004,15.385936000000001]},"properties":{"id":13438580899,"name":"شركة الصارم للصرافة","type":"money_transfer","category":"finance","subcategory":"exchange","osmType":"node","amenity":"money_transfer","name:latin":"shrka al-sarm llsrafa"}},{"type":"Feature","id":13455426417,"geometry":{"type":"Point","coordinates":[44.241512900000004,15.379566400000002]},"properties":{"id":13455426417,"name":"شركة البيان للصرافة","type":"bureau_de_change","category":"finance","subcategory":"exchange","osmType":"node","amenity":"bureau_de_change","name:latin":"shrka al-byan llsrafa"}},{"type":"Feature","id":13466614731,"geometry":{"type":"Point","coordinates":[44.1934437,15.332791700000001]},"properties":{"id":13466614731,"name":"شركة بن عامر للصرافة والتحويلات","type":"bureau_de_change","category":"finance","subcategory":"exchange","osmType":"node","amenity":"bureau_de_change","name:latin":"shrka bn 'amr llsrafa walthwylat"}},{"type":"Feature","id":13467781801,"geometry":{"type":"Point","coordinates":[44.2105642,15.252531800000002]},"properties":{"id":13467781801,"name":"شركة ارتل للصرافة والتحويلات","type":"bureau_de_change","category":"finance","subcategory":"exchange","osmType":"node","amenity":"bureau_de_change","name:latin":"shrka artl llsrafa walthwylat"}},{"type":"Feature","id":13469713028,"geometry":{"type":"Point","coordinates":[44.254158100000005,15.243632400000001]},"properties":{"id":13469713028,"name":"شركة النبلاء للصرافة والتحويلات","type":"bureau_de_change","category":"finance","subcategory":"exchange","osmType":"node","amenity":"bureau_de_change","name:latin":"shrka al-nbla' llsrafa walthwylat"}},{"type":"Feature","id":13475400734,"geometry":{"type":"Point","coordinates":[44.176779100000005,15.360001100000002]},"properties":{"id":13475400734,"name":"كاك بانك","type":"bank","category":"finance","subcategory":"bank","osmType":"node","addr:street":"شارع الرباط","amenity":"bank","atm":"yes","name:latin":"kak bank"}},{"type":"Feature","id":13518704525,"geometry":{"type":"Point","coordinates":[44.224664600000004,15.330333000000001]},"properties":{"id":13518704525,"name":"شركة العيدروس للصرافة والتحويلات","type":"bureau_de_change","category":"finance","subcategory":"exchange","osmType":"node","amenity":"bureau_de_change","name:latin":"shrka al-'ydrws llsrafa walthwylat"}},{"type":"Feature","id":13518704539,"geometry":{"type":"Point","coordinates":[44.22760160000001,15.3239125]},"properties":{"id":13518704539,"name":"الصيفي للصرافة","type":"bureau_de_change","category":"finance","subcategory":"exchange","osmType":"node","amenity":"bureau_de_change","name:latin":"al-syfy llsrafa"}},{"type":"Feature","id":13518704541,"geometry":{"type":"Point","coordinates":[44.227808100000004,15.3236526]},"properties":{"id":13518704541,"name":"الحجري للصرافة","type":"bureau_de_change","category":"finance","subcategory":"exchange","osmType":"node","amenity":"bureau_de_change","name:latin":"al-hjry llsrafa"}},{"type":"Feature","id":13518704585,"geometry":{"type":"Point","coordinates":[44.228976200000005,15.3203071]},"properties":{"id":13518704585,"name":"علي الحبيشي للصرافة","type":"bureau_de_change","category":"finance","subcategory":"exchange","osmType":"node","amenity":"bureau_de_change","name:latin":"'ly al-hbyshy llsrafa"}},{"type":"Feature","id":13518704601,"geometry":{"type":"Point","coordinates":[44.2297085,15.319499300000002]},"properties":{"id":13518704601,"name":"شركة المنتاب إخوان للصرافة والتحويلات","type":"bureau_de_change","category":"finance","subcategory":"exchange","osmType":"node","amenity":"bureau_de_change","name:latin":"shrka al-mntab ikhwan llsrafa walthwylat"}},{"type":"Feature","id":13518704603,"geometry":{"type":"Point","coordinates":[44.229863400000006,15.319232900000001]},"properties":{"id":13518704603,"name":"العولقي للصرافة والتحويلات","type":"bureau_de_change","category":"finance","subcategory":"exchange","osmType":"node","amenity":"bureau_de_change","name:latin":"al-'wlqy llsrafa walthwylat"}},{"type":"Feature","id":13518704609,"geometry":{"type":"Point","coordinates":[44.2302047,15.318390800000001]},"properties":{"id":13518704609,"name":"مؤسسة المري للصرافة والتحويلات","type":"bureau_de_change","category":"finance","subcategory":"exchange","osmType":"node","amenity":"bureau_de_change","name:latin":"m'ssa al-mry llsrafa walthwylat"}},{"type":"Feature","id":13518704612,"geometry":{"type":"Point","coordinates":[44.2300571,15.317970500000001]},"properties":{"id":13518704612,"name":"شركة الفلك للصرافة والتحويلات","type":"bureau_de_change","category":"finance","subcategory":"exchange","osmType":"node","amenity":"bureau_de_change","name:latin":"shrka al-flk llsrafa walthwylat"}},{"type":"Feature","id":13518704613,"geometry":{"type":"Point","coordinates":[44.2300089,15.318112700000002]},"properties":{"id":13518704613,"name":"الناصر للصرافة والتحويلات","type":"bureau_de_change","category":"finance","subcategory":"exchange","osmType":"node","amenity":"bureau_de_change","name:latin":"al-nasr llsrafa walthwylat"}},{"type":"Feature","id":13518744809,"geometry":{"type":"Point","coordinates":[44.233768000000005,15.308161900000002]},"properties":{"id":13518744809,"name":"دبي إكسبرس للصرافة والتحويلات","type":"bureau_de_change","category":"finance","subcategory":"exchange","osmType":"node","amenity":"bureau_de_change","name:latin":"dby iksbrs llsrafa walthwylat"}},{"type":"Feature","id":13518744810,"geometry":{"type":"Point","coordinates":[44.2338116,15.308024800000002]},"properties":{"id":13518744810,"name":"شركة رشاد بحير للصرافة","type":"bureau_de_change","category":"finance","subcategory":"exchange","osmType":"node","amenity":"bureau_de_change","name:latin":"shrka rshad bhyr llsrafa"}},{"type":"Feature","id":13518744811,"geometry":{"type":"Point","coordinates":[44.234224600000005,15.307976300000002]},"properties":{"id":13518744811,"name":"الظفري للصرافة والتحويلات","type":"bureau_de_change","category":"finance","subcategory":"exchange","osmType":"node","amenity":"bureau_de_change","name:latin":"al-zfry llsrafa walthwylat"}},{"type":"Feature","id":13518744823,"geometry":{"type":"Point","coordinates":[44.233978500000006,15.308709100000002]},"properties":{"id":13518744823,"name":"شركة أرقام للصرافة والتحويلات","type":"bureau_de_change","category":"finance","subcategory":"exchange","osmType":"node","amenity":"bureau_de_change","name:latin":"shrka arqam llsrafa walthwylat"}},{"type":"Feature","id":13518890297,"geometry":{"type":"Point","coordinates":[44.206212300000004,15.348960800000002]},"properties":{"id":13518890297,"name":"الحجري للصرافة والتحويلات","type":"bureau_de_change","category":"finance","subcategory":"exchange","osmType":"node","amenity":"bureau_de_change","name:latin":"al-hjry llsrafa walthwylat"}},{"type":"Feature","id":13518892415,"geometry":{"type":"Point","coordinates":[44.202835400000005,15.347046700000002]},"properties":{"id":13518892415,"name":"شركة بن عامر للصرافة","type":"bureau_de_change","category":"finance","subcategory":"exchange","osmType":"node","amenity":"bureau_de_change","name:latin":"shrka bn 'amr llsrafa"}},{"type":"Feature","id":13518892445,"geometry":{"type":"Point","coordinates":[44.201635100000004,15.3466128]},"properties":{"id":13518892445,"name":"صرافة الرافدين","type":"bureau_de_change","category":"finance","subcategory":"exchange","osmType":"node","amenity":"bureau_de_change","name:latin":"srafa al-rafdyn"}},{"type":"Feature","id":13619193201,"geometry":{"type":"Point","coordinates":[44.2231238,15.3860518]},"properties":{"id":13619193201,"name":"بيت مسمار","type":"bank","category":"finance","subcategory":"bank","osmType":"node","addr:housenumber":"772667210","addr:street":"شارع الشيخ زايد","amenity":"bank","email":"mazen772667210@gmail.com","opening_hours":"24/7","website":"http://mazen772667210@gmail.com","name:latin":"byt msmar"}},{"type":"Feature","id":13853315602,"geometry":{"type":"Point","coordinates":[44.21117100000001,15.274921]},"properties":{"id":13853315602,"name":"","type":"atm","category":"finance","subcategory":"atm","osmType":"node","amenity":"atm"}}]}