{"type":"FeatureCollection","features":[{"type":"Feature","id":260591520,"geometry":{"type":"Point","coordinates":[44.20582400000001,15.3529686]},"properties":{"id":260591520,"name":"مكتب بريد التحرير","type":"post_office","category":"government","subcategory":"post","osmType":"node","addr:city":"صنعاء","addr:street":"شارع جمال عبد الناصر","alt_name":"مكتب بريد التحرير","amenity":"post_office","name:ar":"مكتب بريد التحرير","nat_name":"مكتب بريد التحرير","name:latin":"mktb bryd al-thryr"}},{"type":"Feature","id":305165531,"geometry":{"type":"Point","coordinates":[44.2139419,15.352701900000001]},"properties":{"id":305165531,"name":"مكتب البريد","type":"post_office","category":"government","subcategory":"post","osmType":"node","alt_name":"مكتب البريد","amenity":"post_office","name:ar":"مكتب البريد","name:en":"Post Office"}},{"type":"Feature","id":590512321,"geometry":{"type":"Point","coordinates":[44.215164900000005,15.3591235]},"properties":{"id":590512321,"name":"","type":"post_office","category":"government","subcategory":"post","osmType":"node","amenity":"post_office"}},{"type":"Feature","id":622025352,"geometry":{"type":"Point","coordinates":[44.1805437,15.300994500000002]},"properties":{"id":622025352,"name":"مكتب بريد حدة","type":"post_office","category":"government","subcategory":"post","osmType":"node","addr:street":"شارع حدة","alt_name":"مكتب بريد حدة","amenity":"post_office","name:ar":"مكتب بريد حدة","name:en":"Hadda Post office","nat_name":"مكتب بريد حدة","opening_hours":"Sa-We 09:00-13:00","operator":"Government"}},{"type":"Feature","id":760461571,"geometry":{"type":"Point","coordinates":[44.2353953,15.318200000000001]},"properties":{"id":760461571,"name":"","type":"post_office","category":"government","subcategory":"post","osmType":"node","amenity":"post_office"}},{"type":"Feature","id":760461576,"geometry":{"type":"Point","coordinates":[44.2341495,15.308357800000001]},"properties":{"id":760461576,"name":"بريد شميلة","type":"post_office","category":"government","subcategory":"post","osmType":"node","amenity":"post_office","name:ar":"بريد شميلة","name:en":"Shomailla Post Office","opening_hours":"Sa-We 08:00-17:00"}},{"type":"Feature","id":1222623255,"geometry":{"type":"Point","coordinates":[44.1967426,15.349965000000001]},"properties":{"id":1222623255,"name":"وزارة الخارجية","type":"ADMF","category":"government","subcategory":"administration","osmType":"node","GNS:dsg_code":"ADMF","GNS:dsg_name":"administrative facility","GNS:id":"10643669","building":"public","government":"ministry","int_name":"Ministry of Foreign Affairs","name:ar":"وزارة الخارجية","name:de":"Ministry of Foreign Affairs","name:en":"Ministry of Foreign Affairs","name:fr":"Ministry of Foreign Affairs","office":"government","source:name":"GNS"}},{"type":"Feature","id":1222624420,"geometry":{"type":"Point","coordinates":[44.199621,15.325584000000001]},"properties":{"id":1222624420,"name":"وزارة البلديات","type":"ADMF","category":"government","subcategory":"administration","osmType":"node","GNS:dsg_code":"ADMF","GNS:dsg_name":"administrative facility","GNS:id":"10643694","building":"office","government":"ministry","int_name":"Ministry of Municipalities","name:ar":"وزارة البلديات","name:de":"Ministry of Municipalities","name:en":"Ministry of Municipalities","name:fr":"Ministry of Municipalities","office":"government","source:name":"GNS"}},{"type":"Feature","id":1222629820,"geometry":{"type":"Point","coordinates":[44.199066,15.354508000000001]},"properties":{"id":1222629820,"name":"مكتب رئيس الوزراء","type":"ADMF","category":"government","subcategory":"administration","osmType":"node","GNS:dsg_code":"ADMF","GNS:dsg_name":"administrative facility","GNS:id":"10643710","building":"yes","government":"ministry","int_name":"Prime Minister’s Office","name:ar":"مكتب رئيس الوزراء","name:de":"Prime Ministers Office","name:en":"Prime Ministers Office","name:fr":"Prime Ministers Office","office":"government","source:name":"GNS"}},{"type":"Feature","id":1222629831,"geometry":{"type":"Point","coordinates":[44.204440000000005,15.352620000000002]},"properties":{"id":1222629831,"name":"الهيئة الوطنية العليا لمكافحة الفساد","type":"صنعاء","category":"government","subcategory":"administration","osmType":"node","addr:city":"صنعاء","addr:street":"شارع جمال عبد الناصر","office":"government","name:latin":"al-hy'a al-wtnya al-'lya lmkafha al-fsad"}},{"type":"Feature","id":1222629855,"geometry":{"type":"Point","coordinates":[44.206745000000005,15.355737000000001]},"properties":{"id":1222629855,"name":"وزارة الاقتصاد","type":"ADMF","category":"government","subcategory":"administration","osmType":"node","GNS:dsg_code":"ADMF","GNS:dsg_name":"administrative facility","GNS:id":"10643725","addr:street":"ميدان التحرير","building":"yes","government":"ministry","int_name":"Ministry of Economy","name:de":"Ministry of Economy","name:en":"Ministry of Economy","name:fr":"Ministry of Economy","office":"government","source:name":"GNS"}},{"type":"Feature","id":1222629869,"geometry":{"type":"Point","coordinates":[44.20594800000001,15.348395000000002]},"properties":{"id":1222629869,"name":"وزارة الأشغال العامة","type":"ADMF","category":"government","subcategory":"administration","osmType":"node","GNS:dsg_code":"ADMF","GNS:dsg_name":"administrative facility","GNS:id":"10643730","addr:street":"شارع الزبيري","alt_name":"وزارة الأشغال العامة","government":"ministry","int_name":"Ministry of Public Works","name:ar":"وزارة الأشغال العامة","name:de":"Ministry of Public Works","name:en":"Ministry of Public Works","name:fr":"Ministry of Public Works","office":"government","source:name":"GNS"}},{"type":"Feature","id":1222629877,"geometry":{"type":"Point","coordinates":[44.1990757,15.356065700000002]},"properties":{"id":1222629877,"name":"وزارة الإعلام و الثقافة","type":"ADMF","category":"government","subcategory":"administration","osmType":"node","GNS:dsg_code":"ADMF","GNS:dsg_name":"administrative facility","GNS:id":"10643716","alt_name":"منستري وف إنفورمتون أند cألترe","building":"yes","government":"ministry","int_name":"Ministry of Information and Culture","name:ar":"وزارة الإعلام و الثقافة","name:de":"Ministry of Information and Culture","name:en":"Ministry of Information and Culture","name:fr":"Ministry of Information and Culture","office":"government","source:name":"GNS"}},{"type":"Feature","id":1222637512,"geometry":{"type":"Point","coordinates":[44.193085,15.359593000000002]},"properties":{"id":1222637512,"name":"مؤسسة الصحة و العمل","type":"مؤسسة الصحة و العمل","category":"government","subcategory":"administration","osmType":"node","alt_name":"مؤسسة الصحة و العمل","building":"yes","int_name":"Health/Manpower Institute, Health/Manpower Institute","name:ar":"مؤسسة الصحة و العمل","name:ar1":"مؤسسة الصحة و العمل","name:de":"Health/Manpower Institute","name:en":"Health/Manpower Institute","name:fr":"Health/Manpower Institute","office":"government"}},{"type":"Feature","id":1222637566,"geometry":{"type":"Point","coordinates":[44.207593,15.336850000000002]},"properties":{"id":1222637566,"name":"مصلحة الجمارك","type":"ADMF","category":"government","subcategory":"administration","osmType":"node","GNS:dsg_code":"ADMF","GNS:dsg_name":"administrative facility","GNS:id":"10643986","addr:street":"شارع مجاهد","alt_name":"وزارة الجمارك","building":"yes","government":"ministry","int_name":"Ministry of Customs","name:ar":"مصلحة الجمارك","name:de":"Ministry of Customs","name:en":"Ministry of Customs","name:fr":"Ministry of Customs","office":"government","opening_hours":"Su-Th 08:00-16:00","source:name":"GNS"}},{"type":"Feature","id":1222637577,"geometry":{"type":"Point","coordinates":[44.20989590000001,15.3496386]},"properties":{"id":1222637577,"name":"مكتب الطيران المدني والأرصاد الجوية","type":"ADMF","category":"government","subcategory":"administration","osmType":"node","GNS:dsg_code":"ADMF","GNS:dsg_name":"administrative facility","GNS:id":"10643901","addr:city":"صنعاء","addr:street":"شارع الزبيري","alt_name":"مكتب الطيران المدني والأرصاد الجوية","building":"yes","int_name":"Civil Aviation and Meteorological Office","name:ar":"مكتب الطيران المدني و الأرصاد الجوية","name:de":"Civil Aviation and Meteorological Office","name:en":"Civil Aviation and Meteorological Office","name:fr":"Civil Aviation and Meteorological Office","office":"government","source:name":"GNS"}},{"type":"Feature","id":1222637605,"geometry":{"type":"Point","coordinates":[44.213899000000005,15.349237]},"properties":{"id":1222637605,"name":"وزارة الدفاع","type":"وزارة الدفاع","category":"government","subcategory":"administration","osmType":"node","alt_name":"وزارة الدفاع","building":"yes","int_name":"Ministry of Defence","name:ar":"وزارة الدفاع","name:ar1":"وزارة الدفاع","name:de":"Ministry of Defence Army HQ","name:en":"Ministry of Defence Army HQ","name:fr":"Ministry of Defence Army HQ","office":"government"}},{"type":"Feature","id":1222637627,"geometry":{"type":"Point","coordinates":[44.2080465,15.335506700000002]},"properties":{"id":1222637627,"name":"وزارة المالية والضرائب","type":"ADMF","category":"government","subcategory":"administration","osmType":"node","GNS:dsg_code":"ADMF","GNS:dsg_name":"administrative facility","GNS:id":"10643677","addr:street":"شارع أبو ظبي","building":"yes","government":"ministry","int_name":"Ministry of Finance and Tax","name:ar":"وزارة المالية و الضرائب","name:de":"Ministry of Finance and Tax","name:en":"Ministry of Finance and Tax","name:fr":"Ministry of Finance and Tax","office":"government","opening_hours":"Mo-We, Sa, Su 08:00-13:00","source:name":"GNS"}},{"type":"Feature","id":1222637678,"geometry":{"type":"Point","coordinates":[44.193232,15.354038000000001]},"properties":{"id":1222637678,"name":"وزارة الزراعة","type":"ADMF","category":"government","subcategory":"administration","osmType":"node","GNS:dsg_code":"ADMF","GNS:dsg_name":"administrative facility","GNS:id":"10643709","building":"yes","government":"ministry","int_name":"Ministry of Agriculture","name:ar":"وزارة الزراعة","name:de":"Ministry of Agriculture","name:en":"Ministry of Agriculture","name:fr":"Ministry of Agriculture","office":"government","source:name":"GNS"}},{"type":"Feature","id":1222637704,"geometry":{"type":"Point","coordinates":[44.1906103,15.364941700000001]},"properties":{"id":1222637704,"name":"وزارة النفط","type":"ADMF","category":"government","subcategory":"administration","osmType":"node","GNS:dsg_code":"ADMF","GNS:dsg_name":"administrative facility","GNS:id":"10643722","alt_name":"ول منستري","building":"office","government":"ministry","int_name":"Oil Ministry","name:ar":"وزارة النفط","name:de":"Oil Ministry","name:en":"Oil Ministry","name:fr":"Oil Ministry","office":"government","source:name":"GNS"}},{"type":"Feature","id":1222637716,"geometry":{"type":"Point","coordinates":[44.199285,15.361316000000002]},"properties":{"id":1222637716,"name":"وزارة العدل","type":"ADMF","category":"government","subcategory":"administration","osmType":"node","GNS:dsg_code":"ADMF","GNS:dsg_name":"administrative facility","GNS:id":"10643717","addr:street":"شارع العدل","building":"yes","government":"ministry","int_name":"Ministry of Justice","name:ar":"وزارة العدل","name:de":"Ministry of Justice","name:en":"Ministry of Justice","name:fr":"Ministry of Justice","office":"government","source:name":"GNS"}},{"type":"Feature","id":1222640373,"geometry":{"type":"Point","coordinates":[44.165807,15.351638000000001]},"properties":{"id":1222640373,"name":"مركز التحكم بالشبكة في صنعاء","type":"ADMF","category":"government","subcategory":"administration","osmType":"node","GNS:dsg_code":"ADMF","GNS:dsg_name":"administrative facility","GNS:id":"10643708","alt_name":"مركز التحكم بالشبكة في الصنعاء","building":"yes","int_name":"Şan‘ā’ Net Control Centre","name:ar":"مركز التحكم بالشبكة في صنعاء","name:de":"San`a' Net Control Centre","name:en":"San`a' Net Control Centre","name:fr":"San`a' Net Control Centre","office":"government","source:name":"GNS"}},{"type":"Feature","id":1334768428,"geometry":{"type":"Point","coordinates":[44.213831600000006,15.3926069]},"properties":{"id":1334768428,"name":"المؤسسة العامة للكهرباء","type":"المؤسسة العامة للكهرباء","category":"government","subcategory":"administration","osmType":"node","alt_name":"المؤسسة العامة للكهرباء","int_name":"Public Electricity Company","name:ar":"المؤسسة العامة للكهرباء","name:en":"Public Electricity Company","office":"government"}},{"type":"Feature","id":3362533617,"geometry":{"type":"Point","coordinates":[44.196442700000006,15.350809100000001]},"properties":{"id":3362533617,"name":"مكتب بريد القاع","type":"post_office","category":"government","subcategory":"post","osmType":"node","addr:street":"القاع","amenity":"post_office","name:ar":"مكتب بريد القاع","name:en":"AlKaa’a Post Office","opening_hours":"Sa-We 09:00-17:00"}},{"type":"Feature","id":3777208757,"geometry":{"type":"Point","coordinates":[44.190909600000005,15.3805837]},"properties":{"id":3777208757,"name":"وزارة الإعلام","type":"ministry","category":"government","subcategory":"administration","osmType":"node","government":"ministry","name:ar":"وزارة الإعلام","name:en":"Ministry of Media","office":"government"}},{"type":"Feature","id":4114336389,"geometry":{"type":"Point","coordinates":[44.224064600000005,15.433297000000001]},"properties":{"id":4114336389,"name":"مكتب وزارة التربية والتعليم بمحافظة صنعاء","type":"مكتب وزارة التربية والتعليم بمحافظة صنعاء","category":"government","subcategory":"administration","osmType":"node","name:ar":"مكتب وزارة التربية والتعليم بمحافظة صنعاء","office":"government","name:latin":"mktb wzara al-trbya walt'lym bmhafza sn'a'"}},{"type":"Feature","id":4190451790,"geometry":{"type":"Point","coordinates":[44.21216140000001,15.347364800000001]},"properties":{"id":4190451790,"name":"العرضي","type":"شارع السايلة","category":"government","subcategory":"administration","osmType":"node","addr:street":"شارع السايلة","name:ar":"العرضي","office":"government","name:latin":"al-'rdy"}},{"type":"Feature","id":4242594504,"geometry":{"type":"Point","coordinates":[44.2099897,15.377835000000001]},"properties":{"id":4242594504,"name":"وكالة الأنباء اليمنية سبأ","type":"وكالة الأنباء اليمنية سبأ","category":"government","subcategory":"administration","osmType":"node","name:ar":"وكالة الأنباء اليمنية سبأ","office":"government","name:latin":"wkala al-anba' al-ymnya sba"}},{"type":"Feature","id":4242721492,"geometry":{"type":"Point","coordinates":[44.206439700000004,15.3686167]},"properties":{"id":4242721492,"name":"مكتب بريد جولة سبأ","type":"post_office","category":"government","subcategory":"post","osmType":"node","addr:street":"شارع القيادة","amenity":"post_office","name:ar":"مكتب بريد جولة سبأ","name:latin":"mktb bryd jwla sba"}},{"type":"Feature","id":4242723389,"geometry":{"type":"Point","coordinates":[44.2008287,15.363278300000001]},"properties":{"id":4242723389,"name":"محكمة غرب أمانة العاصمة","type":"courthouse","category":"government","subcategory":"administration","osmType":"node","addr:street":"شارع الحرية","amenity":"courthouse","name:ar":"محكمة غرب أمانة العاصمة","name:latin":"mhkma ghrb amana al-'asma"}},{"type":"Feature","id":4242828098,"geometry":{"type":"Point","coordinates":[44.194859,15.371596700000001]},"properties":{"id":4242828098,"name":"إدارة مرور محافظة صنعاء","type":"إدارة مرور محافظة صنعاء","category":"government","subcategory":"administration","osmType":"node","name:ar":"إدارة مرور محافظة صنعاء","office":"government","name:latin":"idara mrwr mhafza sn'a'"}},{"type":"Feature","id":4298021461,"geometry":{"type":"Point","coordinates":[44.204891,15.383494100000002]},"properties":{"id":4298021461,"name":"مكتب بريد الحصبة","type":"post_office","category":"government","subcategory":"post","osmType":"node","addr:city":"صنعاء","addr:street":"شارع مازدا","amenity":"post_office","name:ar":"مكتب بريد الحصبة","name:en":"Al-hasaba Post Office"}},{"type":"Feature","id":4298022992,"geometry":{"type":"Point","coordinates":[44.200745000000005,15.345883]},"properties":{"id":4298022992,"name":"مكتب بريد الزبيري","type":"post_office","category":"government","subcategory":"post","osmType":"node","amenity":"post_office","name:ar":"مكتب بريد الزبيري","name:en":"Alzuberi Post Office"}},{"type":"Feature","id":4298023676,"geometry":{"type":"Point","coordinates":[44.200358,15.345755]},"properties":{"id":4298023676,"name":"DHL","type":"post_office","category":"government","subcategory":"post","osmType":"node","amenity":"post_office","name:en":"DHL"}},{"type":"Feature","id":4333047691,"geometry":{"type":"Point","coordinates":[44.2008766,15.349766200000001]},"properties":{"id":4333047691,"name":"القصر الجمهوري","type":"شارع جمال عبد الناصر","category":"government","subcategory":"administration","osmType":"node","addr:street":"شارع جمال عبد الناصر","name:ar":"القصر الجمهوري","office":"government","name:latin":"al-qsr al-jmhwry"}},{"type":"Feature","id":4346532185,"geometry":{"type":"Point","coordinates":[44.245551600000006,15.3702219]},"properties":{"id":4346532185,"name":"مكتب بريد الأربعين","type":"post_office","category":"government","subcategory":"post","osmType":"node","addr:city":"صنعاء","addr:street":"شارع الأربعين","amenity":"post_office","name:latin":"mktb bryd al-arb'yn"}},{"type":"Feature","id":4346542805,"geometry":{"type":"Point","coordinates":[44.2209317,15.381312800000002]},"properties":{"id":4346542805,"name":"وزارة التربية والتعليم","type":"شارع الجامعة العربية","category":"government","subcategory":"administration","osmType":"node","addr:street":"شارع الجامعة العربية","name:ar":"وزارة التربية والتعليم","office":"government","name:latin":"wzara al-trbya walt'lym"}},{"type":"Feature","id":4346545004,"geometry":{"type":"Point","coordinates":[44.202087600000006,15.380254400000002]},"properties":{"id":4346545004,"name":"المعهد العالي للقضاء","type":"شارع الصحة","category":"government","subcategory":"administration","osmType":"node","addr:street":"شارع الصحة","name:ar":"المعهد العالي للقضاء","office":"government","name:latin":"al-m'hd al-'aly llqda'"}},{"type":"Feature","id":4349899790,"geometry":{"type":"Point","coordinates":[44.205797200000006,15.2827417]},"properties":{"id":4349899790,"name":"بريد بيت بوس","type":"post_office","category":"government","subcategory":"post","osmType":"node","addr:street":"شارع الاربعين","amenity":"post_office","name:ar":"بريد بيت بوس","name:en":"Bait Baws Post Office","opening_hours":"Sa-We 08:00-13:00"}},{"type":"Feature","id":4359037695,"geometry":{"type":"Point","coordinates":[44.2125916,15.414066000000002]},"properties":{"id":4359037695,"name":"الأكاديمية العسكرية العليا","type":"خط المطار","category":"government","subcategory":"administration","osmType":"node","addr:street":"خط المطار","name:ar":"الأكاديمية العسكرية العليا","office":"government","name:latin":"al-akadymya al-'skrya al-'lya"}},{"type":"Feature","id":4382249691,"geometry":{"type":"Point","coordinates":[44.2220251,15.4251456]},"properties":{"id":4382249691,"name":"بريد الروضة","type":"post_office","category":"government","subcategory":"post","osmType":"node","amenity":"post_office","name:ar":"بريد الروضة","name:latin":"bryd al-rwda"}},{"type":"Feature","id":4388514192,"geometry":{"type":"Point","coordinates":[44.223522,15.3321824]},"properties":{"id":4388514192,"name":"بريد جواهر سنتر","type":"post_office","category":"government","subcategory":"post","osmType":"node","addr:street":"Ta'izz road","amenity":"post_office","name:ar":"بريد جواهر سنتر","opening_hours":"Sa-Th 08:30-18:00","name:latin":"bryd jwahr sntr"}},{"type":"Feature","id":4389004996,"geometry":{"type":"Point","coordinates":[44.219471500000004,15.329777300000002]},"properties":{"id":4389004996,"name":"الاتحاد العام لنقابات عمال اليمن","type":"شارع ال 45 متر","category":"government","subcategory":"administration","osmType":"node","addr:street":"شارع ال 45 متر","name:ar":"الاتحاد العام لنقابات عمال اليمن","office":"government","name:latin":"al-athad al-'am lnqabat 'mal al-ymn"}},{"type":"Feature","id":4418251992,"geometry":{"type":"Point","coordinates":[44.171165200000004,15.343990200000002]},"properties":{"id":4418251992,"name":"وزارة الخارجية","type":"60 meters St","category":"government","subcategory":"administration","osmType":"node","addr:street":"60 meters St","government":"ministry","name:ar":"وزارة الخارجية","name:en":"Ministry of Foreign Affairs","office":"government"}},{"type":"Feature","id":4418291591,"geometry":{"type":"Point","coordinates":[44.17104500000001,15.3527748]},"properties":{"id":4418291591,"name":"كلية الطيران والدفاع الجوي","type":"60 meters St","category":"government","subcategory":"administration","osmType":"node","addr:street":"60 meters St","name:ar":"كلية الطيران والدفاع الجوي","office":"government","name:latin":"klya al-tyran waldfa' al-jwy"}},{"type":"Feature","id":4431879592,"geometry":{"type":"Point","coordinates":[44.200518200000005,15.306368400000002]},"properties":{"id":4431879592,"name":"الدائرة القنصلية لشؤون المغتربين","type":"صنعاء","category":"government","subcategory":"administration","osmType":"node","addr:city":"صنعاء","addr:street":"شارع 14 أكتوبر","name:en":"Consoler immigration Affairs authority","office":"government","opening_hours":"Sa-We 09:00-12:30"}},{"type":"Feature","id":4473010720,"geometry":{"type":"Point","coordinates":[44.199232900000005,15.2983606]},"properties":{"id":4473010720,"name":"شركة النفط / فرع الامانه","type":"شارع 14 أكتوبر","category":"government","subcategory":"administration","osmType":"node","addr:street":"شارع 14 أكتوبر","name:ar":"شركة النفط / فرع الامانه","name:en":"Yemen Oil Company Office","office":"government","opening_hours":"Sa-We 08:00-14:30"}},{"type":"Feature","id":4473108696,"geometry":{"type":"Point","coordinates":[44.2297263,15.359591900000002]},"properties":{"id":4473108696,"name":"كنترول وزارة التربية والتعليم","type":"شارع نشوان الحميري","category":"government","subcategory":"administration","osmType":"node","addr:street":"شارع نشوان الحميري","office":"government","name:latin":"kntrwl wzara al-trbya walt'lym"}},{"type":"Feature","id":4579324690,"geometry":{"type":"Point","coordinates":[44.201379,15.359786000000001]},"properties":{"id":4579324690,"name":"محكمة الإستئناف","type":"courthouse","category":"government","subcategory":"administration","osmType":"node","amenity":"courthouse","name:ar":"محكمة الإستئناف","name:en":"Appeal Courthouse","opening_hours":"Sa-We 08:00-13:00"}},{"type":"Feature","id":4581255598,"geometry":{"type":"Point","coordinates":[44.229004700000004,15.377012700000002]},"properties":{"id":4581255598,"name":"مكتب بريد ضهر حمير","type":"post_office","category":"government","subcategory":"post","osmType":"node","amenity":"post_office","name:ar":"مكتب بريد ضهر حمير","name:en":"Dahr Homiar Post"}},{"type":"Feature","id":4587738896,"geometry":{"type":"Point","coordinates":[44.2065574,15.375422900000002]},"properties":{"id":4587738896,"name":"نيابة ومحكمة شمال الأمانة","type":"courthouse","category":"government","subcategory":"administration","osmType":"node","addr:street":"الحصبة","amenity":"courthouse","name:ar":"نيابة ومحكمة شمال الأمانة","name:en":"The Court of North Secretariat"}},{"type":"Feature","id":4690487494,"geometry":{"type":"Point","coordinates":[44.2291097,15.361613000000002]},"properties":{"id":4690487494,"name":"المحكمة التجارية","type":"courthouse","category":"government","subcategory":"administration","osmType":"node","addr:street":"شارع نشوان الحميري","amenity":"courthouse","name:ar":"المحكمة التجاريه","name:latin":"al-mhkma al-tjarya"}},{"type":"Feature","id":4707710089,"geometry":{"type":"Point","coordinates":[44.19829060000001,15.319167400000001]},"properties":{"id":4707710089,"name":"المؤسسة العامة للتأمينات والمعاشات","type":"شارع حدة","category":"government","subcategory":"administration","osmType":"node","addr:street":"شارع حدة","name:en":"general organization of social insures","office":"government"}},{"type":"Feature","id":4713862891,"geometry":{"type":"Point","coordinates":[44.234037400000005,15.365499200000002]},"properties":{"id":4713862891,"name":"الهيئة العامة لشؤون النقل البري","type":"شارع نشوان الحميري","category":"government","subcategory":"administration","osmType":"node","addr:street":"شارع نشوان الحميري","office":"government","name:latin":"al-hy'a al-'ama lsh'wn al-nql al-bry"}},{"type":"Feature","id":4748139122,"geometry":{"type":"Point","coordinates":[44.196515100000006,15.322170900000001]},"properties":{"id":4748139122,"name":"ارامكس","type":"post_office","category":"government","subcategory":"post","osmType":"node","addr:street":"شارع الشهيد الدرة","amenity":"post_office","name:ar":"ارامكس","name:en":"Aramex","opening_hours":"Sa-Th 09:00-18:00","phone":"009671447461"}},{"type":"Feature","id":4764435721,"geometry":{"type":"Point","coordinates":[44.20604650000001,15.3595535]},"properties":{"id":4764435721,"name":"وزراة الاوقاف والارشاد","type":"وزراة الاوقاف والارشاد","category":"government","subcategory":"administration","osmType":"node","name:ar":"وزراة الاوقاف والارشاد","office":"government","name:latin":"wzraa al-awqaf walarshad"}},{"type":"Feature","id":4811147823,"geometry":{"type":"Point","coordinates":[44.1828323,15.358831700000001]},"properties":{"id":4811147823,"name":"مكتب بريد 22 مايو","type":"post_office","category":"government","subcategory":"post","osmType":"node","addr:city":"صنعاء","addr:street":"شارع هائل","amenity":"post_office","name:latin":"mktb bryd 22 mayw"}},{"type":"Feature","id":4900611722,"geometry":{"type":"Point","coordinates":[44.197592300000004,15.324526100000002]},"properties":{"id":4900611722,"name":"مكتب بصمة معمارية","type":"مكتب بصمة معمارية","category":"government","subcategory":"administration","osmType":"node","name:ar":"مكتب بصمة معمارية","office":"government","name:latin":"mktb bsma m'marya"}},{"type":"Feature","id":4908198022,"geometry":{"type":"Point","coordinates":[44.224012200000004,15.357682500000001]},"properties":{"id":4908198022,"name":"محكمة شرق الامانة","type":"courthouse","category":"government","subcategory":"administration","osmType":"node","addr:street":"شارع مسيك","amenity":"courthouse","opening_hours":"Sa-We 08:00-12:00","name:latin":"mhkma shrq al-amana"}},{"type":"Feature","id":4954926324,"geometry":{"type":"Point","coordinates":[44.215085800000004,15.275196000000001]},"properties":{"id":4954926324,"name":"مبنى محافظة صنعاء","type":"مبنى محافظة صنعاء","category":"government","subcategory":"administration","osmType":"node","name:ar":"مبنى محافظة صنعاء","office":"government","name:latin":"mbna mhafza sn'a'"}},{"type":"Feature","id":4985624321,"geometry":{"type":"Point","coordinates":[44.188667800000005,15.3483265]},"properties":{"id":4985624321,"name":"بريد الجامعة القديمة","type":"post_office","category":"government","subcategory":"post","osmType":"node","addr:street":"سارع الدائري الجامعة القديمة","amenity":"post_office","name:ar":"بريد الجامعة القديمة","name:latin":"bryd al-jam'a al-qdyma"}},{"type":"Feature","id":4985624521,"geometry":{"type":"Point","coordinates":[44.188363200000005,15.3652779]},"properties":{"id":4985624521,"name":"بريد منطقة معين","type":"post_office","category":"government","subcategory":"post","osmType":"node","amenity":"post_office","name:ar":"بريد منطقة معين","name:latin":"bryd mntqa m'yn"}},{"type":"Feature","id":4990833531,"geometry":{"type":"Point","coordinates":[44.201901400000004,15.360639]},"properties":{"id":4990833531,"name":"معهد اللغات العسكري","type":"معهد اللغات العسكري","category":"government","subcategory":"administration","osmType":"node","name:ar":"معهد اللغات العسكري","office":"government","name:latin":"m'hd al-lghat al-'skry"}},{"type":"Feature","id":4990833535,"geometry":{"type":"Point","coordinates":[44.2143072,15.276103200000001]},"properties":{"id":4990833535,"name":"مبني محافظة صنعاء","type":"مبني محافظة صنعاء","category":"government","subcategory":"administration","osmType":"node","name:ar":"مبني محافظة صنعاء","office":"government","name:latin":"mbny mhafza sn'a'"}},{"type":"Feature","id":4990833928,"geometry":{"type":"Point","coordinates":[44.184078500000005,15.3398739]},"properties":{"id":4990833928,"name":"اللجنة العليا للانتخابات والاستفتاء","type":"صنعاء","category":"government","subcategory":"administration","osmType":"node","addr:city":"صنعاء","addr:street":"شارع بغداد","office":"government","name:latin":"al-ljna al-'lya llantkhabat walastfta'"}},{"type":"Feature","id":5010076625,"geometry":{"type":"Point","coordinates":[44.2126887,15.330809200000001]},"properties":{"id":5010076625,"name":"مكتب بريد السبعين","type":"post_office","category":"government","subcategory":"post","osmType":"node","amenity":"post_office","name:ar":"مكتب بريد السبعين","name:latin":"mktb bryd al-sb'yn"}},{"type":"Feature","id":5010217433,"geometry":{"type":"Point","coordinates":[44.213551300000006,15.331763800000001]},"properties":{"id":5010217433,"name":"مديرية السبعين","type":"الامانة","category":"government","subcategory":"administration","osmType":"node","addr:city":"الامانة","addr:place":"مديرية السبعين","government":"yes","office":"government","opening_hours":"9:00 - 1:30","name:latin":"mdyrya al-sb'yn"}},{"type":"Feature","id":5052033921,"geometry":{"type":"Point","coordinates":[44.2190615,15.347385300000001]},"properties":{"id":5052033921,"name":"مكتب بريد باب اليمن","type":"post_office","category":"government","subcategory":"post","osmType":"node","addr:city":"صنعاء","addr:street":"شارع خولان القديم","amenity":"post_office","name:latin":"mktb bryd bab al-ymn"}},{"type":"Feature","id":5079951825,"geometry":{"type":"Point","coordinates":[44.218899300000004,15.352462700000002]},"properties":{"id":5079951825,"name":"مكتب بريد باب السلام","type":"post_office","category":"government","subcategory":"post","osmType":"node","amenity":"post_office","name:ar":"مكتب بريد باب السلام","name:latin":"mktb bryd bab al-slam"}},{"type":"Feature","id":5120496421,"geometry":{"type":"Point","coordinates":[44.228536600000005,15.276046800000001]},"properties":{"id":5120496421,"name":"مكتب ضرائب محافظة صنعاء","type":"شارع الخمسين","category":"government","subcategory":"administration","osmType":"node","addr:street":"شارع الخمسين","name:ar":"مكتب ضرائب محافظة صنعاء","name:en":"Sana’a Tax Office","office":"government","opening_hours":"Sa-We 09:00-13:00"}},{"type":"Feature","id":5136293224,"geometry":{"type":"Point","coordinates":[44.1883618,15.336295900000001]},"properties":{"id":5136293224,"name":"صندوق النظافة والتحسين بالامانة","type":"صندوق النظافة والتحسين بالامانة","category":"government","subcategory":"administration","osmType":"node","name:ar":"صندوق النظافة والتحسين بالامانة","office":"government","name:latin":"sndwq al-nzafa walthsyn balamana"}},{"type":"Feature","id":5136293227,"geometry":{"type":"Point","coordinates":[44.216896600000005,15.338941700000001]},"properties":{"id":5136293227,"name":"وزارة الشئون الاجتماعية والعمل","type":"وزارة الشئون الاجتماعية والعمل","category":"government","subcategory":"administration","osmType":"node","name:ar":"وزارة الشئون الاجتماعية والعمل","office":"government","name:latin":"wzara al-sh'wn al-ajtma'ya wal'ml"}},{"type":"Feature","id":5209685322,"geometry":{"type":"Point","coordinates":[44.197923100000004,15.3557628]},"properties":{"id":5209685322,"name":"وزارة التعليم العالي","type":"شارع الإذاعة","category":"government","subcategory":"administration","osmType":"node","addr:street":"شارع الإذاعة","name:ar":"وزارة التعليم العالي","office":"government","opening_hours":"Sa-We 08:00-13:00","website":"http://moha.gov.ye","name:latin":"wzara al-t'lym al-'aly"}},{"type":"Feature","id":5266707423,"geometry":{"type":"Point","coordinates":[44.2311884,15.316658400000001]},"properties":{"id":5266707423,"name":"المرور","type":"المرور","category":"government","subcategory":"administration","osmType":"node","name:ar":"المرور","office":"government","name:latin":"al-mrwr"}},{"type":"Feature","id":5363458924,"geometry":{"type":"Point","coordinates":[44.21337990000001,15.4032306]},"properties":{"id":5363458924,"name":"مطابع الكتاب المدرسي","type":"مطابع الكتاب المدرسي","category":"government","subcategory":"administration","osmType":"node","name:ar":"مطابع الكتاب المدرسي","office":"government","name:latin":"mtab' al-ktab al-mdrsy"}},{"type":"Feature","id":5673796824,"geometry":{"type":"Point","coordinates":[44.181743600000004,15.3459119]},"properties":{"id":5673796824,"name":"اصلاحية سجن احتياطي المعلمي","type":"شارع 16","category":"government","subcategory":"administration","osmType":"node","addr:street":"شارع 16","name:ar":"اصلاحية سجن احتياطي المعلمي","office":"government","opening_hours":"24/7","name:latin":"aslahya sjn ahtyaty al-m'lmy"}},{"type":"Feature","id":5673813521,"geometry":{"type":"Point","coordinates":[44.182542100000006,15.3434301]},"properties":{"id":5673813521,"name":"وزارة النفط والمعادن","type":"شارع الزبيري","category":"government","subcategory":"administration","osmType":"node","addr:street":"شارع الزبيري","name:ar":"وزارة النفط و المعادن","office":"government","name:latin":"wzara al-nft walm'adn"}},{"type":"Feature","id":5805322753,"geometry":{"type":"Point","coordinates":[44.1813124,15.343187700000001]},"properties":{"id":5805322753,"name":"الهيئة العامة للاستكشافات الجيولوجية والمعادن","type":"شارع الزبيري","category":"government","subcategory":"administration","osmType":"node","addr:street":"شارع الزبيري","office":"government","opening_hours":"Sa-We 09:00-14:00","name:latin":"al-hy'a al-'ama llastkshafat al-jywlwjya walm'adn"}},{"type":"Feature","id":5816243362,"geometry":{"type":"Point","coordinates":[44.2023537,15.337237100000001]},"properties":{"id":5816243362,"name":"المقطري للنقل","type":"post_office","category":"government","subcategory":"post","osmType":"node","amenity":"post_office","name:latin":"al-mqtry llnql"}},{"type":"Feature","id":5859013293,"geometry":{"type":"Point","coordinates":[44.2031289,15.3551505]},"properties":{"id":5859013293,"name":"مجلس النواب","type":"parliament","category":"government","subcategory":"administration","osmType":"node","government":"parliament","name:en":"Parliament","office":"government"}},{"type":"Feature","id":5859013300,"geometry":{"type":"Point","coordinates":[44.2028777,15.391025700000002]},"properties":{"id":5859013300,"name":"الهيئة العامة لكهرباء الريف","type":"صنعاء","category":"government","subcategory":"administration","osmType":"node","addr:city":"صنعاء","addr:street":"شارع صوفان","office":"government","name:latin":"al-hy'a al-'ama lkhrba' al-ryf"}},{"type":"Feature","id":5875416897,"geometry":{"type":"Point","coordinates":[44.17678720000001,15.374022600000002]},"properties":{"id":5875416897,"name":"مكتب بريد مذبح","type":"post_office","category":"government","subcategory":"post","osmType":"node","addr:city":"صنعاء‎","amenity":"post_office","name:latin":"mktb bryd mdhbh"}},{"type":"Feature","id":5955802585,"geometry":{"type":"Point","coordinates":[44.1979917,15.353784600000001]},"properties":{"id":5955802585,"name":"الخدمة المدنية الديون","type":"الخدمة المدنية الديون","category":"government","subcategory":"administration","osmType":"node","office":"government","name:latin":"al-khdma al-mdnya al-dywn"}},{"type":"Feature","id":5967546665,"geometry":{"type":"Point","coordinates":[44.198556200000006,15.323171300000002]},"properties":{"id":5967546665,"name":"مكتب بريد المجمع","type":"post_office","category":"government","subcategory":"post","osmType":"node","amenity":"post_office","name:latin":"mktb bryd al-mjm'"}},{"type":"Feature","id":5994083273,"geometry":{"type":"Point","coordinates":[44.2123962,15.394494100000001]},"properties":{"id":5994083273,"name":"مكتب البريد المركزي","type":"مكتب البريد المركزي","category":"government","subcategory":"administration","osmType":"node","office":"government","name:latin":"mktb al-bryd al-mrkzy"}},{"type":"Feature","id":5998700665,"geometry":{"type":"Point","coordinates":[44.222028,15.319798100000002]},"properties":{"id":5998700665,"name":"مكتبة التربية أمانة العاصمة","type":"مكتبة التربية أمانة العاصمة","category":"government","subcategory":"administration","osmType":"node","office":"government","name:latin":"mktba al-trbya amana al-'asma"}},{"type":"Feature","id":5998700666,"geometry":{"type":"Point","coordinates":[44.231113900000004,15.291393300000001]},"properties":{"id":5998700666,"name":"مكتب التربية منطقة السبعين","type":"شارع 22 مايو","category":"government","subcategory":"administration","osmType":"node","addr:street":"شارع 22 مايو","name:ar":"مكتب التربية منطقة السبعين","office":"government","name:latin":"mktb al-trbya mntqa al-sb'yn"}},{"type":"Feature","id":6013514710,"geometry":{"type":"Point","coordinates":[44.2050898,15.353255100000002]},"properties":{"id":6013514710,"name":"وزارة الثقافة","type":"شارع جمال عبد الناصر","category":"government","subcategory":"administration","osmType":"node","addr:street":"شارع جمال عبد الناصر","name:ar":"وزارة الثقافة","name:en":"Ministry of Culture","office":"government"}},{"type":"Feature","id":6247204221,"geometry":{"type":"Point","coordinates":[44.2328399,15.318244700000001]},"properties":{"id":6247204221,"name":"الإدارة العامة للمرور","type":"transportation","category":"government","subcategory":"administration","osmType":"node","government":"transportation","office":"government","name:latin":"al-idara al-'ama llmrwr"}},{"type":"Feature","id":6247204222,"geometry":{"type":"Point","coordinates":[44.233636600000004,15.3185473]},"properties":{"id":6247204222,"name":"إدارة مرور أمانة العاصمة","type":"transportation","category":"government","subcategory":"administration","osmType":"node","government":"transportation","office":"government","name:latin":"idara mrwr amana al-'asma"}},{"type":"Feature","id":6283839885,"geometry":{"type":"Point","coordinates":[44.2296435,15.284820900000001]},"properties":{"id":6283839885,"name":"محكمة جنوب غرب الأمانة","type":"courthouse","category":"government","subcategory":"administration","osmType":"node","addr:street":"شارع الحربي","amenity":"courthouse","name:latin":"mhkma jnwb ghrb al-amana"}},{"type":"Feature","id":6327132085,"geometry":{"type":"Point","coordinates":[44.208702800000005,15.369672800000002]},"properties":{"id":6327132085,"name":"مكتب ضرائب أمانة العاصمة","type":"administrative","category":"government","subcategory":"administration","osmType":"node","government":"administrative","office":"government","name:latin":"mktb dra'b amana al-'asma"}},{"type":"Feature","id":6341457191,"geometry":{"type":"Point","coordinates":[44.18635080000001,15.343292900000002]},"properties":{"id":6341457191,"name":"وزارة الشباب والرياضة","type":"شارع الزبيري","category":"government","subcategory":"administration","osmType":"node","addr:street":"شارع الزبيري","government":"ministry","name:ar":"وزارة الشباب والرياضة","name:en":"sport ministry","office":"government"}},{"type":"Feature","id":6468603009,"geometry":{"type":"Point","coordinates":[44.1775043,15.359371200000002]},"properties":{"id":6468603009,"name":"الهيئة العامة للزكاة","type":"tax","category":"government","subcategory":"administration","osmType":"node","government":"tax","office":"government","name:latin":"al-hy'a al-'ama llzkaa"}},{"type":"Feature","id":6530359789,"geometry":{"type":"Point","coordinates":[44.220546000000006,15.332821800000001]},"properties":{"id":6530359789,"name":"المنطقة الثالثة لكهرباء الامانه","type":"المنطقة الثالثة لكهرباء الامانه","category":"government","subcategory":"administration","osmType":"node","office":"government","name:latin":"al-mntqa al-thaltha lkhrba' al-amanh"}},{"type":"Feature","id":6721943621,"geometry":{"type":"Point","coordinates":[44.227629900000004,15.2661767]},"properties":{"id":6721943621,"name":"امين شرعي منطقة بيت بوس","type":"courthouse","category":"government","subcategory":"administration","osmType":"node","amenity":"courthouse","name:latin":"amyn shr'y mntqa byt bws"}},{"type":"Feature","id":6780390588,"geometry":{"type":"Point","coordinates":[44.21269770000001,15.2728081]},"properties":{"id":6780390588,"name":"المحكمة الجزائية","type":"courthouse","category":"government","subcategory":"administration","osmType":"node","addr:street":"شارع ‏الثلاثين","amenity":"courthouse","name:en":"Criminal Court","opening_hours":"Sa-We 09:00-14:00"}},{"type":"Feature","id":6780399285,"geometry":{"type":"Point","coordinates":[44.25063480000001,15.276529100000001]},"properties":{"id":6780399285,"name":"المحكمة الجزائية","type":"courthouse","category":"government","subcategory":"administration","osmType":"node","addr:street":"شارع كمران","amenity":"courthouse","name:en":"Criminal Court","opening_hours":"Sa-We 09:00-14:00"}},{"type":"Feature","id":6983356851,"geometry":{"type":"Point","coordinates":[44.240381400000004,15.312168600000001]},"properties":{"id":6983356851,"name":"محكمة سنحان","type":"courthouse","category":"government","subcategory":"administration","osmType":"node","amenity":"courthouse","name:en":"Sanhan courthouse","opening_hours":"Sa-We 07:30-13:00"}},{"type":"Feature","id":7099194788,"geometry":{"type":"Point","coordinates":[44.209189800000004,15.376174800000001]},"properties":{"id":7099194788,"name":"مركز مكافحة الجراد","type":"مركز مكافحة الجراد","category":"government","subcategory":"administration","osmType":"node","office":"government","name:latin":"mrkz mkafha al-jrad"}},{"type":"Feature","id":7490811485,"geometry":{"type":"Point","coordinates":[44.1729831,15.346222800000001]},"properties":{"id":7490811485,"name":"مشروع مجلس النواب الجديد","type":"شارع الستين","category":"government","subcategory":"administration","osmType":"node","addr:street":"شارع الستين","office":"government","name:latin":"mshrw' mjls al-nwab al-jdyd"}},{"type":"Feature","id":7547018210,"geometry":{"type":"Point","coordinates":[44.2214011,15.419657]},"properties":{"id":7547018210,"name":"الكلية الحربية","type":"الكلية الحربية","category":"government","subcategory":"administration","osmType":"node","office":"government","name:latin":"al-klya al-hrbya"}},{"type":"Feature","id":7711098710,"geometry":{"type":"Point","coordinates":[44.209525600000006,15.349862100000001]},"properties":{"id":7711098710,"name":"اتحاد نساء اليمن- المكتب التنفيذي","type":"صنعاء","category":"government","subcategory":"administration","osmType":"node","addr:city":"صنعاء","addr:street":"شارع الزبيري","office":"government","name:latin":"athad nsa' al-ymn- al-mktb al-tnfydhy"}},{"type":"Feature","id":7711106857,"geometry":{"type":"Point","coordinates":[44.206126000000005,15.387598900000002]},"properties":{"id":7711106857,"name":"المجلس المحلي مديرية الثورة","type":"المجلس المحلي مديرية الثورة","category":"government","subcategory":"administration","osmType":"node","office":"government","name:latin":"al-mjls al-mhly mdyrya al-thwra"}},{"type":"Feature","id":8383195319,"geometry":{"type":"Point","coordinates":[44.1725957,15.348789400000001]},"properties":{"id":8383195319,"name":"وزارة الشؤون القانونية","type":"شارع الستين","category":"government","subcategory":"administration","osmType":"node","addr:street":"شارع الستين","office":"government","name:latin":"wzara al-sh'wn al-qanwnya"}},{"type":"Feature","id":8383196020,"geometry":{"type":"Point","coordinates":[44.1679863,15.380711900000001]},"properties":{"id":8383196020,"name":"النائب العام","type":"خط وادي ظهر - شبام","category":"government","subcategory":"administration","osmType":"node","addr:street":"خط وادي ظهر - شبام","office":"government","name:latin":"al-na'b al-'am"}},{"type":"Feature","id":8401435318,"geometry":{"type":"Point","coordinates":[44.225961500000004,15.299730400000001]},"properties":{"id":8401435318,"name":"المجلس المحلي لمديرية السبعين","type":"المجلس المحلي لمديرية السبعين","category":"government","subcategory":"administration","osmType":"node","office":"government","name:latin":"al-mjls al-mhly lmdyrya al-sb'yn"}},{"type":"Feature","id":8657059730,"geometry":{"type":"Point","coordinates":[44.236125900000005,15.372801100000002]},"properties":{"id":8657059730,"name":"دائرة الأشغال العسكرية","type":"دائرة الأشغال العسكرية","category":"government","subcategory":"administration","osmType":"node","office":"government","name:latin":"da'ra al-ashghal al-'skrya"}},{"type":"Feature","id":8728577518,"geometry":{"type":"Point","coordinates":[44.1808479,15.335674200000001]},"properties":{"id":8728577518,"name":"وزارة شئون المغتربين","type":"صنعاء","category":"government","subcategory":"administration","osmType":"node","addr:city":"صنعاء","addr:street":"شارع الجزائر","government":"ministry","name:ar":"وزارة شئون المغتربين","office":"government","name:latin":"wzara sh'wn al-mghtrbyn"}},{"type":"Feature","id":8900185117,"geometry":{"type":"Point","coordinates":[44.1948816,15.4166623]},"properties":{"id":8900185117,"name":"مكتب بريد التلفزيون","type":"post_office","category":"government","subcategory":"post","osmType":"node","amenity":"post_office","name:ar":"مكتب بريد التلفزيون","name:latin":"mktb bryd al-tlfzywn"}},{"type":"Feature","id":8973718917,"geometry":{"type":"Point","coordinates":[44.169902500000006,15.335757300000001]},"properties":{"id":8973718917,"name":"الإدارة العامة للنظافة","type":"الإدارة العامة للنظافة","category":"government","subcategory":"administration","osmType":"node","office":"government","name:latin":"al-idara al-'ama llnzafa"}},{"type":"Feature","id":9026419321,"geometry":{"type":"Point","coordinates":[44.1818614,15.328717500000002]},"properties":{"id":9026419321,"name":"الصندوق الاجتماعي للتنميه - صنعاء","type":"الصندوق الاجتماعي للتنميه - صنعاء","category":"government","subcategory":"administration","osmType":"node","office":"government","name:latin":"al-sndwq al-ajtma'y lltnmyh - sn'a'"}},{"type":"Feature","id":9028070456,"geometry":{"type":"Point","coordinates":[44.2060474,15.356662100000001]},"properties":{"id":9028070456,"name":"","type":"military","category":"government","subcategory":"administration","osmType":"node","government":"military","name:en":"Moral guidance of the armed forces","office":"government"}},{"type":"Feature","id":9028070457,"geometry":{"type":"Point","coordinates":[44.2041242,15.393303600000001]},"properties":{"id":9028070457,"name":"مجلس الشورى","type":"صنعاء","category":"government","subcategory":"administration","osmType":"node","addr:city":"صنعاء","addr:street":"شارع التلفزيون","government":"legislative","name:en":"Shoura Council","office":"government"}},{"type":"Feature","id":9029012518,"geometry":{"type":"Point","coordinates":[44.2030493,15.342098600000002]},"properties":{"id":9029012518,"name":"فرع التوجيه المعنوي للداخلية","type":"فرع التوجيه المعنوي للداخلية","category":"government","subcategory":"administration","osmType":"node","office":"government","name:latin":"fr' al-twjyh al-m'nwy lldakhlya"}},{"type":"Feature","id":9071767117,"geometry":{"type":"Point","coordinates":[44.182208900000006,15.333437900000002]},"properties":{"id":9071767117,"name":"جمارك صنعاء ( Sh )","type":"جمارك صنعاء ( Sh )","category":"government","subcategory":"administration","osmType":"node","office":"government"}},{"type":"Feature","id":9106013317,"geometry":{"type":"Point","coordinates":[44.206901300000006,15.360180800000002]},"properties":{"id":9106013317,"name":"صندوق الإسكان العسكري","type":"صندوق الإسكان العسكري","category":"government","subcategory":"administration","osmType":"node","office":"government","name:latin":"sndwq al-iskan al-'skry"}},{"type":"Feature","id":9106013418,"geometry":{"type":"Point","coordinates":[44.241562300000005,15.299132400000001]},"properties":{"id":9106013418,"name":"محكمة ونيابة جنوب شرق أمانة العاصمة","type":"courthouse","category":"government","subcategory":"administration","osmType":"node","amenity":"courthouse","name:latin":"mhkma wnyaba jnwb shrq amana al-'asma"}},{"type":"Feature","id":9177789718,"geometry":{"type":"Point","coordinates":[44.2018326,15.334823900000002]},"properties":{"id":9177789718,"name":"الهيئة العامة للتأمينات والمعاشات","type":"الهيئة العامة للتأمينات والمعاشات","category":"government","subcategory":"administration","osmType":"node","office":"government","name:latin":"al-hy'a al-'ama lltamynat walm'ashat"}},{"type":"Feature","id":9283796050,"geometry":{"type":"Point","coordinates":[44.169007,15.381851500000002]},"properties":{"id":9283796050,"name":"نيابة الأموال العامة","type":"صنعاء","category":"government","subcategory":"administration","osmType":"node","addr:city":"صنعاء","addr:street":"خط وادي ظهر - شبام","government":"yes","office":"government","name:latin":"nyaba al-amwal al-'ama"}},{"type":"Feature","id":9283796155,"geometry":{"type":"Point","coordinates":[44.1754529,15.335271600000002]},"properties":{"id":9283796155,"name":"محكمة بني مطر الابتدائية","type":"courthouse","category":"government","subcategory":"administration","osmType":"node","amenity":"courthouse","name:latin":"mhkma bny mtr al-abtda'ya"}},{"type":"Feature","id":9433857966,"geometry":{"type":"Point","coordinates":[44.1938438,15.346934500000001]},"properties":{"id":9433857966,"name":"المختبر المركزي","type":"المختبر المركزي","category":"government","subcategory":"administration","osmType":"node","name:ar":"المختبر المركزي","office":"government","name:latin":"al-mkhtbr al-mrkzy"}},{"type":"Feature","id":9445915076,"geometry":{"type":"Point","coordinates":[44.206299900000005,15.389944400000001]},"properties":{"id":9445915076,"name":"المؤسسة العامة للمياه والصرف الصحي","type":"صنعاء","category":"government","subcategory":"administration","osmType":"node","addr:city":"صنعاء","addr:street":"شارع التلفزيون","office":"government","name:latin":"al-m'ssa al-'ama llmyah walsrf al-shy"}},{"type":"Feature","id":9704205257,"geometry":{"type":"Point","coordinates":[44.184160000000006,15.308580000000001]},"properties":{"id":9704205257,"name":"مكتب الهيئة العامة للأوقاف","type":"مكتب الهيئة العامة للأوقاف","category":"government","subcategory":"administration","osmType":"node","office":"government","name:latin":"mktb al-hy'a al-'ama llawqaf"}},{"type":"Feature","id":9799575812,"geometry":{"type":"Point","coordinates":[44.2468372,15.296730300000002]},"properties":{"id":9799575812,"name":"البرنامج الوطني لمكافحة الملاريا","type":"البرنامج الوطني لمكافحة الملاريا","category":"government","subcategory":"administration","osmType":"node","office":"government","name:latin":"al-brnamj al-wtny lmkafha al-mlarya"}},{"type":"Feature","id":9799575813,"geometry":{"type":"Point","coordinates":[44.247285500000004,15.2965344]},"properties":{"id":9799575813,"name":"الهيئة العليا للأدوية والمستلزمات الطبية","type":"الهيئة العليا للأدوية والمستلزمات الطبية","category":"government","subcategory":"administration","osmType":"node","office":"government","name:latin":"al-hy'a al-'lya lladwya walmstlzmat al-tbya"}},{"type":"Feature","id":9799577820,"geometry":{"type":"Point","coordinates":[44.246147500000006,15.296895700000002]},"properties":{"id":9799577820,"name":"المركز الوطني للتثقيف والإعلام الصحي","type":"المركز الوطني للتثقيف والإعلام الصحي","category":"government","subcategory":"administration","osmType":"node","office":"government","name:latin":"al-mrkz al-wtny lltthqyf wali'lam al-shy"}},{"type":"Feature","id":9961836955,"geometry":{"type":"Point","coordinates":[44.196808100000005,15.3994297]},"properties":{"id":9961836955,"name":"الهيئة العليا للعلوم والتكنولوجيا والابتكار","type":"الهيئة العليا للعلوم والتكنولوجيا والابتكار","category":"government","subcategory":"administration","osmType":"node","office":"government","wheelchair":"no","name:latin":"al-hy'a al-'lya ll'lwm waltknwlwjya walabtkar"}},{"type":"Feature","id":10111438617,"geometry":{"type":"Point","coordinates":[44.221631800000004,15.341873500000002]},"properties":{"id":10111438617,"name":"مكتب فرزة مأرب الرشيد","type":"post_office","category":"government","subcategory":"post","osmType":"node","addr:street":"شارع تعز","amenity":"post_office","phone":"774690209","name:latin":"mktb frza marb al-rshyd"}},{"type":"Feature","id":10160025071,"geometry":{"type":"Point","coordinates":[44.2030699,15.389261800000002]},"properties":{"id":10160025071,"name":"مركز تنمية الموارد البشرية قطاع المياه","type":"شارع صوفان","category":"government","subcategory":"administration","osmType":"node","addr:street":"شارع صوفان","office":"government","name:latin":"mrkz tnmya al-mward al-bshrya qta' al-myah"}},{"type":"Feature","id":10160025079,"geometry":{"type":"Point","coordinates":[44.203034300000006,15.393240300000002]},"properties":{"id":10160025079,"name":"مطابع الكتاب المدرسي","type":"صنعاء","category":"government","subcategory":"administration","osmType":"node","addr:city":"صنعاء","addr:street":"شارع صوفان","office":"government","name:latin":"mtab' al-ktab al-mdrsy"}},{"type":"Feature","id":10649030365,"geometry":{"type":"Point","coordinates":[44.1978979,15.327810800000002]},"properties":{"id":10649030365,"name":"الهيئة العامة للأوقاف","type":"شارع جيبوتي","category":"government","subcategory":"administration","osmType":"node","addr:street":"شارع جيبوتي","office":"government","name:latin":"al-hy'a al-'ama llawqaf"}},{"type":"Feature","id":10689099905,"geometry":{"type":"Point","coordinates":[44.20848050000001,15.3396231]},"properties":{"id":10689099905,"name":"مكتب الجهاز المركزي للإحصاء - امانة العاصمة","type":"البليلي","category":"government","subcategory":"administration","osmType":"node","addr:street":"البليلي","email":"cso.sana'a@yahoo.com","name:en":"office central Statistical Organization Capital Municipality ,","office":"government","opening_hours":"Fr-Tu 08:00-03:00","phone":"773706262","website":"https://www.cso-yemen.org/"}},{"type":"Feature","id":10689110705,"geometry":{"type":"Point","coordinates":[44.1957552,15.364129100000001]},"properties":{"id":10689110705,"name":"الجهاز المركزي للإحصاء","type":"01250617","category":"government","subcategory":"administration","osmType":"node","addr:housenumber":"01250617","addr:postcode":"13434","addr:street":"شارع الحرية","email":"cso1@y.net.ye","name:en":"Central Statistical Organization","office":"government","opening_hours":"Fr-Tu 08:00-03:00","phone":"01250617","website":"https://www.cso-yemen.org/"}},{"type":"Feature","id":11125360205,"geometry":{"type":"Point","coordinates":[44.217248600000005,15.335327600000001]},"properties":{"id":11125360205,"name":"الخدمة المدنية أمانة العاصمة","type":"الخدمة المدنية أمانة العاصمة","category":"government","subcategory":"administration","osmType":"node","office":"government","name:latin":"al-khdma al-mdnya amana al-'asma"}},{"type":"Feature","id":11182909437,"geometry":{"type":"Point","coordinates":[44.200018500000006,15.382410900000002]},"properties":{"id":11182909437,"name":"مكتب المياه المنطقة الخامسة","type":"مكتب المياه المنطقة الخامسة","category":"government","subcategory":"administration","osmType":"node","office":"government","name:latin":"mktb al-myah al-mntqa al-khamsa"}},{"type":"Feature","id":11780318169,"geometry":{"type":"Point","coordinates":[44.160311300000004,15.3861854]},"properties":{"id":11780318169,"name":"مكتب و سنترال الاتصالات مذبح","type":"مكتب و سنترال الاتصالات مذبح","category":"government","subcategory":"administration","osmType":"node","office":"government","name:latin":"mktb w sntral al-atsalat mdhbh"}},{"type":"Feature","id":12407562090,"geometry":{"type":"Point","coordinates":[44.180031500000005,15.337620600000001]},"properties":{"id":12407562090,"name":"مشروع الأشغال العامة","type":"صنعاء","category":"government","subcategory":"administration","osmType":"node","addr:city":"صنعاء","addr:street":"شارع المحروقات","office":"government","name:latin":"mshrw' al-ashghal al-'ama"}},{"type":"Feature","id":12407562093,"geometry":{"type":"Point","coordinates":[44.1810532,15.338006900000002]},"properties":{"id":12407562093,"name":"مكتب بريد بغداد","type":"post_office","category":"government","subcategory":"post","osmType":"node","amenity":"post_office","name:latin":"mktb bryd bghdad"}},{"type":"Feature","id":12538695261,"geometry":{"type":"Point","coordinates":[44.1974986,15.308273200000002]},"properties":{"id":12538695261,"name":"قلم التوثيق العقاري","type":"صنعاء","category":"government","subcategory":"administration","osmType":"node","addr:city":"صنعاء","addr:street":"شارع السفارة الالمانية","office":"government","name:latin":"qlm al-twthyq al-'qary"}},{"type":"Feature","id":12538695266,"geometry":{"type":"Point","coordinates":[44.20048800000001,15.3051147]},"properties":{"id":12538695266,"name":"نقابة الصيادلة وأطباء الأسنان","type":"صنعاء","category":"government","subcategory":"administration","osmType":"node","addr:city":"صنعاء","addr:street":"شارع 14 أكتوبر","office":"government","name:latin":"nqaba al-syadla watba' al-asnan"}},{"type":"Feature","id":12538695272,"geometry":{"type":"Point","coordinates":[44.2012769,15.305713400000002]},"properties":{"id":12538695272,"name":"المحكمة العمالية الايتدائية","type":"courthouse","category":"government","subcategory":"administration","osmType":"node","addr:city":"صنعاء","addr:street":"شارع 14 أكتوبر","amenity":"courthouse","name:latin":"al-mhkma al-'malya al-aytda'ya"}},{"type":"Feature","id":12538705170,"geometry":{"type":"Point","coordinates":[44.195555500000005,15.310406600000002]},"properties":{"id":12538705170,"name":"المجلس الطبي اليمني","type":"صنعاء","category":"government","subcategory":"administration","osmType":"node","addr:city":"صنعاء","addr:street":"شارع حدة","office":"government","phone":"1247547","website":"https://www.facebook.com/MedicalCouncil","name:latin":"al-mjls al-tby al-ymny"}},{"type":"Feature","id":12559599388,"geometry":{"type":"Point","coordinates":[44.179087,15.399422200000002]},"properties":{"id":12559599388,"name":"مكتب بريد أبوعمار","type":"post_office","category":"government","subcategory":"post","osmType":"node","addr:city":"صنعاء","addr:street":"شارع الستين","amenity":"post_office","name:latin":"mktb bryd abw'mar"}},{"type":"Feature","id":12572220943,"geometry":{"type":"Point","coordinates":[44.224518700000004,15.355949100000002]},"properties":{"id":12572220943,"name":"مركز البحوث والتطوير التربوي","type":"صنعاء","category":"government","subcategory":"administration","osmType":"node","addr:city":"صنعاء","addr:street":"شارع نقم","office":"government","name:latin":"mrkz al-bhwth walttwyr al-trbwy"}},{"type":"Feature","id":12572220944,"geometry":{"type":"Point","coordinates":[44.225036200000005,15.355871600000002]},"properties":{"id":12572220944,"name":"إدارة مرور منطقة ازال","type":"صنعاء","category":"government","subcategory":"administration","osmType":"node","addr:city":"صنعاء","addr:street":"شارع نقم","office":"government","name:latin":"idara mrwr mntqa azal"}},{"type":"Feature","id":12615164495,"geometry":{"type":"Point","coordinates":[44.2064973,15.334647700000001]},"properties":{"id":12615164495,"name":"مكتب بريد السبعين","type":"post_office","category":"government","subcategory":"post","osmType":"node","amenity":"post_office","name:latin":"mktb bryd al-sb'yn"}},{"type":"Feature","id":12615168437,"geometry":{"type":"Point","coordinates":[44.2427804,15.280035900000001]},"properties":{"id":12615168437,"name":"مكتب بريد دار سلم","type":"post_office","category":"government","subcategory":"post","osmType":"node","amenity":"post_office","name:latin":"mktb bryd dar slm"}},{"type":"Feature","id":12615180406,"geometry":{"type":"Point","coordinates":[44.163966200000004,15.464759800000001]},"properties":{"id":12615180406,"name":"مكتب بريد جدر","type":"post_office","category":"government","subcategory":"post","osmType":"node","addr:city":"صنعاء","addr:street":"طريق صنعاء - عمران - صعدة","amenity":"post_office","name:latin":"mktb bryd jdr"}},{"type":"Feature","id":12615894257,"geometry":{"type":"Point","coordinates":[44.180168200000004,15.3416872]},"properties":{"id":12615894257,"name":"الهيئة العامة للتأمين الصحي الاجتماعي","type":"الهيئة العامة للتأمين الصحي الاجتماعي","category":"government","subcategory":"administration","osmType":"node","office":"government","name:latin":"al-hy'a al-'ama lltamyn al-shy al-ajtma'y"}},{"type":"Feature","id":13436370793,"geometry":{"type":"Point","coordinates":[44.204231500000006,15.374395300000002]},"properties":{"id":13436370793,"name":"المحكمة الإدارية الابتدائية","type":"courthouse","category":"government","subcategory":"administration","osmType":"node","amenity":"courthouse","name:latin":"al-mhkma al-idarya al-abtda'ya"}},{"type":"Feature","id":13436435942,"geometry":{"type":"Point","coordinates":[44.206524800000004,15.374425]},"properties":{"id":13436435942,"name":"الهيئة العامة للتأمينات والمعاشات","type":"administrative","category":"government","subcategory":"administration","osmType":"node","government":"administrative","office":"government","name:latin":"al-hy'a al-'ama lltamynat walm'ashat"}},{"type":"Feature","id":13436436035,"geometry":{"type":"Point","coordinates":[44.1820832,15.3727724]},"properties":{"id":13436436035,"name":"محكمة همدان الابتدئية","type":"courthouse","category":"government","subcategory":"administration","osmType":"node","amenity":"courthouse","name:latin":"mhkma hmdan al-abtd'ya"}},{"type":"Feature","id":13438580889,"geometry":{"type":"Point","coordinates":[44.205124700000006,15.384734700000001]},"properties":{"id":13438580889,"name":"اللجنة الطبية العليا","type":"healthcare","category":"government","subcategory":"administration","osmType":"node","government":"healthcare","office":"government","name:latin":"al-ljna al-tbya al-'lya"}},{"type":"Feature","id":13452172372,"geometry":{"type":"Point","coordinates":[44.194416000000004,15.297431900000001]},"properties":{"id":13452172372,"name":"مكتب الهيئة العامة للزكاة","type":"tax","category":"government","subcategory":"administration","osmType":"node","government":"tax","office":"government","name:latin":"mktb al-hy'a al-'ama llzkaa"}},{"type":"Feature","id":13452194257,"geometry":{"type":"Point","coordinates":[44.1797429,15.311037400000002]},"properties":{"id":13452194257,"name":"محكمة سنحان وبني مطر","type":"courthouse","category":"government","subcategory":"administration","osmType":"node","amenity":"courthouse","name:latin":"mhkma snhan wbny mtr"}},{"type":"Feature","id":13518704596,"geometry":{"type":"Point","coordinates":[44.229689,15.3196267]},"properties":{"id":13518704596,"name":"مكتب الهيئة العامة للزكاة - السبعين","type":"tax","category":"government","subcategory":"administration","osmType":"node","government":"tax","office":"government","name:latin":"mktb al-hy'a al-'ama llzkaa - al-sb'yn"}},{"type":"Feature","id":60750456,"geometry":{"type":"Polygon","coordinates":[[[44.232359100000004,15.321769900000001],[44.2311789,15.321294000000002],[44.2316939,15.3202592],[44.232917,15.320890400000001],[44.232359100000004,15.321769900000001]]]},"properties":{"id":60750456,"name":"الجوازات","type":"townhall","category":"government","subcategory":"administration","osmType":"way","amenity":"townhall","name:ar":"الجوازات","name:en":"passport"}},{"type":"Feature","id":237753314,"geometry":{"type":"Polygon","coordinates":[[[44.212799600000004,15.393535400000001],[44.2128827,15.394719100000001],[44.21299810000001,15.3963645],[44.2111956,15.397140300000002],[44.209918900000005,15.397693700000001],[44.2073279,15.397042],[44.2054879,15.3965817],[44.205740000000006,15.3951594],[44.205799000000006,15.394988800000002],[44.206393000000006,15.392336100000001],[44.2064115,15.392180600000001],[44.2074982,15.392250400000002],[44.2085762,15.3924163],[44.2087622,15.392868400000001],[44.209049300000004,15.393711900000001],[44.20956580000001,15.394388300000001],[44.2102944,15.3944354],[44.2115158,15.3940002],[44.2116301,15.393959500000001],[44.212799600000004,15.393535400000001]]]},"properties":{"id":237753314,"name":"المؤسسة العامة للاتصالات السلكية واللاسلكية","type":"المؤسسة العامة للاتصالات السلكية واللاسلكية","category":"government","subcategory":"administration","osmType":"way","name:ar":"المؤسسة العامة للاتصالات السلكية واللاسلكية","office":"government","name:latin":"al-m'ssa al-'ama llatsalat al-slkya wallaslkya"}},{"type":"Feature","id":237753364,"geometry":{"type":"Polygon","coordinates":[[[44.2138215,15.386333300000002],[44.2128291,15.386535100000001],[44.2128103,15.385961000000002],[44.21277010000001,15.385511000000001],[44.212767400000004,15.385373900000001],[44.212526000000004,15.384988600000002],[44.212831800000004,15.3849291],[44.213309200000005,15.384898100000001],[44.2136927,15.3848929],[44.2136981,15.385717900000001],[44.2138215,15.386333300000002]]]},"properties":{"id":237753364,"name":"وزارة الداخلية","type":"ministry","category":"government","subcategory":"administration","osmType":"way","government":"ministry","name:ar":"وزارة الداخلية","office":"government","name:latin":"wzara al-dakhlya"}},{"type":"Feature","id":237753567,"geometry":{"type":"Polygon","coordinates":[[[44.210852300000006,15.379932700000001],[44.21124390000001,15.3789396],[44.2123275,15.379286200000001],[44.2119895,15.380331000000002],[44.210852300000006,15.379932700000001]]]},"properties":{"id":237753567,"name":"الهيئة العامة للأراضي والمساحة والتخطيط العمراني","type":"yes","category":"government","subcategory":"administration","osmType":"way","building":"yes","layer":"1","name:ar":"وزارة الصناعة والتجارة","office":"government","name:latin":"al-hy'a al-'ama llarady walmsaha waltkhtyt al-'mrany"}},{"type":"Feature","id":237753865,"geometry":{"type":"Polygon","coordinates":[[[44.2005258,15.3825292],[44.200118100000005,15.3812051],[44.2010408,15.380915500000002],[44.20249450000001,15.380496500000001],[44.202624400000005,15.380914100000002],[44.202752000000004,15.3813241],[44.201722000000004,15.382022300000001],[44.20125530000001,15.382332700000001],[44.20114590000001,15.382362200000001],[44.200763900000005,15.382465100000001],[44.2005258,15.3825292]]]},"properties":{"id":237753865,"name":"المؤسسة العامة للمياه","type":"شارع الصحة","category":"government","subcategory":"administration","osmType":"way","addr:street":"شارع الصحة","office":"government","name:latin":"al-m'ssa al-'ama llmyah"}},{"type":"Feature","id":237753956,"geometry":{"type":"Polygon","coordinates":[[[44.1896306,15.3795189],[44.191159500000005,15.379291300000002],[44.191277500000005,15.380620600000002],[44.191100500000005,15.3808637],[44.18972720000001,15.380962000000002],[44.1896306,15.3795189]]]},"properties":{"id":237753956,"name":"وزارة الإعلام","type":"yes","category":"government","subcategory":"administration","osmType":"way","building":"yes","government":"ministry","name:ar":"وزارة الإعلام","office":"government","name:latin":"wzara al-i'lam"}},{"type":"Feature","id":237755718,"geometry":{"type":"Polygon","coordinates":[[[44.1674997,15.3411652],[44.1671242,15.341103200000001],[44.167202,15.3404772],[44.167470200000004,15.340500500000001],[44.16762310000001,15.340226300000001],[44.167797500000006,15.340301300000002],[44.1674997,15.3411652]]]},"properties":{"id":237755718,"name":"مصلحة الاحوال المدنية والسجل المدني","type":"yes","category":"government","subcategory":"administration","osmType":"way","building":"yes","name:ar":"مصلحة الاحوال المدنية والسجل المدني","office":"government","name:latin":"mslha al-ahwal al-mdnya walsjl al-mdny"}},{"type":"Feature","id":333927891,"geometry":{"type":"Polygon","coordinates":[[[44.19535380000001,15.363522800000002],[44.1958691,15.363318500000002],[44.1958848,15.363355300000002],[44.196037100000005,15.363294900000001],[44.1958647,15.362890600000002],[44.1958836,15.362883100000001],[44.1958034,15.362694900000001],[44.195160800000004,15.362949700000001],[44.195327400000004,15.3633403],[44.19528330000001,15.363357700000002],[44.19535380000001,15.363522800000002]]]},"properties":{"id":333927891,"name":"وزارة التخطيط","type":"وزارة التخطيط","category":"government","subcategory":"administration","osmType":"way","alt_name":"وزارة التخطيط","building":"office","is_in":"Republic of Yemen , جمهورية اليمن","name:ar":"وزارة التخطيط","name:en":"Ministry of Planning/National Institute for Public Administration","office":"government","source":"Bing"}},{"type":"Feature","id":334121055,"geometry":{"type":"Polygon","coordinates":[[[44.204231500000006,15.3790466],[44.204503800000005,15.3790527],[44.20451370000001,15.378612600000002],[44.2042495,15.378619800000001],[44.20424190000001,15.378733600000002],[44.2043602,15.378743600000002],[44.204354200000004,15.378953300000001],[44.204239,15.378946000000001],[44.204231500000006,15.3790466]]]},"properties":{"id":334121055,"name":"اللجنة الدائمة للمؤتمر الشعبي العام","type":"شارع القيادة","category":"government","subcategory":"administration","osmType":"way","addr:street":"شارع القيادة","building":"yes","name:ar":"اللجنة الدائمة للمؤتمر الشعبي العام","office":"government","source":"Bing","name:latin":"al-ljna al-da'ma llm'tmr al-sh'by al-'am"}},{"type":"Feature","id":600419759,"geometry":{"type":"Polygon","coordinates":[[[44.2067831,15.394085200000001],[44.206788,15.3938672],[44.2074706,15.393863000000001],[44.207466800000006,15.3940838],[44.2067831,15.394085200000001]]]},"properties":{"id":600419759,"name":"(General Telecomm. Institute (GTI","type":"صنعاء","category":"government","subcategory":"administration","osmType":"way","addr:city":"صنعاء","addr:street":"شارع التلفزيون","building":"yes","name:ar":"المعهد العام للاتصالات","name:en":"(General Telecomm. Institute (GTI","office":"government"}},{"type":"Feature","id":600419762,"geometry":{"type":"Polygon","coordinates":[[[44.205817,15.3927776],[44.2037246,15.392452],[44.203822,15.391353900000002],[44.20614690000001,15.391535000000001],[44.205817,15.3927776]]]},"properties":{"id":600419762,"name":"الهيئة العامة لمشاريع مياه الريف","type":"صنعاء","category":"government","subcategory":"administration","osmType":"way","addr:city":"صنعاء","addr:street":"شارع التلفزيون","name:ar":"الهيئة العامة لمشاريع مياه الريف","name:en":"The General Authority for Rural Water Supply Projects","office":"government"}},{"type":"Feature","id":600871101,"geometry":{"type":"Polygon","coordinates":[[[44.205249900000005,15.375493600000002],[44.2058011,15.375557200000001],[44.206006900000006,15.374718800000002],[44.2053159,15.374621500000002],[44.205249900000005,15.375493600000002]]]},"properties":{"id":600871101,"name":"وزارة الإدارة المحلية","type":"صنعاء","category":"government","subcategory":"administration","osmType":"way","addr:city":"صنعاء","building":"yes","name:ar":"وزارة الإدارة المحلية","name:en":"Ministry of Local Administration","office":"government"}},{"type":"Feature","id":602874903,"geometry":{"type":"Polygon","coordinates":[[[44.167681200000004,15.3807936],[44.1682989,15.3803733],[44.169665300000005,15.381855400000001],[44.169199400000004,15.382229700000002],[44.167681200000004,15.3807936]]]},"properties":{"id":602874903,"name":"مكتب النائب العام","type":"yes","category":"government","subcategory":"administration","osmType":"way","building":"yes","name:ar":"مكتب النائب العام","office":"government","name:latin":"mktb al-na'b al-'am"}},{"type":"Feature","id":602874911,"geometry":{"type":"Polygon","coordinates":[[[44.205963800000006,15.394775800000001],[44.207519500000004,15.394826100000001],[44.20741220000001,15.393048400000001],[44.207272700000004,15.392469100000001],[44.206393000000006,15.392336100000001],[44.205963800000006,15.394775800000001]]]},"properties":{"id":602874911,"name":"معهد الاتصالات وتقنية المعلومات","type":"صنعاء","category":"government","subcategory":"administration","osmType":"way","addr:city":"صنعاء","addr:street":"شارع التلفزيون","name:ar":"معهد الاتصالات وتقنية المعلومات","office":"government","name:latin":"m'hd al-atsalat wtqnya al-m'lwmat"}},{"type":"Feature","id":602874915,"geometry":{"type":"Polygon","coordinates":[[[44.2067363,15.3953137],[44.2073478,15.395231],[44.207304900000004,15.394931000000001],[44.2067685,15.394951700000002],[44.2067363,15.3953137]]]},"properties":{"id":602874915,"name":"إدارة يمن نت","type":"صنعاء","category":"government","subcategory":"administration","osmType":"way","addr:city":"صنعاء","addr:street":"شارع التلفزيون","building":"yes","government":"administrative","name:ar":"إدارة يمن نت","office":"government","name:latin":"idara ymn nt"}},{"type":"Feature","id":602874921,"geometry":{"type":"Polygon","coordinates":[[[44.21331730000001,15.393284300000001],[44.2142661,15.393133400000002],[44.214452,15.392143100000002],[44.21318900000001,15.392160100000002],[44.213101,15.3927381],[44.2131259,15.3931058],[44.21331730000001,15.393284300000001]]]},"properties":{"id":602874921,"name":"المؤسسة العامة للكهرباء والطاقة","type":"ministry","category":"government","subcategory":"administration","osmType":"way","government":"ministry","name:ar":"المؤسسة العامة للكهرباء والطاقة","office":"government","name:latin":"al-m'ssa al-'ama llkhrba' waltaqa"}},{"type":"Feature","id":602926694,"geometry":{"type":"Polygon","coordinates":[[[44.2032395,15.394021900000002],[44.20352320000001,15.392626100000001],[44.205773,15.392838300000001],[44.205748500000006,15.393140100000002],[44.2057877,15.3932344],[44.205508900000005,15.394432100000001],[44.2032395,15.394021900000002]]]},"properties":{"id":602926694,"name":"مجلس الشورى","type":"legislative","category":"government","subcategory":"administration","osmType":"way","government":"legislative","name:ar":"مجلس الشورى","office":"government","name:latin":"mjls al-shwra"}},{"type":"Feature","id":608263762,"geometry":{"type":"Polygon","coordinates":[[[44.2024454,15.3911858],[44.203175,15.391320300000002],[44.2033708,15.3905755],[44.202584900000005,15.390415100000002],[44.2024454,15.3911858]]]},"properties":{"id":608263762,"name":"الهيئة العامة لكهرباء الريف","type":"صنعاء","category":"government","subcategory":"administration","osmType":"way","addr:city":"صنعاء","addr:street":"شارع صوفان","building":"yes","office":"government","name:latin":"al-hy'a al-'ama lkhrba' al-ryf"}},{"type":"Feature","id":884880734,"geometry":{"type":"Polygon","coordinates":[[[44.211110100000006,15.378840300000002],[44.210773700000004,15.379818700000001],[44.209868500000006,15.379509200000001],[44.210245400000005,15.378539900000002],[44.211110100000006,15.378840300000002]]]},"properties":{"id":884880734,"name":"وزارة الصناعة والتجارة","type":"yes","category":"government","subcategory":"administration","osmType":"way","building":"yes","layer":"1","office":"government","name:latin":"wzara al-sna'a waltjara"}},{"type":"Feature","id":1021756017,"geometry":{"type":"Polygon","coordinates":[[[44.1951788,15.365395500000002],[44.1960873,15.365187400000002],[44.1959516,15.364582900000002],[44.1950226,15.3648544],[44.1951788,15.365395500000002]]]},"properties":{"id":1021756017,"name":"معهد الميثاق الوطني","type":"yes","category":"government","subcategory":"administration","osmType":"way","building":"yes","government":"yes","office":"government","name:latin":"m'hd al-mythaq al-wtny"}},{"type":"Feature","id":1021954019,"geometry":{"type":"Polygon","coordinates":[[[44.194968,15.343958800000001],[44.1950335,15.343725700000002],[44.194562600000005,15.343656000000001],[44.19450500000001,15.343890100000001],[44.194968,15.343958800000001]]]},"properties":{"id":1021954019,"name":"المركز الوطني للمعلومات","type":"شارع الزبيري","category":"government","subcategory":"administration","osmType":"way","addr:street":"شارع الزبيري","building":"yes","government":"yes","office":"government","name:latin":"al-mrkz al-wtny llm'lwmat"}},{"type":"Feature","id":1022907191,"geometry":{"type":"Polygon","coordinates":[[[44.19430380000001,15.3465713],[44.194976000000004,15.3467654],[44.1947266,15.347408000000001],[44.19429,15.347268300000001],[44.19401500000001,15.347165000000002],[44.19430380000001,15.3465713]]]},"properties":{"id":1022907191,"name":"مكتب الاشغال العامة والطرق","type":"yes","category":"government","subcategory":"administration","osmType":"way","building":"yes","name:ar":"مكتب الاشغال العامة والطرق","office":"government","name:latin":"mktb al-ashghal al-'ama waltrq"}},{"type":"Feature","id":1024961079,"geometry":{"type":"Polygon","coordinates":[[[44.198910700000006,15.382123600000002],[44.2001464,15.381857400000001],[44.1998936,15.381000700000001],[44.1986974,15.3813679],[44.198910700000006,15.382123600000002]]]},"properties":{"id":1024961079,"name":"المؤسسة العامة للإذاعة والتلفزيون","type":"yes","category":"government","subcategory":"administration","osmType":"way","building":"yes","office":"government","name:latin":"al-m'ssa al-'ama llidha'a waltlfzywn"}},{"type":"Feature","id":1025640118,"geometry":{"type":"Polygon","coordinates":[[[44.2302492,15.354193400000002],[44.230440300000005,15.354199600000001],[44.230532700000005,15.354264100000002],[44.2308321,15.3546019],[44.2309022,15.354786200000001],[44.231067800000005,15.3548538],[44.231615700000006,15.3550105],[44.231775000000006,15.355139500000002],[44.2321413,15.355204],[44.2320457,15.355428200000002],[44.231825900000004,15.3553545],[44.231733500000004,15.355360600000001],[44.231553700000006,15.355331800000002],[44.23139990000001,15.355338000000001],[44.23119260000001,15.3553627],[44.2310067,15.355389500000001],[44.23081440000001,15.355373000000002],[44.230592200000004,15.3553256],[44.230355,15.355251500000001],[44.2300922,15.355212300000002],[44.2298806,15.355173200000001],[44.229790900000005,15.3551546],[44.22968830000001,15.355189600000001],[44.229587900000006,15.355212300000002],[44.22947250000001,15.355329800000002],[44.229417000000005,15.355387400000001],[44.229333600000004,15.355311200000001],[44.229523400000005,15.355126700000001],[44.229353800000005,15.355029600000002],[44.2293177,15.354871200000002],[44.229336100000005,15.354726500000002],[44.229368,15.354615800000001],[44.2295687,15.354431400000001],[44.22979,15.354398400000001],[44.229921000000004,15.354347800000001],[44.229999600000006,15.354291000000002],[44.2300307,15.354205700000001],[44.2300291,15.354074700000002],[44.23018630000001,15.354027300000002],[44.2302492,15.354193400000002]]]},"properties":{"id":1025640118,"name":"وزارة الاشغال العامة والطرق","type":"yes","category":"government","subcategory":"administration","osmType":"way","building":"yes","layer":"0","office":"government","name:latin":"wzara al-ashghal al-'ama waltrq"}},{"type":"Feature","id":1027439266,"geometry":{"type":"Polygon","coordinates":[[[44.2445254,15.381825200000002],[44.2442513,15.381586400000002],[44.244277100000005,15.381077800000002],[44.2444173,15.380727300000002],[44.2449919,15.381059400000002],[44.2445254,15.381825200000002]]]},"properties":{"id":1027439266,"name":"الجمعية الزراعية","type":"yes","category":"government","subcategory":"administration","osmType":"way","building":"yes","office":"government","name:latin":"al-jm'ya al-zra'ya"}},{"type":"Feature","id":1029053682,"geometry":{"type":"Polygon","coordinates":[[[44.21681890000001,15.367235400000002],[44.218495700000005,15.3674478],[44.218527800000004,15.366855900000001],[44.218756600000006,15.3668869],[44.218946900000006,15.366707400000001],[44.219165100000005,15.3667446],[44.2192207,15.366059900000002],[44.2190346,15.3660352],[44.219090200000004,15.365593800000001],[44.2189726,15.365412400000002],[44.21865820000001,15.365319600000001],[44.2179653,15.365103000000001],[44.2178648,15.365534000000002],[44.21728950000001,15.365432000000002],[44.217286300000005,15.365395900000001],[44.2167152,15.365444300000002],[44.2168147,15.366655900000001],[44.21681890000001,15.367235400000002]]]},"properties":{"id":1029053682,"name":"المختبر المركزي للنباتات","type":"public_service","category":"government","subcategory":"administration","osmType":"way","government":"public_service","office":"government","name:latin":"al-mkhtbr al-mrkzy llnbatat"}},{"type":"Feature","id":1029054899,"geometry":{"type":"Polygon","coordinates":[[[44.210821300000006,15.379098200000001],[44.210626100000006,15.3792535],[44.21058790000001,15.379224500000001],[44.210525200000006,15.379294300000002],[44.210462400000004,15.379481100000001],[44.21034770000001,15.379444300000001],[44.21041460000001,15.379262700000002],[44.2103996,15.379189000000002],[44.2103423,15.379195600000001],[44.210295900000006,15.378911300000002],[44.2104556,15.378892900000002],[44.210474700000006,15.379019200000002],[44.2105115,15.379014000000002],[44.2105675,15.379036400000002],[44.210596100000004,15.379070600000002],[44.210713500000004,15.378975800000001],[44.210821300000006,15.379098200000001]]]},"properties":{"id":1029054899,"name":"وزارة الصناعة والتجارة","type":"وزارة الصناعة والتجارة","category":"government","subcategory":"administration","osmType":"way","office":"government","name:latin":"wzara al-sna'a waltjara"}},{"type":"Feature","id":1029054900,"geometry":{"type":"Polygon","coordinates":[[[44.211009600000004,15.379812700000002],[44.211825700000006,15.380108800000002],[44.212086400000004,15.379454800000001],[44.2119117,15.3793824],[44.2117329,15.379833800000002],[44.2110861,15.379599500000001],[44.211009600000004,15.379812700000002]]]},"properties":{"id":1029054900,"name":"الهيئة العامة للأراضي والمساحة والتخطيط العمراني","type":"الهيئة العامة للأراضي والمساحة والتخطيط العمراني","category":"government","subcategory":"administration","osmType":"way","office":"government","name:latin":"al-hy'a al-'ama llarady walmsaha waltkhtyt al-'mrany"}},{"type":"Feature","id":1029686245,"geometry":{"type":"Polygon","coordinates":[[[44.205229300000006,15.380616300000002],[44.205207800000004,15.380043500000001],[44.2052896,15.379980100000001],[44.2055592,15.380246500000002],[44.205698700000006,15.380342200000001],[44.20564770000001,15.380580100000001],[44.205229300000006,15.380616300000002]]]},"properties":{"id":1029686245,"name":"الغرفة التجارية","type":"الغرفة التجارية","category":"government","subcategory":"administration","osmType":"way","office":"government","name:latin":"al-ghrfa al-tjarya"}},{"type":"Feature","id":1089232327,"geometry":{"type":"Polygon","coordinates":[[[44.18043780000001,15.327884500000001],[44.179979900000006,15.328566400000001],[44.179865400000004,15.328582700000002],[44.179158300000005,15.3283099],[44.1790816,15.328249600000001],[44.1790304,15.328209300000001],[44.179077500000005,15.328004700000001],[44.1792425,15.327667000000002],[44.1794681,15.3273845],[44.1796768,15.327218900000002],[44.179835100000005,15.327137700000002],[44.1800775,15.327072800000002],[44.18043780000001,15.327884500000001]]]},"properties":{"id":1089232327,"name":"الجهاز المركزي للرقابة والمحاسبة","type":"yes","category":"government","subcategory":"administration","osmType":"way","building":"yes","office":"government","name:latin":"al-jhaz al-mrkzy llrqaba walmhasba"}}]}