{"type":"FeatureCollection","features":[{"type":"Feature","id":2988593039,"geometry":{"type":"Point","coordinates":[44.235519000000004,15.378854100000002]},"properties":{"id":2988593039,"name":"اكشن للانتاج الفني","type":"cinema","category":"recreation","subcategory":"entertainment","osmType":"node","addr:city":"صنعا sanaa","addr:housenumber":"13","addr:postcode":"01","addr:street":"شارع الحكيمي","amenity":"cinema","man_made":"tower","name:ar":"اكشن للانتاج الفني","website":"https://www.youtube.com/user/hakemhakemy , https://www.facebook.com/hakemhakemy , https://plus.google.com/+hakemhakemy/ , http://www.21marchyemen.blogspot.com/ , https://twitter.com/hakemhakemy","name:latin":"akshn llantaj al-fny"}},{"type":"Feature","id":4298023353,"geometry":{"type":"Point","coordinates":[44.2283223,15.3563506]},"properties":{"id":4298023353,"name":"Berlan Park","type":"park","category":"recreation","subcategory":"park","osmType":"node","leisure":"park","name:ar":"حديقة برلين","name:en":"Berlan Park"}},{"type":"Feature","id":4348937791,"geometry":{"type":"Point","coordinates":[44.224657400000005,15.390428100000001]},"properties":{"id":4348937791,"name":"معهد فرست يو للتدريب والتاهيل","type":"community_centre","category":"recreation","subcategory":"community","osmType":"node","amenity":"community_centre","name:ar":"معهد فرست يو للتدريب والتاهيل","name:en":"First you Institute for training and rehabilitation"}},{"type":"Feature","id":4357425504,"geometry":{"type":"Point","coordinates":[44.1945321,15.349299300000002]},"properties":{"id":4357425504,"name":"جامع السلام","type":"community_centre","category":"recreation","subcategory":"community","osmType":"node","amenity":"community_centre","name:ar":"جامع السلام","name:latin":"jam' al-slam"}},{"type":"Feature","id":4359035192,"geometry":{"type":"Point","coordinates":[44.19951390000001,15.335178800000001]},"properties":{"id":4359035192,"name":"أكاديمية واي سبورت","type":"playground","category":"recreation","subcategory":"playground","osmType":"node","leisure":"playground","name:latin":"akadymya way sbwrt"}},{"type":"Feature","id":4370076990,"geometry":{"type":"Point","coordinates":[44.1997499,15.321764700000001]},"properties":{"id":4370076990,"name":"نادي ويدر للرياضة","type":"fitness_centre","category":"recreation","subcategory":"sports","osmType":"node","leisure":"fitness_centre","name:ar":"نادي ويدر للرياضة","name:en":"WEIDER Gym","opening_hours":"Sa-Th 09:00-22:00","phone":"01 514 098"}},{"type":"Feature","id":4380050889,"geometry":{"type":"Point","coordinates":[44.2190074,15.357199200000002]},"properties":{"id":4380050889,"name":"دار السينما الاهليه","type":"cinema","category":"recreation","subcategory":"entertainment","osmType":"node","amenity":"cinema","name:ar":"دار السينما الاهليه","name:latin":"dar al-synma al-ahlyh"}},{"type":"Feature","id":4388529090,"geometry":{"type":"Point","coordinates":[44.222000400000006,15.333437600000002]},"properties":{"id":4388529090,"name":"حديقة 26 سبتمبر","type":"playground","category":"recreation","subcategory":"playground","osmType":"node","leisure":"playground","name:ar":"حديقة 26 سبتمبر","name:latin":"hdyqa 26 sbtmbr"}},{"type":"Feature","id":4402561589,"geometry":{"type":"Point","coordinates":[44.1952909,15.340883300000002]},"properties":{"id":4402561589,"name":"نادي بلقيس","type":"fitness_centre","category":"recreation","subcategory":"sports","osmType":"node","leisure":"fitness_centre","name:ar":"نادي بلقيس","name:latin":"nady blqys"}},{"type":"Feature","id":4636983996,"geometry":{"type":"Point","coordinates":[44.2063658,15.406439800000001]},"properties":{"id":4636983996,"name":"القناة التعليميه","type":"community_centre","category":"recreation","subcategory":"community","osmType":"node","amenity":"community_centre","name:ar":"القناة التعليميه","name:latin":"al-qnaa al-t'lymyh"}},{"type":"Feature","id":4720745693,"geometry":{"type":"Point","coordinates":[44.1892325,15.350078100000001]},"properties":{"id":4720745693,"name":"نيويورك للترجمة & إسكندر سوفت للأنظمة","type":"community_centre","category":"recreation","subcategory":"community","osmType":"node","addr:street":"الخط الدائري","amenity":"community_centre","email":"trans@newyork-yemen.net","name:ar":"نيويورك للترجمة & إسكندر سوفت للأنظمة","name:en":"Newyork for Translation & Esckander Soft for IT","opening_hours":"Sa-Th 08:00-14:00","phone":"009671470630","website":"https://www.newyork-yemen.net/"}},{"type":"Feature","id":4773426531,"geometry":{"type":"Point","coordinates":[44.23892790000001,15.3779204]},"properties":{"id":4773426531,"name":"نادي الابطال","type":"fitness_centre","category":"recreation","subcategory":"sports","osmType":"node","leisure":"fitness_centre","name:ar":"نادي الابطال","name:latin":"nady al-abtal"}},{"type":"Feature","id":4860040821,"geometry":{"type":"Point","coordinates":[44.194630700000005,15.291180500000001]},"properties":{"id":4860040821,"name":"نادي صنعاء الترفيهي","type":"fitness_centre","category":"recreation","subcategory":"sports","osmType":"node","addr:street":"شارع الخمسين","leisure":"fitness_centre","name:ar":"نادي صنعاء الترفيهي","name:en":"Sanaa Entertaining Club","opening_hours":"Mo-Su 09:00-20:00"}},{"type":"Feature","id":4994792722,"geometry":{"type":"Point","coordinates":[44.22778640000001,15.3922696]},"properties":{"id":4994792722,"name":"قاعة الباتونيا","type":"community_centre","category":"recreation","subcategory":"community","osmType":"node","amenity":"community_centre","name:ar":"قاعه الباتونيا","name:latin":"qa'a al-batwnya"}},{"type":"Feature","id":4994799921,"geometry":{"type":"Point","coordinates":[44.22780890000001,15.392273300000001]},"properties":{"id":4994799921,"name":"قاعه الباتونيا","type":"community_centre","category":"recreation","subcategory":"community","osmType":"node","addr:street":"الحافة","amenity":"community_centre","name:ar":"قاعه الباتونيا","name:latin":"qa'h al-batwnya"}},{"type":"Feature","id":5042297022,"geometry":{"type":"Point","coordinates":[44.177210200000005,15.297384000000001]},"properties":{"id":5042297022,"name":"منظمة طفل الحرب","type":"community_centre","category":"recreation","subcategory":"community","osmType":"node","addr:street":"Hadda St","amenity":"community_centre","name:ar":"منظمة طفل الحرب البريطانية","name:en":"War child UK","opening_hours":"Su-Th 08:00-16:00"}},{"type":"Feature","id":5789106818,"geometry":{"type":"Point","coordinates":[44.18414920000001,15.3536645]},"properties":{"id":5789106818,"name":"حديقة هايل","type":"park","category":"recreation","subcategory":"park","osmType":"node","addr:street":"شارع هائل","leisure":"park","name:latin":"hdyqa hayl"}},{"type":"Feature","id":5994083210,"geometry":{"type":"Point","coordinates":[44.1909026,15.3935831]},"properties":{"id":5994083210,"name":"حديقة النهضة","type":"park","category":"recreation","subcategory":"park","osmType":"node","addr:street":"شارع النهضة","leisure":"park","name:latin":"hdyqa al-nhda"}},{"type":"Feature","id":6476679186,"geometry":{"type":"Point","coordinates":[44.200495000000004,15.299736500000002]},"properties":{"id":6476679186,"name":"ملعب التنس","type":"fitness_centre","category":"recreation","subcategory":"sports","osmType":"node","addr:street":"شارع 14 أكتوبر","leisure":"fitness_centre","name:en":"Tennis Ground","opening_hours":"Sa-Th 09:00-18:00"}},{"type":"Feature","id":6547580807,"geometry":{"type":"Point","coordinates":[44.220545,15.372106300000002]},"properties":{"id":6547580807,"name":"حديقة الإحسان","type":"park","category":"recreation","subcategory":"park","osmType":"node","leisure":"park","name:latin":"hdyqa al-ihsan"}},{"type":"Feature","id":6670038687,"geometry":{"type":"Point","coordinates":[44.186975000000004,15.3582797]},"properties":{"id":6670038687,"name":"نادي سيدات اليمن جودي","type":"fitness_centre","category":"recreation","subcategory":"sports","osmType":"node","leisure":"fitness_centre","name:latin":"nady sydat al-ymn jwdy"}},{"type":"Feature","id":6937218335,"geometry":{"type":"Point","coordinates":[44.17616700000001,15.333147000000002]},"properties":{"id":6937218335,"name":"منتزه عطان","type":"park","category":"recreation","subcategory":"park","osmType":"node","GNS:dsg_code":"PRK","GNS:dsg_name":"park","GNS:id":"10834622","int_name":"Muntazah ‘Aţān","leisure":"park","name:ar":"منتزه عطان","name:en":"Muntazah `Atan","source:name":"GNS"}},{"type":"Feature","id":6937224275,"geometry":{"type":"Point","coordinates":[44.176432000000005,15.367769000000001]},"properties":{"id":6937224275,"name":"ملعب جامعة صنعاء","type":"stadium","category":"recreation","subcategory":"sports","osmType":"node","GNS:dsg_code":"STDM","GNS:dsg_name":"stadium","GNS:id":"10832704","int_name":"Mal‘ab Jāmi‘at Şan‘ā’","leisure":"stadium","name:ar":"ملعب جامعة صنعاء","name:en":"Mal`ab Jami`at San`a'","source:name":"GNS"}},{"type":"Feature","id":6937224548,"geometry":{"type":"Point","coordinates":[44.194182000000005,15.339481000000001]},"properties":{"id":6937224548,"name":"نادي بلقيس","type":"garden","category":"recreation","subcategory":"park","osmType":"node","GNS:dsg_code":"PRK","GNS:dsg_name":"park","GNS:id":"10834623","int_name":"Ḩudayfat az Zubayrī","leisure":"garden","name:ar":"حديقة الزبيري","name:en":"Hudayfat az Zubayri","source:name":"GNS","sport":"gymnastics"}},{"type":"Feature","id":7222752485,"geometry":{"type":"Point","coordinates":[44.1792431,15.300734300000002]},"properties":{"id":7222752485,"name":"صالة مزايا","type":"community_centre","category":"recreation","subcategory":"community","osmType":"node","addr:street":"شارع بيروت","amenity":"community_centre","name:en":"Mazaya Hall","opening_hours":"Mo-Su 09:00-00:00"}},{"type":"Feature","id":7230594585,"geometry":{"type":"Point","coordinates":[44.187574600000005,15.3091532]},"properties":{"id":7230594585,"name":"النادي الدبلوماسي","type":"fitness_centre","category":"recreation","subcategory":"sports","osmType":"node","leisure":"fitness_centre","name:latin":"al-nady al-dblwmasy"}},{"type":"Feature","id":7985549312,"geometry":{"type":"Point","coordinates":[44.2342281,15.385271900000001]},"properties":{"id":7985549312,"name":"حديقة العمال","type":"park","category":"recreation","subcategory":"park","osmType":"node","leisure":"park","name:latin":"hdyqa al-'mal"}},{"type":"Feature","id":8285674818,"geometry":{"type":"Point","coordinates":[44.220597500000004,15.3245093]},"properties":{"id":8285674818,"name":"نادي رويال للسباحة","type":"fitness_centre","category":"recreation","subcategory":"sports","osmType":"node","leisure":"fitness_centre","name:latin":"nady rwyal llsbaha"}},{"type":"Feature","id":8353852517,"geometry":{"type":"Point","coordinates":[44.232693700000006,15.375245600000001]},"properties":{"id":8353852517,"name":"اكاديمية المدينة لتعليم السباحة والتدريب","type":"fitness_centre","category":"recreation","subcategory":"sports","osmType":"node","addr:housenumber":"+96701304164","addr:street":"سعوان امام السفارة الامريكية","email":"city.academy@outlook.com","internet_access":"wlan","leisure":"fitness_centre","name:en":"city academy for learning and education","opening_hours":"Sa-Th 09:00-18:00","phone":"+967777700772"}},{"type":"Feature","id":8356494517,"geometry":{"type":"Point","coordinates":[44.2333093,15.3751712]},"properties":{"id":8356494517,"name":"الاكاديمية اليمنية لتعليم السباحة والتدريب","type":"fitness_centre","category":"recreation","subcategory":"sports","osmType":"node","addr:housenumber":"01304164","addr:street":"شارع النصر","email":"yemeni.academy@hotmail.com","leisure":"fitness_centre","name:en":"yemeni academy for swimming education and training","opening_hours":"Sa-Th 08:00-17:00","phone":"00967776311133"}},{"type":"Feature","id":8395476708,"geometry":{"type":"Point","coordinates":[44.2290963,15.3053719]},"properties":{"id":8395476708,"name":"حديقة القادسية","type":"park","category":"recreation","subcategory":"park","osmType":"node","leisure":"park","name:latin":"hdyqa al-qadsya"}},{"type":"Feature","id":8420052663,"geometry":{"type":"Point","coordinates":[44.198010700000005,15.307216200000001]},"properties":{"id":8420052663,"name":"نادي واستاد الوحدة الرياضي","type":"stadium","category":"recreation","subcategory":"sports","osmType":"node","addr:city":"صنعاء","addr:street":"شارع الوحدة","leisure":"stadium","name:en":"Al-Wahda Stadium"}},{"type":"Feature","id":8535710617,"geometry":{"type":"Point","coordinates":[44.1881841,15.384241800000002]},"properties":{"id":8535710617,"name":"مجمع النهضة الرياضي","type":"fitness_centre","category":"recreation","subcategory":"sports","osmType":"node","leisure":"fitness_centre","name:latin":"mjm' al-nhda al-ryady"}},{"type":"Feature","id":8887944617,"geometry":{"type":"Point","coordinates":[44.233063300000005,15.3744153]},"properties":{"id":8887944617,"name":"حديقه فان ذيري","type":"garden","category":"recreation","subcategory":"park","osmType":"node","leisure":"garden","name:latin":"hdyqh fan dhyry"}},{"type":"Feature","id":9020146319,"geometry":{"type":"Point","coordinates":[44.22055160000001,15.324378800000002]},"properties":{"id":9020146319,"name":"مسبح ( Sh )","type":"fitness_centre","category":"recreation","subcategory":"sports","osmType":"node","leisure":"fitness_centre"}},{"type":"Feature","id":9122028035,"geometry":{"type":"Point","coordinates":[44.2542746,15.311451600000002]},"properties":{"id":9122028035,"name":"خرابة حمراء علب","type":"park","category":"recreation","subcategory":"park","osmType":"node","leisure":"park","name:latin":"khraba hmra' 'lb"}},{"type":"Feature","id":9177789917,"geometry":{"type":"Point","coordinates":[44.164855900000006,15.345842600000001]},"properties":{"id":9177789917,"name":"صالة قصر صنعاء","type":"community_centre","category":"recreation","subcategory":"community","osmType":"node","amenity":"community_centre","name:latin":"sala qsr sn'a'"}},{"type":"Feature","id":9426404718,"geometry":{"type":"Point","coordinates":[44.2273234,15.304328000000002]},"properties":{"id":9426404718,"name":"صالة الرقيم","type":"community_centre","category":"recreation","subcategory":"community","osmType":"node","amenity":"community_centre","name:latin":"sala al-rqym"}},{"type":"Feature","id":9522291108,"geometry":{"type":"Point","coordinates":[44.162265700000006,15.353206600000002]},"properties":{"id":9522291108,"name":"قاعة لاروز للافراح","type":"community_centre","category":"recreation","subcategory":"community","osmType":"node","amenity":"community_centre","name:latin":"qa'a larwz llafrah"}},{"type":"Feature","id":9540310329,"geometry":{"type":"Point","coordinates":[44.2070079,15.351124300000002]},"properties":{"id":9540310329,"name":"سينما بلقيس","type":"cinema","category":"recreation","subcategory":"entertainment","osmType":"node","amenity":"cinema","name:latin":"synma blqys"}},{"type":"Feature","id":10136734917,"geometry":{"type":"Point","coordinates":[44.213131600000004,15.432840900000002]},"properties":{"id":10136734917,"name":"معامل النصر للتصوير والدعايه والاعلان2","type":"cinema","category":"recreation","subcategory":"entertainment","osmType":"node","amenity":"cinema","name:latin":"m'aml al-nsr lltswyr wald'ayh wala'lan2"}},{"type":"Feature","id":10614857176,"geometry":{"type":"Point","coordinates":[44.20910980000001,15.390382400000002]},"properties":{"id":10614857176,"name":"مجمع المارينا الترفيهي","type":"swimming_pool","category":"recreation","subcategory":"sports","osmType":"node","leisure":"swimming_pool","resort":"resort","name:latin":"mjm' al-maryna al-trfyhy"}},{"type":"Feature","id":11841507849,"geometry":{"type":"Point","coordinates":[44.146019900000006,15.408641600000001]},"properties":{"id":11841507849,"name":"قاعة الوسام الملكي","type":"community_centre","category":"recreation","subcategory":"community","osmType":"node","addr:street":"الشهيد محمد العزب","amenity":"community_centre","name:latin":"qa'a al-wsam al-mlky"}},{"type":"Feature","id":12403304126,"geometry":{"type":"Point","coordinates":[44.245204400000006,15.3710716]},"properties":{"id":12403304126,"name":"نادي أكسجين الرياضي","type":"fitness_centre","category":"recreation","subcategory":"sports","osmType":"node","addr:city":"صنعاء","addr:street":"شارع الأربعين","leisure":"fitness_centre","name:latin":"nady aksjyn al-ryady"}},{"type":"Feature","id":12403309191,"geometry":{"type":"Point","coordinates":[44.2428888,15.3773005]},"properties":{"id":12403309191,"name":"نادي لايتنس للسيدات","type":"fitness_centre","category":"recreation","subcategory":"sports","osmType":"node","addr:city":"مدينة صنعاء","addr:street":"شارع الأربعين","leisure":"fitness_centre","name:latin":"nady laytns llsydat"}},{"type":"Feature","id":12559596125,"geometry":{"type":"Point","coordinates":[44.195764200000006,15.341702100000001]},"properties":{"id":12559596125,"name":"مسبح نادي بلقيس للسيدات","type":"swimming_pool","category":"recreation","subcategory":"sports","osmType":"node","leisure":"swimming_pool","name:latin":"msbh nady blqys llsydat"}},{"type":"Feature","id":12559596181,"geometry":{"type":"Point","coordinates":[44.200211200000005,15.335381900000002]},"properties":{"id":12559596181,"name":"She Rebel","type":"fitness_centre","category":"recreation","subcategory":"sports","osmType":"node","addr:city":"صنعاء","addr:street":"شارع حدة","leisure":"fitness_centre"}},{"type":"Feature","id":12559599385,"geometry":{"type":"Point","coordinates":[44.17888000000001,15.396770900000002]},"properties":{"id":12559599385,"name":"نادي ريلاكس","type":"fitness_centre","category":"recreation","subcategory":"sports","osmType":"node","addr:city":"حي النهضة","addr:street":"شارع النهضة","leisure":"fitness_centre","name:latin":"nady rylaks"}},{"type":"Feature","id":12561033297,"geometry":{"type":"Point","coordinates":[44.173784500000004,15.396052300000001]},"properties":{"id":12561033297,"name":"ليون جيم","type":"fitness_centre","category":"recreation","subcategory":"sports","osmType":"node","addr:city":"صنعاء","addr:street":"شارع الثلاثين","leisure":"fitness_centre","name:latin":"lywn jym"}},{"type":"Feature","id":12561034802,"geometry":{"type":"Point","coordinates":[44.170774,15.394829600000001]},"properties":{"id":12561034802,"name":"حديقة الميثاق","type":"garden","category":"recreation","subcategory":"park","osmType":"node","leisure":"garden","name:latin":"hdyqa al-mythaq"}},{"type":"Feature","id":12561034875,"geometry":{"type":"Point","coordinates":[44.195894300000006,15.304227200000001]},"properties":{"id":12561034875,"name":"Rebel & Ashy","type":"fitness_centre","category":"recreation","subcategory":"sports","osmType":"node","addr:city":"صنعاء","addr:street":"شارع صفر","leisure":"fitness_centre"}},{"type":"Feature","id":12587743559,"geometry":{"type":"Point","coordinates":[44.19024890000001,15.3307876]},"properties":{"id":12587743559,"name":"حديقة كريزي بارك","type":"garden","category":"recreation","subcategory":"park","osmType":"node","leisure":"garden","name:latin":"hdyqa kryzy bark"}},{"type":"Feature","id":12587743570,"geometry":{"type":"Point","coordinates":[44.1912486,15.330398]},"properties":{"id":12587743570,"name":"نادي كيرفي للسيدات","type":"fitness_centre","category":"recreation","subcategory":"sports","osmType":"node","addr:city":"صنعاء","addr:street":"شارع خولة","leisure":"fitness_centre","name:latin":"nady kyrfy llsydat"}},{"type":"Feature","id":12615173320,"geometry":{"type":"Point","coordinates":[44.190963700000005,15.342945100000001]},"properties":{"id":12615173320,"name":"نادي سترونج","type":"fitness_centre","category":"recreation","subcategory":"sports","osmType":"node","leisure":"fitness_centre","name:latin":"nady strwnj"}},{"type":"Feature","id":13395837001,"geometry":{"type":"Point","coordinates":[44.20664180000001,15.343824300000001]},"properties":{"id":13395837001,"name":"النادي الترفيهي صنعاء شارع كلية الشرطة","type":"fitness_centre","category":"recreation","subcategory":"sports","osmType":"node","addr:street":"شارع كلية الشرطة","leisure":"fitness_centre","name:latin":"al-nady al-trfyhy sn'a' shar' klya al-shrta"}},{"type":"Feature","id":13438580894,"geometry":{"type":"Point","coordinates":[44.207941000000005,15.385258400000001]},"properties":{"id":13438580894,"name":"نادي أورا النسائي","type":"fitness_centre","category":"recreation","subcategory":"sports","osmType":"node","leisure":"fitness_centre","name:latin":"nady awra al-nsa'y"}},{"type":"Feature","id":13452127135,"geometry":{"type":"Point","coordinates":[44.243731700000005,15.287702600000001]},"properties":{"id":13452127135,"name":"النادي اللبناني الصحي","type":"fitness_centre","category":"recreation","subcategory":"sports","osmType":"node","leisure":"fitness_centre","name:latin":"al-nady al-lbnany al-shy"}},{"type":"Feature","id":13452194205,"geometry":{"type":"Point","coordinates":[44.188271,15.306445400000001]},"properties":{"id":13452194205,"name":"ريبل جيم","type":"fitness_centre","category":"recreation","subcategory":"sports","osmType":"node","leisure":"fitness_centre","name:latin":"rybl jym"}},{"type":"Feature","id":13455410860,"geometry":{"type":"Point","coordinates":[44.198506300000005,15.3240238]},"properties":{"id":13455410860,"name":"السفينة بارك","type":"playground","category":"recreation","subcategory":"playground","osmType":"node","leisure":"playground","name:latin":"al-sfyna bark"}},{"type":"Feature","id":13455426538,"geometry":{"type":"Point","coordinates":[44.240328700000006,15.375971600000002]},"properties":{"id":13455426538,"name":"حديقة الفوارس","type":"playground","category":"recreation","subcategory":"playground","osmType":"node","leisure":"playground","name:latin":"hdyqa al-fwars"}},{"type":"Feature","id":13455426660,"geometry":{"type":"Point","coordinates":[44.24052450000001,15.367783500000002]},"properties":{"id":13455426660,"name":"نادي جولدن تايم","type":"fitness_centre","category":"recreation","subcategory":"sports","osmType":"node","leisure":"fitness_centre","name:latin":"nady jwldn taym"}},{"type":"Feature","id":13466614785,"geometry":{"type":"Point","coordinates":[44.185359500000004,15.3347563]},"properties":{"id":13466614785,"name":"نادي النعيم للسيدات","type":"fitness_centre","category":"recreation","subcategory":"sports","osmType":"node","leisure":"fitness_centre","name:latin":"nady al-n'ym llsydat"}},{"type":"Feature","id":13466614797,"geometry":{"type":"Point","coordinates":[44.1814005,15.3340799]},"properties":{"id":13466614797,"name":"سينما ماجيكال سيتي","type":"cinema","category":"recreation","subcategory":"entertainment","osmType":"node","amenity":"cinema","name:latin":"synma majykal syty"}},{"type":"Feature","id":13467779539,"geometry":{"type":"Point","coordinates":[44.212030000000006,15.274939100000001]},"properties":{"id":13467779539,"name":"نادي نور الملاك","type":"fitness_centre","category":"recreation","subcategory":"sports","osmType":"node","leisure":"fitness_centre","name:latin":"nady nwr al-mlak"}},{"type":"Feature","id":13468041401,"geometry":{"type":"Point","coordinates":[44.20527250000001,15.346433500000002]},"properties":{"id":13468041401,"name":"نادي مدينة سام الترفيهي","type":"fitness_centre","category":"recreation","subcategory":"sports","osmType":"node","addr:street":"شارع كلية الشرطة","leisure":"fitness_centre","name:latin":"nady mdyna sam al-trfyhy"}},{"type":"Feature","id":13475400710,"geometry":{"type":"Point","coordinates":[44.1788323,15.360933500000002]},"properties":{"id":13475400710,"name":"نادي بيرل ليدي للسيدات","type":"fitness_centre","category":"recreation","subcategory":"sports","osmType":"node","leisure":"fitness_centre","name:latin":"nady byrl lydy llsydat"}},{"type":"Feature","id":13518744860,"geometry":{"type":"Point","coordinates":[44.23243360000001,15.310904200000001]},"properties":{"id":13518744860,"name":"الندي المصري لكمال الأجسام","type":"fitness_centre","category":"recreation","subcategory":"sports","osmType":"node","leisure":"fitness_centre","name:latin":"al-ndy al-msry lkmal al-ajsam"}},{"type":"Feature","id":13521158061,"geometry":{"type":"Point","coordinates":[44.206832600000006,15.3639331]},"properties":{"id":13521158061,"name":"الرياضة من أجل السلام","type":"fitness_centre","category":"recreation","subcategory":"sports","osmType":"node","leisure":"fitness_centre","name:latin":"al-ryada mn ajl al-slam"}},{"type":"Feature","id":13698685141,"geometry":{"type":"Point","coordinates":[44.205931500000005,15.370988200000001]},"properties":{"id":13698685141,"name":"باور هوم","type":"gym","category":"recreation","subcategory":"sports","osmType":"node","amenity":"gym","leisure":"fitness_centre","name:latin":"bawr hwm"}},{"type":"Feature","id":24465422,"geometry":{"type":"Polygon","coordinates":[[[44.2003538,15.3217136],[44.2019243,15.321661400000002],[44.201799400000006,15.321054400000001],[44.20243670000001,15.320880400000002],[44.202109500000006,15.319127700000001],[44.2023798,15.319059000000001],[44.202963700000005,15.3189106],[44.2033264,15.318917500000001],[44.203603900000005,15.319093200000001],[44.20373420000001,15.319361500000001],[44.204182100000004,15.3216499],[44.2043581,15.322464300000002],[44.2038555,15.322537800000001],[44.203971200000005,15.323181800000002],[44.2044848,15.323095700000001],[44.2051262,15.326590200000002],[44.204993200000004,15.326842500000001],[44.204792700000006,15.326951000000001],[44.204668600000005,15.326993500000002],[44.20325450000001,15.326985700000002],[44.20233700000001,15.327269200000002],[44.201285600000006,15.327514700000002],[44.200484200000005,15.327590200000001],[44.2003197,15.3274],[44.20035180000001,15.326604800000002],[44.2004347,15.324547200000001],[44.2003538,15.3217136]]]},"properties":{"id":24465422,"name":"حديقة السبعين","type":"theme_park","category":"recreation","subcategory":"park","osmType":"way","addr:street":"شارع السبعين","barrier":"chain","leisure":"park","name:ar":"حديقة السبعين","name:en":"Al-Sabeen Park","tourism":"theme_park"}},{"type":"Feature","id":45399235,"geometry":{"type":"Polygon","coordinates":[[[44.210615000000004,15.359078700000001],[44.211669300000004,15.3591548],[44.2116921,15.3582452],[44.2123124,15.358306100000002],[44.2124238,15.3581476],[44.2122578,15.3580216],[44.2123033,15.357963600000001],[44.2121117,15.3578243],[44.211950900000005,15.357811400000001],[44.2119598,15.357978200000002],[44.2117116,15.357983400000002],[44.2117063,15.357906800000002],[44.2111359,15.357769500000002],[44.2110385,15.357742900000002],[44.211026100000005,15.357560200000002],[44.210470400000005,15.3575183],[44.2102421,15.357701],[44.21031060000001,15.358077800000002],[44.2105237,15.358477400000002],[44.210615000000004,15.359078700000001]]]},"properties":{"id":45399235,"name":"","type":"garden","category":"recreation","subcategory":"park","osmType":"way","leisure":"garden"}},{"type":"Feature","id":45399237,"geometry":{"type":"Polygon","coordinates":[[[44.2115572,15.351998300000002],[44.2115784,15.351705400000002],[44.211716700000004,15.351360600000001],[44.211443,15.351283600000002],[44.211151400000006,15.351231600000002],[44.211044900000005,15.3512479],[44.2110063,15.351408100000002],[44.2111232,15.351427600000001],[44.21107730000001,15.351806800000002],[44.21101470000001,15.351954200000002],[44.210839400000005,15.3519172],[44.2107505,15.352199800000001],[44.2110028,15.352257600000002],[44.2111042,15.352022800000002],[44.2115572,15.351998300000002]]]},"properties":{"id":45399237,"name":"","type":"garden","category":"recreation","subcategory":"park","osmType":"way","leisure":"garden"}},{"type":"Feature","id":45399238,"geometry":{"type":"Polygon","coordinates":[[[44.2137955,15.352314500000002],[44.214406700000005,15.352389800000001],[44.2144309,15.351953900000002],[44.2139803,15.351949600000001],[44.213891100000005,15.3519681],[44.2138573,15.352139700000002],[44.213808400000005,15.352172300000001],[44.2137955,15.352314500000002]]]},"properties":{"id":45399238,"name":"بستان صنعاء القديمة","type":"garden","category":"recreation","subcategory":"park","osmType":"way","leisure":"garden","name:latin":"bstan sn'a' al-qdyma"}},{"type":"Feature","id":45399239,"geometry":{"type":"Polygon","coordinates":[[[44.210629600000004,15.357277900000001],[44.210684,15.357278500000001],[44.210670300000004,15.3571968],[44.21074660000001,15.3571836],[44.2107596,15.357228800000001],[44.210914100000004,15.357201200000002],[44.2108829,15.3570723],[44.211014500000005,15.357044000000002],[44.2110934,15.357094300000002],[44.211097300000006,15.357182900000002],[44.2113097,15.357196400000001],[44.2114167,15.357202400000002],[44.2114167,15.357154000000001],[44.2113353,15.357152100000002],[44.211338500000004,15.3570924],[44.2113085,15.357086100000002],[44.211317900000004,15.356963300000002],[44.211539900000005,15.356928300000002],[44.211531,15.356836500000002],[44.211594500000004,15.356820700000002],[44.211584300000005,15.356649200000001],[44.21169810000001,15.356629500000002],[44.2117748,15.3570217],[44.211829800000004,15.3570217],[44.2118017,15.356530800000002],[44.211556200000004,15.3564976],[44.2112379,15.3563372],[44.2111571,15.356349600000001],[44.211098400000004,15.356201500000001],[44.21106030000001,15.355992200000001],[44.21099340000001,15.355993200000002],[44.2109858,15.356067200000002],[44.21091800000001,15.356062200000002],[44.2109193,15.355989500000002],[44.210838700000004,15.356004300000002],[44.210852800000005,15.356102900000002],[44.2107364,15.3561226],[44.2107146,15.3560104],[44.2106737,15.355983300000002],[44.2106264,15.355818900000001],[44.210228,15.355925700000002],[44.210247100000004,15.356097000000002],[44.210449000000004,15.356160200000001],[44.210484400000006,15.356280500000002],[44.2108106,15.356203700000002],[44.2108336,15.356281700000002],[44.2107492,15.356311300000002],[44.210779900000006,15.3564199],[44.210892400000006,15.356402600000001],[44.21106030000001,15.356528800000001],[44.2110562,15.356568900000001],[44.2109839,15.356585800000001],[44.2109852,15.3566964],[44.210773800000005,15.356779500000002],[44.210774900000004,15.356826000000002],[44.2106866,15.3568598],[44.2106123,15.3568221],[44.2105162,15.356864100000001],[44.210553700000006,15.357038300000001],[44.210629600000004,15.357277900000001]]]},"properties":{"id":45399239,"name":"","type":"garden","category":"recreation","subcategory":"park","osmType":"way","leisure":"garden"}},{"type":"Feature","id":45399240,"geometry":{"type":"Polygon","coordinates":[[[44.212623900000004,15.358029300000002],[44.2132238,15.358268100000002],[44.2132736,15.358043400000001],[44.2133825,15.357945500000001],[44.213513500000005,15.358018000000001],[44.213791300000004,15.358177800000002],[44.2138636,15.357949500000002],[44.21407670000001,15.357983700000002],[44.214151400000006,15.357795200000002],[44.21427740000001,15.357786200000001],[44.214270400000004,15.3581581],[44.2144643,15.358177000000001],[44.214457900000006,15.358095400000002],[44.2145231,15.358085800000001],[44.2145038,15.357770600000002],[44.21444030000001,15.357764800000002],[44.214439500000005,15.357629700000002],[44.2142886,15.357630700000001],[44.2142878,15.3575592],[44.214176300000005,15.357565300000001],[44.2141706,15.357631900000001],[44.213779,15.357602300000002],[44.2137375,15.357729],[44.2134183,15.357629800000002],[44.2134404,15.357216000000001],[44.213528200000006,15.3572026],[44.213456400000005,15.357097000000001],[44.213407800000006,15.356994600000002],[44.2132974,15.357000500000002],[44.213227,15.35706],[44.21251290000001,15.357031300000001],[44.212428800000005,15.357096300000002],[44.212487,15.357226800000001],[44.21246060000001,15.3573236],[44.212514000000006,15.357511],[44.2126116,15.3575849],[44.212564500000006,15.357725000000002],[44.212515100000005,15.357722200000001],[44.2124632,15.357854200000002],[44.2126061,15.3579152],[44.212623900000004,15.358029300000002]]]},"properties":{"id":45399240,"name":"","type":"garden","category":"recreation","subcategory":"park","osmType":"way","leisure":"garden"}},{"type":"Feature","id":45405828,"geometry":{"type":"Polygon","coordinates":[[[44.208518100000006,15.3554556],[44.2088606,15.3554898],[44.2088722,15.355598800000001],[44.209041600000006,15.3555553],[44.2091811,15.355555400000002],[44.209138700000004,15.355371500000002],[44.208973400000005,15.355369600000001],[44.208916300000006,15.3553352],[44.2089063,15.355299500000001],[44.2086285,15.355257700000001],[44.2084915,15.355333800000002],[44.208518100000006,15.3554556]]]},"properties":{"id":45405828,"name":"مقشامة النهرين","type":"garden","category":"recreation","subcategory":"park","osmType":"way","leisure":"garden","name:ar":"مقشامة النهرين","name:latin":"mqshama al-nhryn"}},{"type":"Feature","id":45405854,"geometry":{"type":"Polygon","coordinates":[[[44.21390710000001,15.3570395],[44.2144028,15.357141300000002],[44.214589700000005,15.357177700000001],[44.2146899,15.356971600000001],[44.214590900000005,15.356953],[44.2146594,15.356640900000002],[44.2146106,15.356431100000002],[44.214506400000005,15.356422900000002],[44.2144873,15.356351900000002],[44.2143291,15.356361300000001],[44.2142988,15.356612300000002],[44.214134200000004,15.356629500000002],[44.214136100000005,15.356735600000002],[44.2139211,15.356728400000001],[44.21390710000001,15.3570395]]]},"properties":{"id":45405854,"name":"","type":"garden","category":"recreation","subcategory":"park","osmType":"way","leisure":"garden"}},{"type":"Feature","id":45405855,"geometry":{"type":"Polygon","coordinates":[[[44.211719,15.355468900000002],[44.21189450000001,15.355448],[44.2119712,15.355360100000002],[44.2120534,15.3551695],[44.2120936,15.354932200000002],[44.2122122,15.354639100000002],[44.212061600000006,15.354605000000001],[44.2120089,15.354697400000001],[44.211797000000004,15.354659000000002],[44.2118735,15.354487400000002],[44.211363500000004,15.354338400000001],[44.2112636,15.354655100000002],[44.21135640000001,15.3546887],[44.211354500000006,15.3547562],[44.211404300000005,15.354786400000002],[44.21141540000001,15.354870000000002],[44.2114485,15.3549126],[44.211455900000004,15.355099200000002],[44.2116454,15.3551315],[44.21166040000001,15.3553241],[44.211719,15.355468900000002]]]},"properties":{"id":45405855,"name":"","type":"garden","category":"recreation","subcategory":"park","osmType":"way","leisure":"garden"}},{"type":"Feature","id":47623994,"geometry":{"type":"Polygon","coordinates":[[[44.207305600000005,15.353390200000002],[44.2075253,15.3534929],[44.2076987,15.3533392],[44.2078464,15.3532436],[44.20782260000001,15.353101900000002],[44.20791010000001,15.353087600000002],[44.2079024,15.352928000000002],[44.207816300000005,15.352928000000002],[44.207812700000005,15.3527529],[44.207756700000004,15.352776400000002],[44.2077335,15.352729300000002],[44.207548200000005,15.3528175],[44.207536600000005,15.353017500000002],[44.2074252,15.353041400000002],[44.207274000000005,15.353186500000001],[44.207275800000005,15.353313100000001],[44.207305600000005,15.353390200000002]]]},"properties":{"id":47623994,"name":"بستان السلطان","type":"garden","category":"recreation","subcategory":"park","osmType":"way","leisure":"garden","name:ar":"بستان السلطان","name:latin":"bstan al-sltan"}},{"type":"Feature","id":58828840,"geometry":{"type":"Polygon","coordinates":[[[44.201000300000004,15.410935900000002],[44.20116840000001,15.410859600000002],[44.20143470000001,15.410816100000002],[44.20168520000001,15.410851100000002],[44.201890600000006,15.410939500000001],[44.20205610000001,15.4111191],[44.202173900000005,15.411300200000001],[44.2022084,15.4114847],[44.202173800000004,15.412488900000001],[44.2021019,15.412683300000001],[44.20193510000001,15.4128728],[44.201755000000006,15.412995700000002],[44.20155140000001,15.4130645],[44.2012939,15.413062600000002],[44.201070300000005,15.412991100000001],[44.200926,15.412896400000001],[44.200767600000006,15.412742300000001],[44.2006816,15.412571000000002],[44.200646000000006,15.412338700000001],[44.20067710000001,15.411492100000002],[44.200723,15.411290200000002],[44.2008391,15.411080700000001],[44.201000300000004,15.410935900000002]]]},"properties":{"id":58828840,"name":"ملعب الثورة","type":"stadium","category":"recreation","subcategory":"sports","osmType":"way","leisure":"stadium","name:ar":"ملعب الثورة","sport":"soccer","name:latin":"ml'b al-thwra"}},{"type":"Feature","id":86093345,"geometry":{"type":"Polygon","coordinates":[[[44.2304345,15.385003700000002],[44.2306383,15.383669200000002],[44.2287929,15.3833382],[44.228567600000005,15.384683],[44.2304345,15.385003700000002]]]},"properties":{"id":86093345,"name":"ملعب 22 مايو","type":"stadium","category":"recreation","subcategory":"sports","osmType":"way","addr:city":"صنعاء","addr:street":"شارع النصر","leisure":"stadium","name:en":"22 May Stadium and Hall"}},{"type":"Feature","id":118740643,"geometry":{"type":"Polygon","coordinates":[[[44.191341300000005,15.333051900000001],[44.1908333,15.3328292],[44.190585000000006,15.333649500000002],[44.1912601,15.333668900000001],[44.1912735,15.333267300000001],[44.191341300000005,15.333051900000001]]]},"properties":{"id":118740643,"name":"حديقة بن ماجد","type":"garden","category":"recreation","subcategory":"park","osmType":"way","alt_name":"حديقة الوحدة","email":"ye@globalsurveys.com","leisure":"garden","name:ar":"حديقة بن ماجد","website":"https://www.globalsurveys.com/","name:latin":"hdyqa bn majd"}},{"type":"Feature","id":118740644,"geometry":{"type":"Polygon","coordinates":[[[44.178133200000005,15.3354911],[44.1781122,15.335268400000002],[44.1773103,15.335321000000002],[44.177457200000006,15.3351348],[44.17740680000001,15.333883600000002],[44.177952600000005,15.3336447],[44.1791744,15.335260300000002],[44.1791324,15.335446500000002],[44.178133200000005,15.3354911]]]},"properties":{"id":118740644,"name":"حديقة الوحدة","type":"theme_park","category":"recreation","subcategory":"park","osmType":"way","addr:street":"شارع الجزائر","leisure":"park","name:ar":"حديقة الوحدة","name:en":"Alwahda Park","tourism":"theme_park"}},{"type":"Feature","id":118753639,"geometry":{"type":"Polygon","coordinates":[[[44.19984960000001,15.300546500000001],[44.199355100000005,15.300623500000002],[44.199456700000006,15.301275400000002],[44.199492600000006,15.301323000000002],[44.199563500000004,15.301365200000001],[44.199648800000006,15.301373100000001],[44.199997700000004,15.301293600000001],[44.19984960000001,15.300546500000001]]]},"properties":{"id":118753639,"name":"Haddah Park","type":"playground","category":"recreation","subcategory":"playground","osmType":"way","leisure":"playground","name:en":"Haddah Park"}},{"type":"Feature","id":149698691,"geometry":{"type":"Polygon","coordinates":[[[44.23117680000001,15.387346500000001],[44.2312153,15.387357100000001],[44.23199940000001,15.387245700000001],[44.23187840000001,15.386911500000002],[44.2318123,15.386518900000002],[44.2312056,15.386613700000002],[44.23117130000001,15.386733300000001],[44.23114030000001,15.386777700000001],[44.231118900000006,15.386905400000002],[44.23117680000001,15.387346500000001]]]},"properties":{"id":149698691,"name":"سوق النصر للقات","type":"garden","category":"recreation","subcategory":"park","osmType":"way","leisure":"garden","name:ar":"سوق النصر للقات","name:latin":"swq al-nsr llqat"}},{"type":"Feature","id":235748432,"geometry":{"type":"Polygon","coordinates":[[[44.177271000000005,15.333293300000001],[44.1762773,15.333768500000001],[44.1756764,15.333577000000002],[44.175199000000006,15.333380400000001],[44.174780600000005,15.332992400000002],[44.1746411,15.332733800000002],[44.174505100000005,15.332418700000002],[44.1744051,15.332061200000002],[44.174389000000005,15.331921500000002],[44.17449980000001,15.331891],[44.174879000000004,15.3323075],[44.175129000000005,15.332490900000002],[44.1753653,15.332563000000002],[44.175539900000004,15.3325396],[44.175620900000006,15.332434200000002],[44.1750327,15.3310369],[44.174989800000006,15.330845400000001],[44.17561740000001,15.330576400000002],[44.176076900000005,15.330608000000002],[44.1763309,15.3309127],[44.17670450000001,15.331891],[44.1769084,15.332237600000001],[44.1771248,15.332464700000001],[44.177230200000004,15.332698100000002],[44.177269700000004,15.333023500000001],[44.177271000000005,15.333293300000001]]]},"properties":{"id":235748432,"name":"منتزه عطان","type":"park","category":"recreation","subcategory":"park","osmType":"way","leisure":"park","name:ar":"منتزه عطان","name:latin":"mntzh 'tan"}},{"type":"Feature","id":235751168,"geometry":{"type":"Polygon","coordinates":[[[44.1962759,15.326108900000001],[44.1956148,15.325847600000001],[44.195919200000006,15.325400100000001],[44.196321600000005,15.325336700000001],[44.1962759,15.326108900000001]]]},"properties":{"id":235751168,"name":"حديقة كمران","type":"playground","category":"recreation","subcategory":"playground","osmType":"way","leisure":"playground","name:ar":"حديقة كمران","name:latin":"hdyqa kmran"}},{"type":"Feature","id":237752925,"geometry":{"type":"Polygon","coordinates":[[[44.210793300000006,15.3842981],[44.210264900000006,15.3849627],[44.2102166,15.385984200000001],[44.210264900000006,15.387096200000002],[44.2102568,15.387486700000002],[44.210232700000006,15.388435800000002],[44.21024070000001,15.390070200000002],[44.2102756,15.391073600000002],[44.2102676,15.392576000000002],[44.210289,15.393659600000001],[44.210264900000006,15.3940759],[44.210350700000006,15.3941949],[44.2104956,15.394200000000001],[44.21138070000001,15.3938871],[44.2114611,15.393835400000002],[44.211463800000004,15.393708700000001],[44.211450400000004,15.3936337],[44.211547,15.393563900000002],[44.2115877,15.393550300000001],[44.21205930000001,15.393393200000002],[44.2122765,15.3933493],[44.212402600000004,15.393494100000002],[44.21272450000001,15.3933984],[44.2128237,15.393323400000002],[44.2128237,15.393155300000002],[44.2128237,15.392982000000002],[44.2128505,15.392715700000002],[44.212813000000004,15.3918545],[44.21275670000001,15.390946900000001],[44.21267890000001,15.389472800000002],[44.212617200000004,15.388332400000001],[44.2125689,15.3874092],[44.2125179,15.386473],[44.2124911,15.386030800000002],[44.212421400000004,15.385764400000001],[44.2123372,15.385477400000001],[44.212200900000006,15.385177100000002],[44.21198690000001,15.384939400000002],[44.21172670000001,15.384735100000002],[44.211378,15.384499800000002],[44.211142,15.384339500000001],[44.210981000000004,15.3842826],[44.2108818,15.384287800000001],[44.210793300000006,15.3842981]]]},"properties":{"id":237752925,"name":"حديقة الثورة","type":"park","category":"recreation","subcategory":"park","osmType":"way","addr:street":"شارع التلفزيون","leisure":"park","name:ar":"حديقة الثورة","name:latin":"hdyqa al-thwra"}},{"type":"Feature","id":237754846,"geometry":{"type":"Polygon","coordinates":[[[44.220201100000004,15.3482745],[44.219562800000006,15.348062400000002],[44.219224800000006,15.348967700000001],[44.219895300000005,15.349174600000001],[44.220201100000004,15.3482745]]]},"properties":{"id":237754846,"name":"نادي أهلي صنعاء","type":"stadium","category":"recreation","subcategory":"sports","osmType":"way","addr:city":"صنعاء","addr:street":"شارع خولان","leisure":"stadium","name:en":"Ahly Sanaa Stadium"}},{"type":"Feature","id":237755287,"geometry":{"type":"Polygon","coordinates":[[[44.206104800000006,15.342430100000001],[44.2082076,15.342621500000002],[44.2084168,15.3428336],[44.208379300000004,15.343309500000002],[44.208314900000005,15.3437648],[44.207799900000005,15.343671700000002],[44.207655100000004,15.344287300000001],[44.207617500000005,15.344732200000001],[44.206190600000006,15.344535600000002],[44.206104800000006,15.342430100000001]]]},"properties":{"id":237755287,"name":"نادي ضباط الشرطة","type":"sports_centre","category":"recreation","subcategory":"sports","osmType":"way","leisure":"sports_centre","name:ar":"نادي ضباط الشرطة","name:latin":"nady dbat al-shrta"}},{"type":"Feature","id":237755307,"geometry":{"type":"Polygon","coordinates":[[[44.2051043,15.345171900000002],[44.20596260000001,15.345327100000002],[44.205968000000006,15.346009900000002],[44.2059707,15.346501400000001],[44.2060243,15.346915200000002],[44.206104800000006,15.347510200000002],[44.20611710000001,15.347663],[44.206108,15.347775600000002],[44.2060649,15.3478422],[44.205998400000006,15.347894000000002],[44.205909000000005,15.347913700000001],[44.2057105,15.347849000000002],[44.204468600000006,15.347367900000002],[44.2044177,15.347248900000002],[44.204436400000006,15.347057500000002],[44.2044847,15.3465842],[44.204525000000004,15.3463591],[44.204938000000006,15.346377200000001],[44.205007800000004,15.345606400000001],[44.205056000000006,15.3452055],[44.2051043,15.345171900000002]]]},"properties":{"id":237755307,"name":"نادي ضباط القوات المسلحة","type":"sports_centre","category":"recreation","subcategory":"sports","osmType":"way","leisure":"sports_centre","name:ar":"نادي ضباط القوات المسلحة","name:latin":"nady dbat al-qwat al-mslha"}},{"type":"Feature","id":237755717,"geometry":{"type":"Polygon","coordinates":[[[44.155075700000005,15.3399391],[44.15565780000001,15.339822700000001],[44.155917900000006,15.339815000000002],[44.155826700000006,15.340190000000002],[44.1556846,15.340329700000002],[44.155526300000005,15.340448700000001],[44.155400300000004,15.340472000000002],[44.155301,15.3404047],[44.155258100000005,15.340332300000002],[44.155075700000005,15.3399391]]]},"properties":{"id":237755717,"name":"Chinese Memorial","type":"park","category":"recreation","subcategory":"park","osmType":"way","leisure":"park","name:en":"Chinese Memorial"}},{"type":"Feature","id":237755719,"geometry":{"type":"Polygon","coordinates":[[[44.157715100000004,15.342270300000001],[44.1578693,15.342031100000002],[44.157994200000005,15.341839100000001],[44.158219300000006,15.341723900000002],[44.158930100000006,15.3417524],[44.158975700000006,15.341991900000002],[44.158922000000004,15.3420307],[44.158866700000004,15.342033700000002],[44.158550500000004,15.342259700000001],[44.158199200000006,15.3424963],[44.157944300000004,15.342707100000002],[44.1578974,15.342726500000001],[44.157814300000005,15.342721400000002],[44.157697600000006,15.342664500000001],[44.1578505,15.342554500000002],[44.157715100000004,15.342270300000001]]]},"properties":{"id":237755719,"name":"النصب التذكاري للشهداء المصريين","type":"park","category":"recreation","subcategory":"park","osmType":"way","leisure":"park","name:ar":"النصب التذكاري للشهداء المصريين","name:latin":"al-nsb al-tdhkary llshhda' al-msryyn"}},{"type":"Feature","id":237755720,"geometry":{"type":"Polygon","coordinates":[[[44.15552640000001,15.337831000000001],[44.155845500000005,15.337965500000001],[44.1562264,15.338268200000002],[44.156529500000005,15.3383923],[44.156561700000005,15.33862],[44.156196900000005,15.3390701],[44.1558563,15.339372700000002],[44.1552367,15.339546000000002],[44.1546949,15.339644300000002],[44.153941200000006,15.3395331],[44.154118200000006,15.339163200000002],[44.1543489,15.338816600000001],[44.1544535,15.338438900000002],[44.15440520000001,15.3383742],[44.1542577,15.338263000000001],[44.15421740000001,15.338012100000002],[44.15439980000001,15.337823300000002],[44.154652000000006,15.337665500000002],[44.15493360000001,15.337673200000001],[44.15552640000001,15.337831000000001]]]},"properties":{"id":237755720,"name":"منتجع فرح لاند","type":"park","category":"recreation","subcategory":"park","osmType":"way","leisure":"park","name:ar":"منتجع فرح لاند","name:latin":"mntj' frh land"}},{"type":"Feature","id":254625690,"geometry":{"type":"Polygon","coordinates":[[[44.205085100000005,15.282079000000001],[44.204987200000005,15.281535700000001],[44.2049778,15.2814697],[44.2049644,15.281445100000001],[44.2049389,15.281429600000001],[44.204908100000004,15.281427],[44.20435560000001,15.281600300000001],[44.204326,15.281618500000002],[44.20431000000001,15.281641700000002],[44.20431000000001,15.2816728],[44.20436230000001,15.2819432],[44.204373000000004,15.281965200000002],[44.2044038,15.281982000000001],[44.2050435,15.282094500000001],[44.205085100000005,15.282079000000001]]]},"properties":{"id":254625690,"name":"","type":"park","category":"recreation","subcategory":"park","osmType":"way","leisure":"park"}},{"type":"Feature","id":373929865,"geometry":{"type":"Polygon","coordinates":[[[44.224135200000006,15.4324232],[44.224683600000006,15.432217600000001],[44.223998,15.431219],[44.224135200000006,15.4324232]]]},"properties":{"id":373929865,"name":"حديقة الروضة","type":"playground","category":"recreation","subcategory":"playground","osmType":"way","leisure":"playground","name:ar":"حديقة الروضة","name:en":"Arrawdah Playground"}},{"type":"Feature","id":554561447,"geometry":{"type":"Polygon","coordinates":[[[44.20159090000001,15.325811100000001],[44.201601800000006,15.325815200000001],[44.20161340000001,15.325815500000001],[44.2016258,15.325811200000002],[44.201634600000006,15.325803800000001],[44.2016411,15.325790900000001],[44.201641800000004,15.325779700000002],[44.201636,15.325764900000001],[44.201627800000004,15.325756900000002],[44.201612700000005,15.325751200000001],[44.201601000000004,15.3257518],[44.201587100000005,15.325758300000002],[44.2015795,15.325766900000001],[44.2015748,15.3257828],[44.2015766,15.325794000000002],[44.201582200000004,15.325803800000001],[44.20159090000001,15.325811100000001]]]},"properties":{"id":554561447,"name":"","type":"garden","category":"recreation","subcategory":"park","osmType":"way","leisure":"garden"}},{"type":"Feature","id":554562398,"geometry":{"type":"Polygon","coordinates":[[[44.201052700000005,15.32557],[44.201087300000005,15.325584000000001],[44.201120800000005,15.3255826],[44.2011551,15.325564700000001],[44.2011721,15.325543500000002],[44.2011808,15.325518100000002],[44.2011776,15.325482800000001],[44.2011672,15.325462400000001],[44.2011368,15.325437],[44.20111060000001,15.3254294],[44.201078900000006,15.325431700000001],[44.201059,15.325439900000001],[44.2010335,15.325463200000002],[44.20102240000001,15.3254864],[44.201019800000005,15.325513100000002],[44.201032000000005,15.325548500000002],[44.201052700000005,15.32557]]]},"properties":{"id":554562398,"name":"","type":"garden","category":"recreation","subcategory":"park","osmType":"way","leisure":"garden"}},{"type":"Feature","id":554686171,"geometry":{"type":"Polygon","coordinates":[[[44.2080318,15.323701800000002],[44.2081632,15.323688800000001],[44.2082812,15.323694000000001],[44.2084023,15.323715900000002],[44.2085203,15.323752100000002],[44.20860570000001,15.323748300000002],[44.2086947,15.323728800000001],[44.208823,15.323678500000002],[44.208911500000006,15.323621600000001],[44.208983700000005,15.323485400000001],[44.20901370000001,15.323422400000002],[44.208987500000006,15.323325200000001],[44.208383500000004,15.323013500000002],[44.208274200000005,15.3229883],[44.207909300000004,15.322993600000002],[44.205884000000005,15.323383900000001],[44.205721000000004,15.323428300000002],[44.205636500000004,15.323523000000002],[44.205592900000006,15.3236456],[44.2058101,15.324670000000001],[44.2058259,15.324712800000002],[44.205890700000005,15.324736600000001],[44.205936,15.3247119],[44.206518900000006,15.324397600000001],[44.2065538,15.324312200000001],[44.2066078,15.324269400000002],[44.207262400000005,15.3239332],[44.207753200000006,15.323736600000002],[44.207919100000005,15.323701800000002],[44.2080318,15.323701800000002]]]},"properties":{"id":554686171,"name":"","type":"garden","category":"recreation","subcategory":"park","osmType":"way","leisure":"garden","source":"Bing"}},{"type":"Feature","id":554687447,"geometry":{"type":"Polygon","coordinates":[[[44.205949100000005,15.325148800000001],[44.206006900000006,15.325146600000002],[44.20611160000001,15.325198300000002],[44.206272500000004,15.325198300000002],[44.206395900000004,15.3252371],[44.206489700000006,15.325278500000001],[44.206535300000006,15.325275900000001],[44.206586300000005,15.325263000000001],[44.2066269,15.325207200000001],[44.206867900000006,15.324748200000002],[44.206865300000004,15.324730100000002],[44.2066292,15.3246163],[44.20656520000001,15.324622600000001],[44.2064687,15.324656200000002],[44.206200100000004,15.324784400000002],[44.2061441,15.324865800000001],[44.2060583,15.324889100000002],[44.2060229,15.324892100000001],[44.205913100000004,15.3249422],[44.205894300000004,15.324970700000002],[44.20589700000001,15.325019800000002],[44.2059238,15.325136200000001],[44.205949100000005,15.325148800000001]]]},"properties":{"id":554687447,"name":"","type":"garden","category":"recreation","subcategory":"park","osmType":"way","leisure":"garden","source":"Bing"}},{"type":"Feature","id":554688018,"geometry":{"type":"Polygon","coordinates":[[[44.2092091,15.327301000000002],[44.20924660000001,15.327259600000001],[44.2092588,15.327236800000001],[44.20926540000001,15.327070800000001],[44.2092547,15.327052700000001],[44.209134000000006,15.326985400000002],[44.20908300000001,15.326980200000001],[44.2090133,15.3270423],[44.20893280000001,15.327109600000002],[44.2088765,15.327122500000002],[44.20880940000001,15.327109600000002],[44.207795600000004,15.3265974],[44.2077473,15.326695700000002],[44.207736600000004,15.3267526],[44.2077473,15.326830200000002],[44.207795600000004,15.326931100000001],[44.2078841,15.326988000000002],[44.2080343,15.327065600000001],[44.2080987,15.327101800000001],[44.208201200000005,15.327166600000002],[44.208593400000005,15.327371600000001],[44.209169200000005,15.3274319],[44.2092091,15.327301000000002]]]},"properties":{"id":554688018,"name":"","type":"garden","category":"recreation","subcategory":"park","osmType":"way","leisure":"garden","source":"Bing"}},{"type":"Feature","id":554688287,"geometry":{"type":"Polygon","coordinates":[[[44.206904200000004,15.3268517],[44.20689350000001,15.3268026],[44.206962000000004,15.326795400000002],[44.207007600000004,15.326829000000002],[44.2070249,15.326880200000002],[44.207062500000006,15.3269397],[44.2071161,15.326983600000002],[44.20742190000001,15.327138900000001],[44.207486200000005,15.3271466],[44.207554800000004,15.327136800000002],[44.207609600000005,15.3271311],[44.207668600000005,15.3271104],[44.2077303,15.327118200000001],[44.2078123,15.327154900000002],[44.2079839,15.3272299],[44.207987800000005,15.327257900000001],[44.207973,15.327291400000002],[44.2063726,15.327115500000001],[44.206293200000005,15.327071900000002],[44.206259800000005,15.326967600000001],[44.206330300000005,15.326947400000002],[44.206904200000004,15.3268517]]]},"properties":{"id":554688287,"name":"","type":"garden","category":"recreation","subcategory":"park","osmType":"way","leisure":"garden","source":"Bing"}},{"type":"Feature","id":599949987,"geometry":{"type":"Polygon","coordinates":[[[44.194785100000004,15.397980900000002],[44.1949976,15.397957800000002],[44.195194,15.397936500000002],[44.1953564,15.3979189],[44.195365200000005,15.3982047],[44.195371900000005,15.398423200000002],[44.1953832,15.398707600000002],[44.19478780000001,15.398769600000001],[44.194785100000004,15.397980900000002]]]},"properties":{"id":599949987,"name":"حديقة سقطرى","type":"park","category":"recreation","subcategory":"park","osmType":"way","leisure":"park","name:ar":"حديقة سقطرى","name:latin":"hdyqa sqtra"}},{"type":"Feature","id":600419765,"geometry":{"type":"Polygon","coordinates":[[[44.2312713,15.376671700000001],[44.231214900000005,15.3767881],[44.231252500000004,15.3778666],[44.2315583,15.377892400000002],[44.2314349,15.377064800000001],[44.2312713,15.376671700000001]]]},"properties":{"id":600419765,"name":"حديقة اللقية","type":"park","category":"recreation","subcategory":"park","osmType":"way","leisure":"park","name:latin":"hdyqa al-lqya"}},{"type":"Feature","id":600419767,"geometry":{"type":"Polygon","coordinates":[[[44.232148800000004,15.375407400000002],[44.232424400000006,15.375051800000001],[44.232655400000006,15.3752258],[44.232925200000004,15.375093000000001],[44.2331658,15.375538400000002],[44.2324399,15.375841600000001],[44.232148800000004,15.375407400000002]]]},"properties":{"id":600419767,"name":"مسبح وجيم المدينة السياحية","type":"swimming_pool","category":"recreation","subcategory":"sports","osmType":"way","leisure":"swimming_pool","name:en":"Tourist Town swimming pool"}},{"type":"Feature","id":809877716,"geometry":{"type":"Polygon","coordinates":[[[44.22802660000001,15.4277104],[44.2270728,15.429031900000002],[44.226932700000006,15.428998900000002],[44.226942900000004,15.427512700000001],[44.227233500000004,15.427486300000002],[44.22774630000001,15.427628000000002],[44.22802660000001,15.4277104]]]},"properties":{"id":809877716,"name":"منتزه","type":"park","category":"recreation","subcategory":"park","osmType":"way","leisure":"park","name:latin":"mntzh"}},{"type":"Feature","id":1013502365,"geometry":{"type":"Polygon","coordinates":[[[44.240687,15.387427200000001],[44.241200500000005,15.387421900000001],[44.241246000000004,15.3869415],[44.240773700000005,15.386908400000001],[44.2407115,15.386953700000001],[44.240687,15.387427200000001]]]},"properties":{"id":1013502365,"name":"حديقة الذاري","type":"park","category":"recreation","subcategory":"park","osmType":"way","leisure":"park","name:latin":"hdyqa al-dhary"}},{"type":"Feature","id":1027439264,"geometry":{"type":"Polygon","coordinates":[[[44.241486900000005,15.381940300000002],[44.2416703,15.3813863],[44.2412428,15.381252800000002],[44.2410092,15.381798500000002],[44.241486900000005,15.381940300000002]]]},"properties":{"id":1027439264,"name":"حديقة المراون","type":"park","category":"recreation","subcategory":"park","osmType":"way","leisure":"park","name:latin":"hdyqa al-mrawn"}},{"type":"Feature","id":1029108223,"geometry":{"type":"Polygon","coordinates":[[[44.220652,15.315202400000002],[44.220903400000005,15.3152781],[44.220916900000006,15.3149922],[44.220898700000006,15.314813100000002],[44.2209001,15.314688900000002],[44.220898700000006,15.314566000000001],[44.220930900000006,15.314476800000001],[44.22104890000001,15.314228400000001],[44.2211884,15.3139917],[44.221287700000005,15.313839100000001],[44.2215385,15.313567500000001],[44.221620300000005,15.313479500000001],[44.22166180000001,15.313418700000001],[44.2217021,15.3133437],[44.221731600000005,15.313250600000002],[44.2217879,15.313117300000002],[44.2218134,15.313042300000001],[44.22185090000001,15.312915600000002],[44.2218912,15.3127241],[44.221934100000006,15.312579200000002],[44.2220239,15.312334800000002],[44.2220749,15.3122184],[44.2221795,15.312043700000002],[44.2223471,15.3118303],[44.2224585,15.311698400000001],[44.222579200000006,15.311575500000002],[44.22269850000001,15.311488800000001],[44.222722600000004,15.311453900000002],[44.222656900000004,15.311375000000002],[44.222526800000004,15.311453900000002],[44.22241820000001,15.311530200000002],[44.222325700000006,15.311579400000001],[44.222246600000005,15.311606500000002],[44.2221647,15.311622100000001],[44.2220615,15.311611700000002],[44.221986400000006,15.311593600000002],[44.221966300000005,15.311579400000001],[44.2219046,15.311482400000001],[44.221750300000004,15.311812200000002],[44.221572,15.312346400000001],[44.2213172,15.3130307],[44.221014100000005,15.313832600000001],[44.2209148,15.314150800000002],[44.220833000000006,15.314458700000001],[44.220696200000006,15.315043300000001],[44.220652,15.315202400000002]]]},"properties":{"id":1029108223,"name":"حديقة الحوار الوطني","type":"garden","category":"recreation","subcategory":"park","osmType":"way","leisure":"garden","name:latin":"hdyqa al-hwar al-wtny"}},{"type":"Feature","id":1089204927,"geometry":{"type":"Polygon","coordinates":[[[44.21007230000001,15.324764700000001],[44.210016,15.324950900000001],[44.20998110000001,15.3250027],[44.2099436,15.325028500000002],[44.20988990000001,15.3250337],[44.209828300000005,15.325015600000002],[44.2098068,15.324982000000002],[44.209790700000006,15.324943200000002],[44.20978,15.324888900000001],[44.2097558,15.324806100000002],[44.2097102,15.324676700000001],[44.2096566,15.324560300000002],[44.209552,15.324374100000002],[44.2094742,15.324270600000002],[44.209444700000006,15.324231800000002],[44.209412500000006,15.324193000000001],[44.2094098,15.324143800000002],[44.2094596,15.324118400000001],[44.2095052,15.3241261],[44.20990750000001,15.3242787],[44.209978500000005,15.3243249],[44.2100348,15.324387000000002],[44.210069600000004,15.324459400000002],[44.210050100000004,15.324517600000002],[44.209997300000005,15.3244804],[44.209952400000006,15.324466000000001],[44.209873300000005,15.3244684],[44.20981690000001,15.324492900000001],[44.20979140000001,15.3245131],[44.2097557,15.324560800000002],[44.2097406,15.324604100000002],[44.209745100000006,15.324688300000002],[44.209773000000006,15.324741600000001],[44.2098116,15.3247785],[44.2098772,15.324807600000002],[44.20993910000001,15.324811000000002],[44.209994900000005,15.324795800000002],[44.21004610000001,15.3247613],[44.21007230000001,15.324764700000001]]]},"properties":{"id":1089204927,"name":"","type":"garden","category":"recreation","subcategory":"park","osmType":"way","leisure":"garden","source":"Bing"}},{"type":"Feature","id":1138547231,"geometry":{"type":"Polygon","coordinates":[[[44.20756360000001,15.326864400000002],[44.207570200000006,15.326880800000001],[44.207572500000005,15.326898600000002],[44.2075705,15.326916400000002],[44.207563900000004,15.3269341],[44.20755630000001,15.326945600000002],[44.20754590000001,15.3269563],[44.207533700000006,15.3269648],[44.2075199,15.326970800000002],[44.2075065,15.326974000000002],[44.20748510000001,15.326974200000002],[44.2074653,15.3269695],[44.20720240000001,15.326833200000001],[44.2071881,15.326820200000002],[44.2071776,15.326803700000001],[44.2071717,15.326785200000002],[44.20717080000001,15.326765900000002],[44.2071751,15.326747000000001],[44.2071842,15.326729900000002],[44.2071976,15.326715400000001],[44.207214300000004,15.3267047],[44.20723340000001,15.326698500000001],[44.207253300000005,15.3266971],[44.20727110000001,15.326700400000002],[44.2075352,15.326834700000001],[44.207551900000006,15.326848300000002],[44.20756360000001,15.326864400000002]]]},"properties":{"id":1138547231,"name":"","type":"garden","category":"recreation","subcategory":"park","osmType":"way","leisure":"garden","source":"Bing"}},{"type":"Feature","id":1138556402,"geometry":{"type":"Polygon","coordinates":[[[44.2088692,15.323895000000002],[44.209046900000004,15.323981700000001],[44.2090821,15.323984600000001],[44.2091052,15.323968800000001],[44.209117400000004,15.323909700000002],[44.209114500000005,15.323753100000001],[44.209123600000005,15.3236865],[44.209126700000006,15.323664400000002],[44.2091159,15.323649600000001],[44.2090899,15.323640700000002],[44.20906230000001,15.323654000000001],[44.209011600000004,15.323700900000002],[44.2088753,15.323795900000002],[44.2088492,15.323827000000001],[44.208843200000004,15.323858000000001],[44.2088692,15.323895000000002]]]},"properties":{"id":1138556402,"name":"","type":"garden","category":"recreation","subcategory":"park","osmType":"way","leisure":"garden","source":"Bing"}},{"type":"Feature","id":1346369932,"geometry":{"type":"Polygon","coordinates":[[[44.2482995,15.231077500000001],[44.2490809,15.230924600000002],[44.2491319,15.2306541],[44.249299,15.230695100000002],[44.2491885,15.230263400000002],[44.248121100000006,15.230430100000001],[44.2482995,15.231077500000001]]]},"properties":{"id":1346369932,"name":"حديقة الحسين بن علي","type":"park","category":"recreation","subcategory":"park","osmType":"way","leisure":"park","name:latin":"hdyqa al-hsyn bn 'ly"}},{"type":"Feature","id":1365001727,"geometry":{"type":"Polygon","coordinates":[[[44.270130800000004,15.283351600000001],[44.2700539,15.283310000000002],[44.2700028,15.2832605],[44.269966800000006,15.283209600000001],[44.269942400000005,15.283134600000002],[44.2699293,15.283048800000001],[44.2699368,15.2829466],[44.269977100000006,15.282851700000002],[44.270026800000004,15.2827911],[44.270085800000004,15.2827423],[44.2701477,15.2827116],[44.270228200000005,15.282685400000002],[44.2703482,15.282683600000002],[44.270501900000006,15.282707100000001],[44.270601000000006,15.282737200000001],[44.270654500000006,15.282763500000001],[44.270693900000005,15.2827993],[44.270730500000006,15.282858000000001],[44.27075670000001,15.282925800000001],[44.27075490000001,15.283017100000002],[44.270724900000005,15.283108400000001],[44.270664000000004,15.283185200000002],[44.2705562,15.283283800000001],[44.2704784,15.283338],[44.2704035,15.283373200000002],[44.2703051,15.283385],[44.2702029,15.283378700000002],[44.270130800000004,15.283351600000001]]]},"properties":{"id":1365001727,"name":"","type":"park","category":"recreation","subcategory":"park","osmType":"way","leisure":"park"}},{"type":"Feature","id":1410847325,"geometry":{"type":"Polygon","coordinates":[[[43.8383206,15.9421139],[43.847808900000004,15.951782200000002],[44.295008200000005,15.655359400000002],[44.1714764,15.551880500000001],[44.068801500000006,15.5236405],[43.797555,15.573977700000002],[43.8383206,15.9421139]]]},"properties":{"id":1410847325,"name":"محمية عمران الطبيعيه","type":"nature_reserve","category":"recreation","subcategory":"park","osmType":"way","leisure":"nature_reserve","name:latin":"mhmya 'mran al-tby'yh"}},{"type":"Feature","id":1466705228,"geometry":{"type":"Polygon","coordinates":[[[44.1791636,15.309524000000001],[44.1795149,15.310199200000001],[44.1789409,15.310408800000001],[44.17867270000001,15.3097749],[44.1791636,15.309524000000001]]]},"properties":{"id":1466705228,"name":"منتزه عطان","type":"park","category":"recreation","subcategory":"park","osmType":"way","area":"yes","leisure":"park","name:latin":"mntzh 'tan"}}]}