{"type":"FeatureCollection","features":[{"type":"Feature","id":257730413,"geometry":{"type":"Point","coordinates":[44.2023798,15.3187925]},"properties":{"id":257730413,"name":"فرزة المصباحي","type":"stop_position","category":"transport","subcategory":"public_transit","osmType":"node","bus":"yes","public_transport":"stop_position","name:latin":"frza al-msbahy"}},{"type":"Feature","id":258127102,"geometry":{"type":"Point","coordinates":[44.189610300000005,15.3472062]},"properties":{"id":258127102,"name":"الجامعة القديمة","type":"stop_position","category":"transport","subcategory":"public_transit","osmType":"node","bus":"yes","public_transport":"stop_position","name:latin":"al-jam'a al-qdyma"}},{"type":"Feature","id":258130218,"geometry":{"type":"Point","coordinates":[44.189520900000005,15.3471971]},"properties":{"id":258130218,"name":"الجامعة القديمة","type":"stop_position","category":"transport","subcategory":"public_transit","osmType":"node","bus":"yes","public_transport":"stop_position","name:latin":"al-jam'a al-qdyma"}},{"type":"Feature","id":258152577,"geometry":{"type":"Point","coordinates":[44.2149014,15.4192516]},"properties":{"id":258152577,"name":"الجمنة","type":"stop_position","category":"transport","subcategory":"public_transit","osmType":"node","bus":"yes","public_transport":"stop_position","name:latin":"al-jmna"}},{"type":"Feature","id":260590778,"geometry":{"type":"Point","coordinates":[44.1938904,15.2972902]},"properties":{"id":260590778,"name":"حده المدينة","type":"stop_position","category":"transport","subcategory":"public_transit","osmType":"node","bus":"yes","public_transport":"stop_position","name:latin":"hdh al-mdyna"}},{"type":"Feature","id":260592900,"geometry":{"type":"Point","coordinates":[44.2073936,15.359602]},"properties":{"id":260592900,"name":"التحرير","type":"stop_position","category":"transport","subcategory":"public_transit","osmType":"node","bus":"yes","public_transport":"stop_position","name:latin":"al-thryr"}},{"type":"Feature","id":260746155,"geometry":{"type":"Point","coordinates":[44.214927200000005,15.359579000000002]},"properties":{"id":260746155,"name":"شعوب","type":"stop_position","category":"transport","subcategory":"public_transit","osmType":"node","bus":"yes","public_transport":"stop_position","name:latin":"sh'wb"}},{"type":"Feature","id":260746175,"geometry":{"type":"Point","coordinates":[44.2195156,15.351620500000001]},"properties":{"id":260746175,"name":"فرزة باب اليمن","type":"stop_position","category":"transport","subcategory":"public_transit","osmType":"node","bus":"yes","public_transport":"stop_position","name:latin":"frza bab al-ymn","name:en":"Bab al-Yaman Bus Station"}},{"type":"Feature","id":261721205,"geometry":{"type":"Point","coordinates":[44.183236,15.3304661]},"properties":{"id":261721205,"name":"فج عطان","type":"stop_position","category":"transport","subcategory":"public_transit","osmType":"node","bus":"yes","public_transport":"stop_position","name:latin":"fj 'tan"}},{"type":"Feature","id":261733365,"geometry":{"type":"Point","coordinates":[44.223494,15.332415100000002]},"properties":{"id":261733365,"name":"فرزة الزهراوي","type":"stop_position","category":"transport","subcategory":"public_transit","osmType":"node","bus":"yes","public_transport":"stop_position","name:latin":"frza al-zhrawy"}},{"type":"Feature","id":261735862,"geometry":{"type":"Point","coordinates":[44.2207603,15.333139200000002]},"properties":{"id":261735862,"name":"فرزة الزهراوي","type":"stop_position","category":"transport","subcategory":"public_transit","osmType":"node","bus":"yes","public_transport":"stop_position","name:latin":"frza al-zhrawy"}},{"type":"Feature","id":261736466,"geometry":{"type":"Point","coordinates":[44.221316200000004,15.332199400000002]},"properties":{"id":261736466,"name":"فرزة حديقة 26","type":"stop_position","category":"transport","subcategory":"public_transit","osmType":"node","bus":"yes","public_transport":"stop_position","name:latin":"frza hdyqa 26"}},{"type":"Feature","id":261754723,"geometry":{"type":"Point","coordinates":[44.217451700000005,15.348533300000001]},"properties":{"id":261754723,"name":"فرزة باب اليمن","type":"stop_position","category":"transport","subcategory":"public_transit","osmType":"node","bus":"yes","public_transport":"stop_position","name:latin":"frza bab al-ymn","name:en":"Bab al-Yaman Bus Station"}},{"type":"Feature","id":262080861,"geometry":{"type":"Point","coordinates":[44.205745500000006,15.354345000000002]},"properties":{"id":262080861,"name":"التحرير","type":"stop_position","category":"transport","subcategory":"public_transit","osmType":"node","bus":"yes","public_transport":"stop_position","name:latin":"al-thryr"}},{"type":"Feature","id":262119331,"geometry":{"type":"Point","coordinates":[44.19962820000001,15.4093221]},"properties":{"id":262119331,"name":"خط عمران","type":"stop_position","category":"transport","subcategory":"public_transit","osmType":"node","bus":"yes","public_transport":"stop_position","name:latin":"kht 'mran"}},{"type":"Feature","id":262326220,"geometry":{"type":"Point","coordinates":[44.203292000000005,15.3533377]},"properties":{"id":262326220,"name":"التحرير","type":"stop_position","category":"transport","subcategory":"public_transit","osmType":"node","bus":"yes","public_transport":"stop_position","name:latin":"al-thryr"}},{"type":"Feature","id":262326292,"geometry":{"type":"Point","coordinates":[44.205601200000004,15.351579100000002]},"properties":{"id":262326292,"name":"التحرير","type":"stop_position","category":"transport","subcategory":"public_transit","osmType":"node","bus":"yes","public_transport":"stop_position","name:latin":"al-thryr"}},{"type":"Feature","id":262327017,"geometry":{"type":"Point","coordinates":[44.2063374,15.3508203]},"properties":{"id":262327017,"name":"فرزة التحرير","type":"stop_position","category":"transport","subcategory":"public_transit","osmType":"node","bus":"yes","public_transport":"stop_position","name:latin":"frza al-thryr"}},{"type":"Feature","id":262328215,"geometry":{"type":"Point","coordinates":[44.216127400000005,15.350648000000001]},"properties":{"id":262328215,"name":"باب اليمن","type":"stop_position","category":"transport","subcategory":"public_transit","osmType":"node","bus":"yes","public_transport":"stop_position","name:latin":"bab al-ymn","name:en":"Bab al-Yaman"}},{"type":"Feature","id":262461927,"geometry":{"type":"Point","coordinates":[44.2247971,15.3569793]},"properties":{"id":262461927,"name":"نقم","type":"stop_position","category":"transport","subcategory":"public_transit","osmType":"node","bus":"yes","public_transport":"stop_position","name:latin":"nqm"}},{"type":"Feature","id":262467815,"geometry":{"type":"Point","coordinates":[44.2178429,15.347753400000002]},"properties":{"id":262467815,"name":"","type":"bus_station","category":"transport","subcategory":"public_transit","osmType":"node","amenity":"bus_station","bus":"yes","public_transport":"station"}},{"type":"Feature","id":264001751,"geometry":{"type":"Point","coordinates":[44.17395320000001,15.359043900000001]},"properties":{"id":264001751,"name":"جولة السنينة","type":"stop_position","category":"transport","subcategory":"public_transit","osmType":"node","bus":"yes","public_transport":"stop_position","name:latin":"jwla al-snyna"}},{"type":"Feature","id":264002512,"geometry":{"type":"Point","coordinates":[44.167109100000005,15.341371100000002]},"properties":{"id":264002512,"name":"عصر","type":"stop_position","category":"transport","subcategory":"public_transit","osmType":"node","bus":"yes","public_transport":"stop_position","name:latin":"'sr"}},{"type":"Feature","id":265048391,"geometry":{"type":"Point","coordinates":[44.2377035,15.307727200000002]},"properties":{"id":265048391,"name":"شميلة","type":"stop_position","category":"transport","subcategory":"public_transit","osmType":"node","bus":"yes","public_transport":"stop_position","name:latin":"shmyla"}},{"type":"Feature","id":265048395,"geometry":{"type":"Point","coordinates":[44.2347164,15.305925700000001]},"properties":{"id":265048395,"name":"شميلة","type":"stop_position","category":"transport","subcategory":"public_transit","osmType":"node","bus":"yes","public_transport":"stop_position","name:latin":"shmyla"}},{"type":"Feature","id":265048633,"geometry":{"type":"Point","coordinates":[44.227173500000006,15.292977100000002]},"properties":{"id":265048633,"name":"بينون","type":"stop_position","category":"transport","subcategory":"public_transit","osmType":"node","bus":"yes","public_transport":"stop_position","name:latin":"bynwn"}},{"type":"Feature","id":265049939,"geometry":{"type":"Point","coordinates":[44.2181033,15.267252200000001]},"properties":{"id":265049939,"name":"الجولة العقارية","type":"stop_position","category":"transport","subcategory":"public_transit","osmType":"node","bus":"yes","public_transport":"stop_position","name:latin":"al-jwla al-'qarya"}},{"type":"Feature","id":417307820,"geometry":{"type":"Point","coordinates":[44.2441079,15.2804046]},"properties":{"id":417307820,"name":"جولة دار سلم","type":"stop_position","category":"transport","subcategory":"public_transit","osmType":"node","bus":"yes","public_transport":"stop_position","name:latin":"jwla dar slm"}},{"type":"Feature","id":417308614,"geometry":{"type":"Point","coordinates":[44.120141000000004,15.338072400000001]},"properties":{"id":417308614,"name":"الصباحة","type":"stop_position","category":"transport","subcategory":"public_transit","osmType":"node","bus":"yes","public_transport":"stop_position","name:latin":"al-sbaha"}},{"type":"Feature","id":417319142,"geometry":{"type":"Point","coordinates":[44.1919831,15.421687900000002]},"properties":{"id":417319142,"name":"جولة عمران","type":"stop_position","category":"transport","subcategory":"public_transit","osmType":"node","bus":"yes","public_transport":"stop_position","name:latin":"jwla 'mran"}},{"type":"Feature","id":417320598,"geometry":{"type":"Point","coordinates":[44.1780624,15.500907900000001]},"properties":{"id":417320598,"name":"العرة","type":"stop_position","category":"transport","subcategory":"public_transit","osmType":"node","bus":"yes","public_transport":"stop_position","name:latin":"al-'ra"}},{"type":"Feature","id":417330921,"geometry":{"type":"Point","coordinates":[44.284906500000005,15.283148400000002]},"properties":{"id":417330921,"name":"هيلانة","type":"stop_position","category":"transport","subcategory":"public_transit","osmType":"node","bus":"yes","public_transport":"stop_position","name:latin":"hylana"}},{"type":"Feature","id":417330933,"geometry":{"type":"Point","coordinates":[44.271371200000004,15.283007000000001]},"properties":{"id":417330933,"name":"جولة الحثيلي","type":"stop_position","category":"transport","subcategory":"public_transit","osmType":"node","bus":"yes","public_transport":"stop_position","name:latin":"jwla al-hthyly"}},{"type":"Feature","id":417330976,"geometry":{"type":"Point","coordinates":[44.27039430000001,15.283424600000002]},"properties":{"id":417330976,"name":"فرزة الحثيلي","type":"stop_position","category":"transport","subcategory":"public_transit","osmType":"node","bus":"yes","public_transport":"stop_position","name:latin":"frza al-hthyly"}},{"type":"Feature","id":417331590,"geometry":{"type":"Point","coordinates":[44.27099200000001,15.282387900000002]},"properties":{"id":417331590,"name":"الحثيلي","type":"stop_position","category":"transport","subcategory":"public_transit","osmType":"node","bus":"yes","public_transport":"stop_position","name:latin":"al-hthyly"}},{"type":"Feature","id":417349631,"geometry":{"type":"Point","coordinates":[44.2197687,15.276741000000001]},"properties":{"id":417349631,"name":"بيت بوس","type":"stop_position","category":"transport","subcategory":"public_transit","osmType":"node","bus":"yes","public_transport":"stop_position","name:latin":"byt bws"}},{"type":"Feature","id":417360842,"geometry":{"type":"Point","coordinates":[44.17517410000001,15.2975211]},"properties":{"id":417360842,"name":"جولة حده الخمسين","type":"stop_position","category":"transport","subcategory":"public_transit","osmType":"node","bus":"yes","public_transport":"stop_position","name:latin":"jwla hdh al-khmsyn"}},{"type":"Feature","id":417363851,"geometry":{"type":"Point","coordinates":[44.1632723,15.293306600000001]},"properties":{"id":417363851,"name":"قرية حده","type":"stop_position","category":"transport","subcategory":"public_transit","osmType":"node","bus":"yes","public_transport":"stop_position","name:latin":"qrya hdh"}},{"type":"Feature","id":504469874,"geometry":{"type":"Point","coordinates":[44.234381400000004,15.306866300000001]},"properties":{"id":504469874,"name":"فرزة شميلة","type":"stop_position","category":"transport","subcategory":"public_transit","osmType":"node","bus":"yes","public_transport":"stop_position","name:latin":"frza shmyla"}},{"type":"Feature","id":574364110,"geometry":{"type":"Point","coordinates":[44.2064722,15.3541868]},"properties":{"id":574364110,"name":"التحرير","type":"stop_position","category":"transport","subcategory":"public_transit","osmType":"node","bus":"yes","public_transport":"stop_position","name:latin":"al-thryr"}},{"type":"Feature","id":574364135,"geometry":{"type":"Point","coordinates":[44.2051257,15.396276300000002]},"properties":{"id":574364135,"name":"فرزة الثلاثين","type":"stop_position","category":"transport","subcategory":"public_transit","osmType":"node","bus":"yes","public_transport":"stop_position","name:latin":"frza al-thlathyn"}},{"type":"Feature","id":574739535,"geometry":{"type":"Point","coordinates":[44.215028000000004,15.3596356]},"properties":{"id":574739535,"name":"شعوب","type":"stop_position","category":"transport","subcategory":"public_transit","osmType":"node","bus":"yes","public_transport":"stop_position","name:latin":"sh'wb"}},{"type":"Feature","id":577318240,"geometry":{"type":"Point","coordinates":[44.1996801,15.409205900000002]},"properties":{"id":577318240,"name":"خط عمران","type":"stop_position","category":"transport","subcategory":"public_transit","osmType":"node","bus":"yes","public_transport":"stop_position","name:latin":"kht 'mran"}},{"type":"Feature","id":577378976,"geometry":{"type":"Point","coordinates":[44.2058997,15.3513531]},"properties":{"id":577378976,"name":"","type":"taxi","category":"transport","subcategory":"taxi","osmType":"node","amenity":"taxi"}},{"type":"Feature","id":582956837,"geometry":{"type":"Point","coordinates":[44.1603719,15.301290100000001]},"properties":{"id":582956837,"name":"العشاش","type":"stop_position","category":"transport","subcategory":"public_transit","osmType":"node","bus":"yes","public_transport":"stop_position","name:latin":"al-'shash"}},{"type":"Feature","id":582957141,"geometry":{"type":"Point","coordinates":[44.175110100000005,15.374937000000001]},"properties":{"id":582957141,"name":"مذبح","type":"stop_position","category":"transport","subcategory":"public_transit","osmType":"node","bus":"yes","public_transport":"stop_position","name:latin":"mdhbh"}},{"type":"Feature","id":588459648,"geometry":{"type":"Point","coordinates":[44.183469200000005,15.330802000000002]},"properties":{"id":588459648,"name":"فرزة بغداد","type":"stop_position","category":"transport","subcategory":"public_transit","osmType":"node","bus":"yes","public_transport":"stop_position","name:latin":"frza bghdad"}},{"type":"Feature","id":588459765,"geometry":{"type":"Point","coordinates":[44.1981249,15.320348800000001]},"properties":{"id":588459765,"name":"جولة المصباحي","type":"stop_position","category":"transport","subcategory":"public_transit","osmType":"node","bus":"yes","public_transport":"stop_position","name:latin":"jwla al-msbahy"}},{"type":"Feature","id":588459895,"geometry":{"type":"Point","coordinates":[44.1987723,15.3205331]},"properties":{"id":588459895,"name":"جولة المصباحي","type":"stop_position","category":"transport","subcategory":"public_transit","osmType":"node","bus":"yes","public_transport":"stop_position","name:latin":"jwla al-msbahy"}},{"type":"Feature","id":588459986,"geometry":{"type":"Point","coordinates":[44.1693647,15.341178600000001]},"properties":{"id":588459986,"name":"جولة عصر","type":"stop_position","category":"transport","subcategory":"public_transit","osmType":"node","bus":"yes","public_transport":"stop_position","name:latin":"jwla 'sr"}},{"type":"Feature","id":588459995,"geometry":{"type":"Point","coordinates":[44.1696181,15.3415478]},"properties":{"id":588459995,"name":"جولة عصر","type":"stop_position","category":"transport","subcategory":"public_transit","osmType":"node","bus":"yes","public_transport":"stop_position","name:latin":"jwla 'sr"}},{"type":"Feature","id":588460000,"geometry":{"type":"Point","coordinates":[44.16974870000001,15.341668900000002]},"properties":{"id":588460000,"name":"جولة عصر","type":"stop_position","category":"transport","subcategory":"public_transit","osmType":"node","bus":"yes","public_transport":"stop_position","name:latin":"jwla 'sr"}},{"type":"Feature","id":588479911,"geometry":{"type":"Point","coordinates":[44.1739091,15.359584100000001]},"properties":{"id":588479911,"name":"جولة السنينة","type":"stop_position","category":"transport","subcategory":"public_transit","osmType":"node","bus":"yes","public_transport":"stop_position","name:latin":"jwla al-snyna"}},{"type":"Feature","id":588479965,"geometry":{"type":"Point","coordinates":[44.173284200000005,15.376343400000001]},"properties":{"id":588479965,"name":"جولة الاندلس","type":"stop_position","category":"transport","subcategory":"public_transit","osmType":"node","bus":"yes","public_transport":"stop_position","name:latin":"jwla al-andls"}},{"type":"Feature","id":588479966,"geometry":{"type":"Point","coordinates":[44.1737267,15.376043000000001]},"properties":{"id":588479966,"name":"جولة الاندلس","type":"stop_position","category":"transport","subcategory":"public_transit","osmType":"node","bus":"yes","public_transport":"stop_position","name:latin":"jwla al-andls"}},{"type":"Feature","id":590512062,"geometry":{"type":"Point","coordinates":[44.2061919,15.351626300000001]},"properties":{"id":590512062,"name":"التحرير","type":"stop_position","category":"transport","subcategory":"public_transit","osmType":"node","bus":"yes","public_transport":"stop_position","name:latin":"al-thryr"}},{"type":"Feature","id":590512064,"geometry":{"type":"Point","coordinates":[44.206064700000006,15.3516311]},"properties":{"id":590512064,"name":"التحرير","type":"stop_position","category":"transport","subcategory":"public_transit","osmType":"node","bus":"yes","public_transport":"stop_position","name:latin":"al-thryr"}},{"type":"Feature","id":590512092,"geometry":{"type":"Point","coordinates":[44.20637180000001,15.354200400000002]},"properties":{"id":590512092,"name":"التحرير","type":"stop_position","category":"transport","subcategory":"public_transit","osmType":"node","bus":"yes","public_transport":"stop_position","name:latin":"al-thryr"}},{"type":"Feature","id":590512138,"geometry":{"type":"Point","coordinates":[44.206563700000004,15.356666700000002]},"properties":{"id":590512138,"name":"التحرير","type":"stop_position","category":"transport","subcategory":"public_transit","osmType":"node","bus":"yes","public_transport":"stop_position","name:latin":"al-thryr"}},{"type":"Feature","id":590512194,"geometry":{"type":"Point","coordinates":[44.2160895,15.350895800000002]},"properties":{"id":590512194,"name":"باب اليمن","type":"stop_position","category":"transport","subcategory":"public_transit","osmType":"node","bus":"yes","public_transport":"stop_position","name:latin":"bab al-ymn","name:en":"Bab al-Yaman"}},{"type":"Feature","id":595792013,"geometry":{"type":"Point","coordinates":[44.1870655,15.427169000000001]},"properties":{"id":595792013,"name":"خط عمران","type":"stop_position","category":"transport","subcategory":"public_transit","osmType":"node","bus":"yes","public_transport":"stop_position","name:latin":"kht 'mran"}},{"type":"Feature","id":595792064,"geometry":{"type":"Point","coordinates":[44.214005400000005,15.434158600000002]},"properties":{"id":595792064,"name":"جسر دارس","type":"stop_position","category":"transport","subcategory":"public_transit","osmType":"node","bus":"yes","public_transport":"stop_position","name:latin":"jsr dars"}},{"type":"Feature","id":597203155,"geometry":{"type":"Point","coordinates":[44.2201248,15.349593800000001]},"properties":{"id":597203155,"name":"فرزة باب اليمن","type":"stop_position","category":"transport","subcategory":"public_transit","osmType":"node","bus":"yes","public_transport":"stop_position","name:latin":"frza bab al-ymn","name:en":"Bab al-Yaman Bus Station"}},{"type":"Feature","id":597205202,"geometry":{"type":"Point","coordinates":[44.22015510000001,15.3363685]},"properties":{"id":597205202,"name":"فرزة جولة تعز","type":"stop_position","category":"transport","subcategory":"public_transit","osmType":"node","bus":"yes","public_transport":"stop_position","name:latin":"frza jwla t'z"}},{"type":"Feature","id":597205203,"geometry":{"type":"Point","coordinates":[44.221104600000004,15.3365991]},"properties":{"id":597205203,"name":"جولة تعز","type":"stop_position","category":"transport","subcategory":"public_transit","osmType":"node","bus":"yes","public_transport":"stop_position","name:latin":"jwla t'z"}},{"type":"Feature","id":597333200,"geometry":{"type":"Point","coordinates":[44.1985716,15.3347025]},"properties":{"id":597333200,"name":"جولة الرويشان","type":"stop_position","category":"transport","subcategory":"public_transit","osmType":"node","bus":"yes","public_transport":"stop_position","name:latin":"jwla al-rwyshan"}},{"type":"Feature","id":597333307,"geometry":{"type":"Point","coordinates":[44.21321030000001,15.394697700000002]},"properties":{"id":597333307,"name":"الامجاد","type":"stop_position","category":"transport","subcategory":"public_transit","osmType":"node","bus":"yes","public_transport":"stop_position","name:latin":"al-amjad"}},{"type":"Feature","id":609584371,"geometry":{"type":"Point","coordinates":[44.1857431,15.386120700000001]},"properties":{"id":609584371,"name":"النهضة","type":"stop_position","category":"transport","subcategory":"public_transit","osmType":"node","bus":"yes","public_transport":"stop_position","name:latin":"al-nhda"}},{"type":"Feature","id":609585252,"geometry":{"type":"Point","coordinates":[44.212958500000006,15.3813729]},"properties":{"id":609585252,"name":"فرزة الحصبة","type":"stop_position","category":"transport","subcategory":"public_transit","osmType":"node","bus":"yes","public_transport":"stop_position","name:latin":"frza al-hsba"}},{"type":"Feature","id":691994337,"geometry":{"type":"Point","coordinates":[44.1270363,15.447449400000002]},"properties":{"id":691994337,"name":"قرية القابل","type":"stop_position","category":"transport","subcategory":"public_transit","osmType":"node","bus":"yes","public_transport":"stop_position","name:latin":"qrya al-qabl"}},{"type":"Feature","id":760300175,"geometry":{"type":"Point","coordinates":[44.237061700000005,15.308447800000001]},"properties":{"id":760300175,"name":"","type":"bus_station","category":"transport","subcategory":"public_transit","osmType":"node","amenity":"bus_station"}},{"type":"Feature","id":761133231,"geometry":{"type":"Point","coordinates":[44.239037100000004,15.3145994]},"properties":{"id":761133231,"name":"","type":"bus_station","category":"transport","subcategory":"public_transit","osmType":"node","amenity":"bus_station"}},{"type":"Feature","id":778006133,"geometry":{"type":"Point","coordinates":[44.2699082,15.283178800000002]},"properties":{"id":778006133,"name":"فرزة الحثيلي","type":"stop_position","category":"transport","subcategory":"public_transit","osmType":"node","bus":"yes","public_transport":"stop_position","name:latin":"frza al-hthyly"}},{"type":"Feature","id":1008974650,"geometry":{"type":"Point","coordinates":[44.214171,15.3797133]},"properties":{"id":1008974650,"name":"جولة الحباري","type":"stop_position","category":"transport","subcategory":"public_transit","osmType":"node","bus":"yes","public_transport":"stop_position","name:latin":"jwla al-hbary"}},{"type":"Feature","id":1008974710,"geometry":{"type":"Point","coordinates":[44.2141974,15.3796247]},"properties":{"id":1008974710,"name":"جولة الحباري","type":"stop_position","category":"transport","subcategory":"public_transit","osmType":"node","bus":"yes","public_transport":"stop_position","name:latin":"jwla al-hbary"}},{"type":"Feature","id":1043455057,"geometry":{"type":"Point","coordinates":[44.1858536,15.489518000000002]},"properties":{"id":1043455057,"name":"العميري","type":"stop_position","category":"transport","subcategory":"public_transit","osmType":"node","bus":"yes","public_transport":"stop_position","name:latin":"al-'myry"}},{"type":"Feature","id":1043459395,"geometry":{"type":"Point","coordinates":[44.205122900000006,15.377210400000001]},"properties":{"id":1043459395,"name":"القيادة","type":"stop_position","category":"transport","subcategory":"public_transit","osmType":"node","bus":"yes","public_transport":"stop_position","name:latin":"al-qyada"}},{"type":"Feature","id":1219716030,"geometry":{"type":"Point","coordinates":[44.1985764,15.334813500000001]},"properties":{"id":1219716030,"name":"جولة الرويشان","type":"stop_position","category":"transport","subcategory":"public_transit","osmType":"node","bus":"yes","public_transport":"stop_position","name:latin":"jwla al-rwyshan"}},{"type":"Feature","id":1222684090,"geometry":{"type":"Point","coordinates":[44.2278206,15.397079800000002]},"properties":{"id":1222684090,"name":"جولة اية","type":"stop_position","category":"transport","subcategory":"public_transit","osmType":"node","bus":"yes","public_transport":"stop_position","name:latin":"jwla aya"}},{"type":"Feature","id":1223812347,"geometry":{"type":"Point","coordinates":[44.2277733,15.331471700000002]},"properties":{"id":1223812347,"name":"جولة 45","type":"stop_position","category":"transport","subcategory":"public_transit","osmType":"node","bus":"yes","public_transport":"stop_position","name:latin":"jwla 45"}},{"type":"Feature","id":1223812364,"geometry":{"type":"Point","coordinates":[44.234521400000006,15.306833800000001]},"properties":{"id":1223812364,"name":"فرزة شميلة","type":"stop_position","category":"transport","subcategory":"public_transit","osmType":"node","bus":"yes","public_transport":"stop_position","name:latin":"frza shmyla"}},{"type":"Feature","id":1223812387,"geometry":{"type":"Point","coordinates":[44.24449920000001,15.280519100000001]},"properties":{"id":1223812387,"name":"جولة دار سلم","type":"stop_position","category":"transport","subcategory":"public_transit","osmType":"node","bus":"yes","public_transport":"stop_position","name:latin":"jwla dar slm"}},{"type":"Feature","id":1224725020,"geometry":{"type":"Point","coordinates":[44.1759683,15.374282500000001]},"properties":{"id":1224725020,"name":"فرزة جولة مذبح","type":"stop_position","category":"transport","subcategory":"public_transit","osmType":"node","bus":"yes","public_transport":"stop_position","name:latin":"frza jwla mdhbh"}},{"type":"Feature","id":1224725360,"geometry":{"type":"Point","coordinates":[44.205100300000005,15.396415000000001]},"properties":{"id":1224725360,"name":"فرزة الثلاثين","type":"stop_position","category":"transport","subcategory":"public_transit","osmType":"node","bus":"yes","public_transport":"stop_position","name:latin":"frza al-thlathyn"}},{"type":"Feature","id":1237948992,"geometry":{"type":"Point","coordinates":[44.173683100000005,15.396398000000001]},"properties":{"id":1237948992,"name":"شارع الثلاثين","type":"stop_position","category":"transport","subcategory":"public_transit","osmType":"node","bus":"yes","public_transport":"stop_position","name:latin":"shar' al-thlathyn"}},{"type":"Feature","id":1237963006,"geometry":{"type":"Point","coordinates":[44.190784400000005,15.421529000000001]},"properties":{"id":1237963006,"name":"جولة عمران","type":"stop_position","category":"transport","subcategory":"public_transit","osmType":"node","bus":"yes","public_transport":"stop_position","name:latin":"jwla 'mran"}},{"type":"Feature","id":1237963011,"geometry":{"type":"Point","coordinates":[44.191712800000005,15.422105000000002]},"properties":{"id":1237963011,"name":"جولة عمران","type":"stop_position","category":"transport","subcategory":"public_transit","osmType":"node","bus":"yes","public_transport":"stop_position","name:latin":"jwla 'mran"}},{"type":"Feature","id":1237963114,"geometry":{"type":"Point","coordinates":[44.191118900000006,15.421062500000001]},"properties":{"id":1237963114,"name":"جولة عمران","type":"stop_position","category":"transport","subcategory":"public_transit","osmType":"node","bus":"yes","public_transport":"stop_position","name:latin":"jwla 'mran"}},{"type":"Feature","id":1244411660,"geometry":{"type":"Point","coordinates":[44.169420800000005,15.3418766]},"properties":{"id":1244411660,"name":"جولة عصر","type":"stop_position","category":"transport","subcategory":"public_transit","osmType":"node","bus":"yes","public_transport":"stop_position","name:latin":"jwla 'sr"}},{"type":"Feature","id":1244534392,"geometry":{"type":"Point","coordinates":[44.224792900000004,15.357079700000002]},"properties":{"id":1244534392,"name":"نقم","type":"stop_position","category":"transport","subcategory":"public_transit","osmType":"node","bus":"yes","public_transport":"stop_position","name:latin":"nqm"}},{"type":"Feature","id":1334720190,"geometry":{"type":"Point","coordinates":[44.199158800000006,15.327826600000002]},"properties":{"id":1334720190,"name":"جولة ريماس","type":"stop_position","category":"transport","subcategory":"public_transit","osmType":"node","bus":"yes","public_transport":"stop_position","name:latin":"jwla rymas"}},{"type":"Feature","id":1352047471,"geometry":{"type":"Point","coordinates":[44.254549600000004,15.2462861]},"properties":{"id":1352047471,"name":"جولة 48","type":"stop_position","category":"transport","subcategory":"public_transit","osmType":"node","bus":"yes","public_transport":"stop_position","name:latin":"jwla 48"}},{"type":"Feature","id":1352047532,"geometry":{"type":"Point","coordinates":[44.249309200000006,15.267490800000001]},"properties":{"id":1352047532,"name":"جولة الثلاثين","type":"stop_position","category":"transport","subcategory":"public_transit","osmType":"node","bus":"yes","public_transport":"stop_position","name:latin":"jwla al-thlathyn"}},{"type":"Feature","id":1626419311,"geometry":{"type":"Point","coordinates":[44.242891300000004,15.3850127]},"properties":{"id":1626419311,"name":"دوار الاربعين","type":"stop_position","category":"transport","subcategory":"public_transit","osmType":"node","bus":"yes","public_transport":"stop_position","name:latin":"dwar al-arb'yn"}},{"type":"Feature","id":1638637893,"geometry":{"type":"Point","coordinates":[44.150806200000005,15.404930600000002]},"properties":{"id":1638637893,"name":"شملان الهايبر","type":"stop_position","category":"transport","subcategory":"public_transit","osmType":"node","bus":"yes","public_transport":"stop_position","name:latin":"shmlan al-haybr"}},{"type":"Feature","id":1638637895,"geometry":{"type":"Point","coordinates":[44.1506978,15.4049866]},"properties":{"id":1638637895,"name":"شملان الهايبر","type":"stop_position","category":"transport","subcategory":"public_transit","osmType":"node","bus":"yes","public_transport":"stop_position","name:latin":"shmlan al-haybr"}},{"type":"Feature","id":1638637908,"geometry":{"type":"Point","coordinates":[44.156474200000005,15.4075313]},"properties":{"id":1638637908,"name":"شملان","type":"stop_position","category":"transport","subcategory":"public_transit","osmType":"node","bus":"yes","public_transport":"stop_position","name:latin":"shmlan"}},{"type":"Feature","id":1638639015,"geometry":{"type":"Point","coordinates":[44.224568000000005,15.630672600000002]},"properties":{"id":1638639015,"name":"جامعة ارحب","type":"stop_position","category":"transport","subcategory":"public_transit","osmType":"node","bus":"yes","public_transport":"stop_position","name:latin":"jam'a arhb"}},{"type":"Feature","id":1665448115,"geometry":{"type":"Point","coordinates":[44.114609,15.339224000000002]},"properties":{"id":1665448115,"name":"الصباحة","type":"stop_position","category":"transport","subcategory":"public_transit","osmType":"node","bus":"yes","public_transport":"stop_position","name:latin":"al-sbaha"}},{"type":"Feature","id":1879425415,"geometry":{"type":"Point","coordinates":[44.23510400000001,15.379595300000002]},"properties":{"id":1879425415,"name":"سعوان","type":"stop_position","category":"transport","subcategory":"public_transit","osmType":"node","bus":"yes","public_transport":"stop_position","name:latin":"s'wan"}},{"type":"Feature","id":1879425423,"geometry":{"type":"Point","coordinates":[44.2314987,15.379767200000002]},"properties":{"id":1879425423,"name":"جولة النصر","type":"stop_position","category":"transport","subcategory":"public_transit","osmType":"node","bus":"yes","public_transport":"stop_position","name:latin":"jwla al-nsr"}},{"type":"Feature","id":1879425460,"geometry":{"type":"Point","coordinates":[44.2308694,15.3827072]},"properties":{"id":1879425460,"name":"جولة النصر","type":"stop_position","category":"transport","subcategory":"public_transit","osmType":"node","bus":"yes","public_transport":"stop_position","name:latin":"jwla al-nsr"}},{"type":"Feature","id":2143378955,"geometry":{"type":"Point","coordinates":[44.2540964,15.2487457]},"properties":{"id":2143378955,"name":"جولة 48","type":"stop_position","category":"transport","subcategory":"public_transit","osmType":"node","bus":"yes","public_transport":"stop_position","name:latin":"jwla 48"}},{"type":"Feature","id":2146080683,"geometry":{"type":"Point","coordinates":[44.24935850000001,15.267363900000001]},"properties":{"id":2146080683,"name":"جولة الثلاثين","type":"stop_position","category":"transport","subcategory":"public_transit","osmType":"node","bus":"yes","public_transport":"stop_position","name:latin":"jwla al-thlathyn"}},{"type":"Feature","id":2146107626,"geometry":{"type":"Point","coordinates":[44.224996100000006,15.3298716]},"properties":{"id":2146107626,"name":"شارع 45","type":"stop_position","category":"transport","subcategory":"public_transit","osmType":"node","bus":"yes","public_transport":"stop_position","name:latin":"shar' 45"}},{"type":"Feature","id":2146107628,"geometry":{"type":"Point","coordinates":[44.225103700000005,15.329654300000001]},"properties":{"id":2146107628,"name":"شارع 45","type":"stop_position","category":"transport","subcategory":"public_transit","osmType":"node","bus":"yes","public_transport":"stop_position","name:latin":"shar' 45"}},{"type":"Feature","id":2190509078,"geometry":{"type":"Point","coordinates":[44.20664970000001,15.356632300000001]},"properties":{"id":2190509078,"name":"التحرير","type":"stop_position","category":"transport","subcategory":"public_transit","osmType":"node","bus":"yes","public_transport":"stop_position","name:latin":"al-thryr"}},{"type":"Feature","id":2366061377,"geometry":{"type":"Point","coordinates":[44.2399914,15.378862800000002]},"properties":{"id":2366061377,"name":"سعوان","type":"stop_position","category":"transport","subcategory":"public_transit","osmType":"node","bus":"yes","public_transport":"stop_position","name:latin":"s'wan"}},{"type":"Feature","id":2366076650,"geometry":{"type":"Point","coordinates":[44.244462600000006,15.380081500000001]},"properties":{"id":2366076650,"name":"فرزة الأربعين","type":"stop_position","category":"transport","subcategory":"public_transit","osmType":"node","bus":"yes","public_transport":"stop_position","name:latin":"frza al-arb'yn"}},{"type":"Feature","id":2397987851,"geometry":{"type":"Point","coordinates":[44.159782400000005,15.340159100000001]},"properties":{"id":2397987851,"name":"فرزة عصر الصباحة","type":"stop_position","category":"transport","subcategory":"public_transit","osmType":"node","bus":"yes","public_transport":"stop_position","name:latin":"frza 'sr al-sbaha"}},{"type":"Feature","id":2406384144,"geometry":{"type":"Point","coordinates":[44.2322209,15.359880300000002]},"properties":{"id":2406384144,"name":"نقم","type":"stop_position","category":"transport","subcategory":"public_transit","osmType":"node","bus":"yes","public_transport":"stop_position","name:latin":"nqm"}},{"type":"Feature","id":2428611249,"geometry":{"type":"Point","coordinates":[44.25380620000001,15.248845700000002]},"properties":{"id":2428611249,"name":"جولة 48","type":"stop_position","category":"transport","subcategory":"public_transit","osmType":"node","bus":"yes","public_transport":"stop_position","name:latin":"jwla 48"}},{"type":"Feature","id":2456287352,"geometry":{"type":"Point","coordinates":[44.213875900000005,15.420539100000001]},"properties":{"id":2456287352,"name":"الجمنة","type":"stop_position","category":"transport","subcategory":"public_transit","osmType":"node","bus":"yes","public_transport":"stop_position","name:latin":"al-jmna"}},{"type":"Feature","id":2456287362,"geometry":{"type":"Point","coordinates":[44.21448770000001,15.421113900000002]},"properties":{"id":2456287362,"name":"الجمنة","type":"stop_position","category":"transport","subcategory":"public_transit","osmType":"node","bus":"yes","public_transport":"stop_position","name:latin":"al-jmna"}},{"type":"Feature","id":2458620830,"geometry":{"type":"Point","coordinates":[44.1468338,15.411097500000002]},"properties":{"id":2458620830,"name":"جولة شملان","type":"stop_position","category":"transport","subcategory":"public_transit","osmType":"node","bus":"yes","public_transport":"stop_position","name:latin":"jwla shmlan"}},{"type":"Feature","id":2458620836,"geometry":{"type":"Point","coordinates":[44.1469225,15.411164300000001]},"properties":{"id":2458620836,"name":"جولة شملان","type":"stop_position","category":"transport","subcategory":"public_transit","osmType":"node","bus":"yes","public_transport":"stop_position","name:latin":"jwla shmlan"}},{"type":"Feature","id":2604397107,"geometry":{"type":"Point","coordinates":[44.1199808,15.338091300000002]},"properties":{"id":2604397107,"name":"الصباحة","type":"stop_position","category":"transport","subcategory":"public_transit","osmType":"node","bus":"yes","public_transport":"stop_position","name:latin":"al-sbaha"}},{"type":"Feature","id":3727815495,"geometry":{"type":"Point","coordinates":[44.2142278,15.378276500000002]},"properties":{"id":3727815495,"name":"","type":"platform","category":"transport","subcategory":"public_transit","osmType":"node","bus":"yes","highway":"bus_stop","local_ref":"فرزة الحصبة","public_transport":"platform"}},{"type":"Feature","id":3773429961,"geometry":{"type":"Point","coordinates":[44.228197200000004,15.444639200000001]},"properties":{"id":3773429961,"name":"الروضة","type":"stop_position","category":"transport","subcategory":"public_transit","osmType":"node","bus":"yes","public_transport":"stop_position","name:latin":"al-rwda"}},{"type":"Feature","id":3773429994,"geometry":{"type":"Point","coordinates":[44.255295200000006,15.4371863]},"properties":{"id":3773429994,"name":"صرف","type":"stop_position","category":"transport","subcategory":"public_transit","osmType":"node","bus":"yes","public_transport":"stop_position","name:latin":"srf"}},{"type":"Feature","id":3773430009,"geometry":{"type":"Point","coordinates":[44.2553689,15.437293600000002]},"properties":{"id":3773430009,"name":"صرف","type":"stop_position","category":"transport","subcategory":"public_transit","osmType":"node","bus":"yes","public_transport":"stop_position","name:latin":"srf"}},{"type":"Feature","id":3773638337,"geometry":{"type":"Point","coordinates":[44.2148023,15.4194244]},"properties":{"id":3773638337,"name":"الجمنة","type":"stop_position","category":"transport","subcategory":"public_transit","osmType":"node","bus":"yes","public_transport":"stop_position","name:latin":"al-jmna"}},{"type":"Feature","id":3773638350,"geometry":{"type":"Point","coordinates":[44.2141328,15.421121300000001]},"properties":{"id":3773638350,"name":"الجمنة","type":"stop_position","category":"transport","subcategory":"public_transit","osmType":"node","bus":"yes","public_transport":"stop_position","name:latin":"al-jmna"}},{"type":"Feature","id":3773650165,"geometry":{"type":"Point","coordinates":[44.2136112,15.420888500000002]},"properties":{"id":3773650165,"name":"الجمنة","type":"stop_position","category":"transport","subcategory":"public_transit","osmType":"node","bus":"yes","public_transport":"stop_position","name:latin":"al-jmna"}},{"type":"Feature","id":3829167663,"geometry":{"type":"Point","coordinates":[44.1704221,15.411405400000001]},"properties":{"id":3829167663,"name":"المدينة الجوية","type":"stop_position","category":"transport","subcategory":"public_transit","osmType":"node","bus":"yes","public_transport":"stop_position","name:latin":"al-mdyna al-jwya"}},{"type":"Feature","id":3829169073,"geometry":{"type":"Point","coordinates":[44.1982944,15.453771500000002]},"properties":{"id":3829169073,"name":"وادي احمد","type":"stop_position","category":"transport","subcategory":"public_transit","osmType":"node","bus":"yes","public_transport":"stop_position","name:latin":"wady ahmd"}},{"type":"Feature","id":3829328414,"geometry":{"type":"Point","coordinates":[44.213215500000004,15.394857300000002]},"properties":{"id":3829328414,"name":"الامجاد","type":"stop_position","category":"transport","subcategory":"public_transit","osmType":"node","bus":"yes","public_transport":"stop_position","name:latin":"al-amjad"}},{"type":"Feature","id":3829503581,"geometry":{"type":"Point","coordinates":[44.17520510000001,15.297446500000001]},"properties":{"id":3829503581,"name":"جولة حده الخمسين","type":"stop_position","category":"transport","subcategory":"public_transit","osmType":"node","bus":"yes","public_transport":"stop_position","name:latin":"jwla hdh al-khmsyn"}},{"type":"Feature","id":3829503607,"geometry":{"type":"Point","coordinates":[44.183049800000006,15.330583700000002]},"properties":{"id":3829503607,"name":"فج عطان","type":"stop_position","category":"transport","subcategory":"public_transit","osmType":"node","bus":"yes","public_transport":"stop_position","name:latin":"fj 'tan"}},{"type":"Feature","id":3829694836,"geometry":{"type":"Point","coordinates":[44.2064857,15.2772175]},"properties":{"id":3829694836,"name":"جولة سد كمران","type":"stop_position","category":"transport","subcategory":"public_transit","osmType":"node","bus":"yes","public_transport":"stop_position","name:latin":"jwla sd kmran"}},{"type":"Feature","id":3829694842,"geometry":{"type":"Point","coordinates":[44.206391700000005,15.2772973]},"properties":{"id":3829694842,"name":"جولة سد كمران","type":"stop_position","category":"transport","subcategory":"public_transit","osmType":"node","bus":"yes","public_transport":"stop_position","name:latin":"jwla sd kmran"}},{"type":"Feature","id":3829696363,"geometry":{"type":"Point","coordinates":[44.26393530000001,15.389134100000001]},"properties":{"id":3829696363,"name":"العشة","type":"stop_position","category":"transport","subcategory":"public_transit","osmType":"node","bus":"yes","public_transport":"stop_position","name:latin":"al-'sha"}},{"type":"Feature","id":3829738748,"geometry":{"type":"Point","coordinates":[44.251596500000005,15.229962200000001]},"properties":{"id":3829738748,"name":"حزيز","type":"stop_position","category":"transport","subcategory":"public_transit","osmType":"node","bus":"yes","public_transport":"stop_position","name:latin":"hzyz"}},{"type":"Feature","id":3829739052,"geometry":{"type":"Point","coordinates":[44.20243730000001,15.2417273]},"properties":{"id":3829739052,"name":"ارتل","type":"stop_position","category":"transport","subcategory":"public_transit","osmType":"node","bus":"yes","public_transport":"stop_position","name:latin":"artl"}},{"type":"Feature","id":3829739198,"geometry":{"type":"Point","coordinates":[44.27000640000001,15.245860900000002]},"properties":{"id":3829739198,"name":"محطة توليد كهرباء حزيز المركزية","type":"stop_position","category":"transport","subcategory":"public_transit","osmType":"node","bus":"yes","public_transport":"stop_position","name:latin":"mhta twlyd khrba' hzyz al-mrkzya"}},{"type":"Feature","id":4203163782,"geometry":{"type":"Point","coordinates":[44.160626400000005,15.3527584]},"properties":{"id":4203163782,"name":"شارع 24","type":"stop_position","category":"transport","subcategory":"public_transit","osmType":"node","bus":"yes","public_transport":"stop_position","name:latin":"shar' 24"}},{"type":"Feature","id":4297588191,"geometry":{"type":"Point","coordinates":[44.1920013,15.346957800000002]},"properties":{"id":4297588191,"name":"فرزة تعز التربة","type":"bus_stop","category":"transport","subcategory":"public_transit","osmType":"node","highway":"bus_stop","name:ar":"فرزة تعز التربة","name:latin":"frza t'z al-trba"}},{"type":"Feature","id":4298021183,"geometry":{"type":"Point","coordinates":[44.192247,15.324254000000002]},"properties":{"id":4298021183,"name":"Alamodi Rent Car","type":"car_rental","category":"transport","subcategory":"taxi","osmType":"node","amenity":"car_rental","name:en":"Alamodi Rent Car"}},{"type":"Feature","id":4298023081,"geometry":{"type":"Point","coordinates":[44.21582420000001,15.349483500000002]},"properties":{"id":4298023081,"name":"فرزة باب اليمن","type":"bus_station","category":"transport","subcategory":"public_transit","osmType":"node","amenity":"bus_station","bus":"yes","name:en":"Bab Alyemen Bus Station","public_transport":"station"}},{"type":"Feature","id":4298023751,"geometry":{"type":"Point","coordinates":[44.1958083,15.321854900000002]},"properties":{"id":4298023751,"name":"يوروب كار لتأجير السيارات","type":"car_rental","category":"transport","subcategory":"taxi","osmType":"node","amenity":"car_rental","name:en":"Europe Cars","shop":"car"}},{"type":"Feature","id":4298023752,"geometry":{"type":"Point","coordinates":[44.189887000000006,15.335283000000002]},"properties":{"id":4298023752,"name":"Europe Cars","type":"car_rental","category":"transport","subcategory":"taxi","osmType":"node","amenity":"car_rental","name:ar":"سيارات اوروبية للتاجير","name:en":"Europe Cars"}},{"type":"Feature","id":4298023903,"geometry":{"type":"Point","coordinates":[44.192677,15.324769000000002]},"properties":{"id":4298023903,"name":"Hertz Rent Car","type":"car_rental","category":"transport","subcategory":"taxi","osmType":"node","amenity":"car_rental","name:en":"Hertz Rent Car"}},{"type":"Feature","id":4298024502,"geometry":{"type":"Point","coordinates":[44.195932600000006,15.321667000000001]},"properties":{"id":4298024502,"name":"New Car","type":"car_rental","category":"transport","subcategory":"taxi","osmType":"node","amenity":"car_rental"}},{"type":"Feature","id":4353987594,"geometry":{"type":"Point","coordinates":[44.180781700000004,15.3518503]},"properties":{"id":4353987594,"name":"جولة العشرين الكريمي","type":"bus_station","category":"transport","subcategory":"public_transit","osmType":"node","addr:street":"شارع العشرين","amenity":"bus_station","name:ar":"جولة العشرين الكريمي","name:en":"20 street round"}},{"type":"Feature","id":4473059494,"geometry":{"type":"Point","coordinates":[44.189151700000004,15.3647535]},"properties":{"id":4473059494,"name":"فرزة باصات الجامعة-الصافية","type":"platform","category":"transport","subcategory":"public_transit","osmType":"node","addr:street":"الخط الدائري","bus":"yes","highway":"bus_stop","public_transport":"platform","name:latin":"frza basat al-jam'a-al-safya"}},{"type":"Feature","id":4513740789,"geometry":{"type":"Point","coordinates":[44.226357300000004,15.316566700000001]},"properties":{"id":4513740789,"name":"الاولى للنقل","type":"bus_station","category":"transport","subcategory":"public_transit","osmType":"node","addr:street":"60 meters St","amenity":"bus_station","name:ar":"الاولى للنقل","name:en":"Ala'ola for transfer"}},{"type":"Feature","id":4582798689,"geometry":{"type":"Point","coordinates":[44.231432500000004,15.380707600000001]},"properties":{"id":4582798689,"name":"A detachable bus-ring","type":"bus_station","category":"transport","subcategory":"public_transit","osmType":"node","amenity":"bus_station","name:ar":"فرزة باصات الدائري","name:en":"bus station"}},{"type":"Feature","id":4582940889,"geometry":{"type":"Point","coordinates":[44.23105820000001,15.383124300000002]},"properties":{"id":4582940889,"name":"فرزة باصات الملعب","type":"bus_station","category":"transport","subcategory":"public_transit","osmType":"node","addr:street":"شارع النصر","amenity":"bus_station","name:ar":"فرزة باصات الملعب","name:en":"stadium bus station"}},{"type":"Feature","id":4582941289,"geometry":{"type":"Point","coordinates":[44.230748000000006,15.382931300000001]},"properties":{"id":4582941289,"name":"فرزة باصات الحصبة","type":"bus_station","category":"transport","subcategory":"public_transit","osmType":"node","addr:street":"شارع الجامعة العربية","amenity":"bus_station","bus":"yes","name:en":"Alhassabah bus station","public_transport":"station"}},{"type":"Feature","id":4582941489,"geometry":{"type":"Point","coordinates":[44.2308256,15.3827475]},"properties":{"id":4582941489,"name":"فرزة باصات باب اليمن","type":"bus_station","category":"transport","subcategory":"public_transit","osmType":"node","addr:street":"شارع النصر","amenity":"bus_station","bus":"yes","name:ar":"فرزة باصات باب اليمن","name:en":"bab al yemen bus station","public_transport":"station"}},{"type":"Feature","id":4686963101,"geometry":{"type":"Point","coordinates":[44.2611227,15.451049500000002]},"properties":{"id":4686963101,"name":"معرض ابو بكر للسيارات","type":"car_rental","category":"transport","subcategory":"taxi","osmType":"node","amenity":"car_rental","name:ar":"معرض ابو بكر للسيارات","name:latin":"m'rd abw bkr llsyarat"}},{"type":"Feature","id":4972595625,"geometry":{"type":"Point","coordinates":[44.219633900000005,15.278159100000002]},"properties":{"id":4972595625,"name":"فرزه بيت بوس","type":"bus_station","category":"transport","subcategory":"public_transit","osmType":"node","addr:street":"شارع الاربعين","amenity":"bus_station","name:ar":"فرزة باصات بيت بوس","name:en":"Bait Baws Bus station"}},{"type":"Feature","id":5065712722,"geometry":{"type":"Point","coordinates":[44.2222055,15.334967500000001]},"properties":{"id":5065712722,"name":"احمد مهيوب لزينة السيارات","type":"car_rental","category":"transport","subcategory":"taxi","osmType":"node","addr:street":"شارع تعز","amenity":"car_rental","email":"almahyoub@yemen.net.ye","name:ar":"احمد مهيوب لزينة السيارات","name:en":"Cars accessories","operator":"احمد مهيوب","phone":"009671245466"}},{"type":"Feature","id":5113946622,"geometry":{"type":"Point","coordinates":[44.19652670000001,15.321288400000002]},"properties":{"id":5113946622,"name":"Europcar","type":"car_rental","category":"transport","subcategory":"taxi","osmType":"node","addr:housenumber":"+967 448950","addr:street":"60 Meters Street","amenity":"car_rental","brand":"Europcar","brand:wikidata":"Q1376256","email":"Rashad.europcar@yahoo.com","internet_access":"wlan","name:ar":"يوربكار لتأجير السيارات","name:en":"Europcar Yemen","opening_hours":"Sa-Th 09:00-20:00","phone":"+967 771215444"}},{"type":"Feature","id":5196307030,"geometry":{"type":"Point","coordinates":[44.2270814,15.316589200000001]},"properties":{"id":5196307030,"name":"النور للنقل الداخلي والخارجي","type":"bus_stop","category":"transport","subcategory":"public_transit","osmType":"node","highway":"bus_stop","name:ar":"النور للنقل الداخلي والخارجي","name:latin":"al-nwr llnql al-dakhly walkharjy"}},{"type":"Feature","id":5197174497,"geometry":{"type":"Point","coordinates":[44.169113,15.341966000000001]},"properties":{"id":5197174497,"name":"جولة عصر","type":"stop_position","category":"transport","subcategory":"public_transit","osmType":"node","bus":"yes","public_transport":"stop_position","name:latin":"jwla 'sr"}},{"type":"Feature","id":5216525023,"geometry":{"type":"Point","coordinates":[44.206765600000004,15.356872200000002]},"properties":{"id":5216525023,"name":"فرزة الجامعة","type":"bus_station","category":"transport","subcategory":"public_transit","osmType":"node","amenity":"bus_station","bus":"yes","name:ar":"فرزة الجامعة","name:en":"Aljama'ah bus station","public_transport":"station"}},{"type":"Feature","id":5219468621,"geometry":{"type":"Point","coordinates":[44.231047800000006,15.2976471]},"properties":{"id":5219468621,"name":"ورشة النقل الاولى وبن معمر","type":"bus_stop","category":"transport","subcategory":"public_transit","osmType":"node","highway":"bus_stop","name:ar":"ورشة النقل الاولى وبن معمر","name:latin":"wrsha al-nql al-awla wbn m'mr"}},{"type":"Feature","id":5763229631,"geometry":{"type":"Point","coordinates":[44.204791400000005,15.3797896]},"properties":{"id":5763229631,"name":"شارع الصحة","type":"stop_position","category":"transport","subcategory":"public_transit","osmType":"node","bus":"yes","public_transport":"stop_position","name:latin":"shar' al-sha"}},{"type":"Feature","id":5776595363,"geometry":{"type":"Point","coordinates":[44.1896459,15.3648237]},"properties":{"id":5776595363,"name":"الجامعه الجديدة","type":"stop_position","category":"transport","subcategory":"public_transit","osmType":"node","bus":"yes","public_transport":"stop_position","name:latin":"al-jam'h al-jdyda"}},{"type":"Feature","id":5776595374,"geometry":{"type":"Point","coordinates":[44.189763500000005,15.364616600000002]},"properties":{"id":5776595374,"name":"الجامعه الجديدة","type":"stop_position","category":"transport","subcategory":"public_transit","osmType":"node","bus":"yes","public_transport":"stop_position","name:latin":"al-jam'h al-jdyda"}},{"type":"Feature","id":5786636011,"geometry":{"type":"Point","coordinates":[44.176546200000004,15.463297]},"properties":{"id":5786636011,"name":"المجمع الطبي","type":"stop_position","category":"transport","subcategory":"public_transit","osmType":"node","bus":"yes","public_transport":"stop_position","name:latin":"al-mjm' al-tby"}},{"type":"Feature","id":5828706739,"geometry":{"type":"Point","coordinates":[44.17851160000001,15.3989515]},"properties":{"id":5828706739,"name":"فرزة سوق علي محسن","type":"stop_position","category":"transport","subcategory":"public_transit","osmType":"node","bus":"yes","public_transport":"stop_position","name:latin":"frza swq 'ly mhsn"}},{"type":"Feature","id":5866165186,"geometry":{"type":"Point","coordinates":[44.215755300000005,15.253754100000002]},"properties":{"id":5866165186,"name":"باصات ارتل - بيت بوس","type":"bus_stop","category":"transport","subcategory":"public_transit","osmType":"node","highway":"bus_stop","name:latin":"basat artl - byt bws"}},{"type":"Feature","id":6015583033,"geometry":{"type":"Point","coordinates":[44.224696800000004,15.338088700000002]},"properties":{"id":6015583033,"name":"جولة جسر العمري","type":"stop_position","category":"transport","subcategory":"public_transit","osmType":"node","bus":"yes","public_transport":"stop_position","name:latin":"jwla jsr al-'mry"}},{"type":"Feature","id":6023242251,"geometry":{"type":"Point","coordinates":[44.282244600000006,15.265411300000002]},"properties":{"id":6023242251,"name":"ضبوة","type":"stop_position","category":"transport","subcategory":"public_transit","osmType":"node","bus":"yes","public_transport":"stop_position","name:latin":"dbwa"}},{"type":"Feature","id":6056265418,"geometry":{"type":"Point","coordinates":[44.186404,15.428009600000001]},"properties":{"id":6056265418,"name":"خط عمران","type":"stop_position","category":"transport","subcategory":"public_transit","osmType":"node","bus":"yes","public_transport":"stop_position","name:latin":"kht 'mran"}},{"type":"Feature","id":6221164124,"geometry":{"type":"Point","coordinates":[44.219007100000006,15.2782993]},"properties":{"id":6221164124,"name":"جولة بيت بوس","type":"stop_position","category":"transport","subcategory":"public_transit","osmType":"node","bus":"yes","public_transport":"stop_position","name:latin":"jwla byt bws"}},{"type":"Feature","id":6236689323,"geometry":{"type":"Point","coordinates":[44.17607700000001,15.374399400000001]},"properties":{"id":6236689323,"name":"فرزة جولة مذبح","type":"stop_position","category":"transport","subcategory":"public_transit","osmType":"node","bus":"yes","public_transport":"stop_position","name:latin":"frza jwla mdhbh"}},{"type":"Feature","id":6247150864,"geometry":{"type":"Point","coordinates":[44.228400900000004,15.317119400000001]},"properties":{"id":6247150864,"name":"النور للنقل الداخلي والخارجي","type":"bus_stop","category":"transport","subcategory":"public_transit","osmType":"node","highway":"bus_stop","name:ar":"النور للنقل الداخلي والخارجي","name:latin":"al-nwr llnql al-dakhly walkharjy"}},{"type":"Feature","id":6247150865,"geometry":{"type":"Point","coordinates":[44.228642300000004,15.317239700000002]},"properties":{"id":6247150865,"name":"البراق للنقل الداخلي والدولي","type":"bus_stop","category":"transport","subcategory":"public_transit","osmType":"node","highway":"bus_stop","name:ar":"البراق للنقل الداخلي والدولي","name:latin":"al-braq llnql al-dakhly waldwly"}},{"type":"Feature","id":6249081685,"geometry":{"type":"Point","coordinates":[44.189403600000006,15.3648532]},"properties":{"id":6249081685,"name":"الجامعه الجديدة","type":"stop_position","category":"transport","subcategory":"public_transit","osmType":"node","bus":"yes","public_transport":"stop_position","name:latin":"al-jam'h al-jdyda"}},{"type":"Feature","id":6429178781,"geometry":{"type":"Point","coordinates":[44.221905500000005,15.293209000000001]},"properties":{"id":6429178781,"name":"روافد سبأ","type":"car_rental","category":"transport","subcategory":"taxi","osmType":"node","addr:street":"جولة الثقافة","amenity":"car_rental","name:en":"RawafedSaba","opening_hours":"24/7","website":"http://www.Rawafed-Saba.com"}},{"type":"Feature","id":6551844036,"geometry":{"type":"Point","coordinates":[44.244588400000005,15.280204200000002]},"properties":{"id":6551844036,"name":"جولة دار سلم","type":"stop_position","category":"transport","subcategory":"public_transit","osmType":"node","bus":"yes","public_transport":"stop_position","name:latin":"jwla dar slm"}},{"type":"Feature","id":6551844043,"geometry":{"type":"Point","coordinates":[44.244281300000004,15.280067200000001]},"properties":{"id":6551844043,"name":"جولة دار سلم","type":"stop_position","category":"transport","subcategory":"public_transit","osmType":"node","bus":"yes","public_transport":"stop_position","name:latin":"jwla dar slm"}},{"type":"Feature","id":6579150599,"geometry":{"type":"Point","coordinates":[44.21767560000001,15.348541100000002]},"properties":{"id":6579150599,"name":"فرزة باب اليمن","type":"stop_position","category":"transport","subcategory":"public_transit","osmType":"node","bus":"yes","public_transport":"stop_position","name:latin":"frza bab al-ymn","name:en":"Bab al-Yaman Bus Station"}},{"type":"Feature","id":6579214886,"geometry":{"type":"Point","coordinates":[44.19888,15.320541200000001]},"properties":{"id":6579214886,"name":"جولة المصباحي","type":"stop_position","category":"transport","subcategory":"public_transit","osmType":"node","bus":"yes","public_transport":"stop_position","name:latin":"jwla al-msbahy"}},{"type":"Feature","id":6771480776,"geometry":{"type":"Point","coordinates":[44.221164200000004,15.285881700000001]},"properties":{"id":6771480776,"name":"الاصبحي","type":"stop_position","category":"transport","subcategory":"public_transit","osmType":"node","bus":"yes","public_transport":"stop_position","name:latin":"al-asbhy"}},{"type":"Feature","id":6802058386,"geometry":{"type":"Point","coordinates":[44.231508100000006,15.380981900000002]},"properties":{"id":6802058386,"name":"","type":"bus_stop","category":"transport","subcategory":"public_transit","osmType":"node","highway":"bus_stop"}},{"type":"Feature","id":6811503193,"geometry":{"type":"Point","coordinates":[44.219889200000004,15.277392700000002]},"properties":{"id":6811503193,"name":"بيت بوس","type":"stop_position","category":"transport","subcategory":"public_transit","osmType":"node","bus":"yes","public_transport":"stop_position","name:latin":"byt bws"}},{"type":"Feature","id":6831204085,"geometry":{"type":"Point","coordinates":[44.19333580000001,15.3662068]},"properties":{"id":6831204085,"name":"الكوكباني لتأجير السيارات","type":"car_rental","category":"transport","subcategory":"taxi","osmType":"node","amenity":"car_rental","name:en":"Al kawkbani Car rent"}},{"type":"Feature","id":6939379085,"geometry":{"type":"Point","coordinates":[44.2191381,15.277858600000002]},"properties":{"id":6939379085,"name":"موقف باصات فرزة بعدان صنعاء","type":"bus_stop","category":"transport","subcategory":"public_transit","osmType":"node","highway":"bus_stop","name:latin":"mwqf basat frza b'dan sn'a'"}},{"type":"Feature","id":6988144785,"geometry":{"type":"Point","coordinates":[44.1963823,15.3214228]},"properties":{"id":6988144785,"name":"أرحب لتاجير السيارات","type":"car_rental","category":"transport","subcategory":"taxi","osmType":"node","amenity":"car_rental","name:en":"ARHAB Cars Rental","phone":"+967777160079"}},{"type":"Feature","id":7059081784,"geometry":{"type":"Point","coordinates":[44.210624200000005,15.383554400000001]},"properties":{"id":7059081784,"name":"جولة الساعة","type":"stop_position","category":"transport","subcategory":"public_transit","osmType":"node","bus":"yes","public_transport":"stop_position","name:latin":"jwla al-sa'a"}},{"type":"Feature","id":7059127788,"geometry":{"type":"Point","coordinates":[44.2105077,15.383689700000001]},"properties":{"id":7059127788,"name":"جولة الساعة","type":"stop_position","category":"transport","subcategory":"public_transit","osmType":"node","bus":"yes","public_transport":"stop_position","name:latin":"jwla al-sa'a"}},{"type":"Feature","id":7062127427,"geometry":{"type":"Point","coordinates":[44.1985911,15.335108100000001]},"properties":{"id":7062127427,"name":"جولة الرويشان","type":"stop_position","category":"transport","subcategory":"public_transit","osmType":"node","bus":"yes","public_transport":"stop_position","name:latin":"jwla al-rwyshan"}},{"type":"Feature","id":7062127428,"geometry":{"type":"Point","coordinates":[44.198476400000004,15.335101100000001]},"properties":{"id":7062127428,"name":"جولة الرويشان","type":"stop_position","category":"transport","subcategory":"public_transit","osmType":"node","bus":"yes","public_transport":"stop_position","name:latin":"jwla al-rwyshan"}},{"type":"Feature","id":7062424868,"geometry":{"type":"Point","coordinates":[44.1892739,15.364629500000001]},"properties":{"id":7062424868,"name":"الجامعه الجديدة","type":"stop_position","category":"transport","subcategory":"public_transit","osmType":"node","bus":"yes","public_transport":"stop_position","name:latin":"al-jam'h al-jdyda"}},{"type":"Feature","id":7065297825,"geometry":{"type":"Point","coordinates":[44.2526413,15.294086600000002]},"properties":{"id":7065297825,"name":"شارع 24","type":"stop_position","category":"transport","subcategory":"public_transit","osmType":"node","bus":"yes","public_transport":"stop_position","name:latin":"shar' 24"}},{"type":"Feature","id":7065297829,"geometry":{"type":"Point","coordinates":[44.2525489,15.294010300000002]},"properties":{"id":7065297829,"name":"شارع 24","type":"stop_position","category":"transport","subcategory":"public_transit","osmType":"node","bus":"yes","public_transport":"stop_position","name:latin":"shar' 24"}},{"type":"Feature","id":7370690144,"geometry":{"type":"Point","coordinates":[44.2281703,15.397313400000002]},"properties":{"id":7370690144,"name":"جولة اية","type":"stop_position","category":"transport","subcategory":"public_transit","osmType":"node","bus":"yes","public_transport":"stop_position","name:latin":"jwla aya"}},{"type":"Feature","id":7370690145,"geometry":{"type":"Point","coordinates":[44.2279976,15.397355400000002]},"properties":{"id":7370690145,"name":"جولة اية","type":"stop_position","category":"transport","subcategory":"public_transit","osmType":"node","bus":"yes","public_transport":"stop_position","name:latin":"jwla aya"}},{"type":"Feature","id":7623459411,"geometry":{"type":"Point","coordinates":[44.2155002,15.349586900000002]},"properties":{"id":7623459411,"name":"فرزة باب اليمن","type":"stop_position","category":"transport","subcategory":"public_transit","osmType":"node","bus":"yes","public_transport":"stop_position","name:latin":"frza bab al-ymn","name:en":"Bab al-Yaman Bus Station"}},{"type":"Feature","id":7711889450,"geometry":{"type":"Point","coordinates":[44.20741520000001,15.387585300000001]},"properties":{"id":7711889450,"name":"فرزة مازدا","type":"stop_position","category":"transport","subcategory":"public_transit","osmType":"node","bus":"yes","public_transport":"stop_position","name:latin":"frza mazda"}},{"type":"Feature","id":8355810819,"geometry":{"type":"Point","coordinates":[44.193280400000006,15.309916300000001]},"properties":{"id":8355810819,"name":"حده","type":"stop_position","category":"transport","subcategory":"public_transit","osmType":"node","bus":"yes","public_transport":"stop_position","name:latin":"hdh"}},{"type":"Feature","id":8355810847,"geometry":{"type":"Point","coordinates":[44.1931396,15.309848100000002]},"properties":{"id":8355810847,"name":"حده","type":"stop_position","category":"transport","subcategory":"public_transit","osmType":"node","bus":"yes","public_transport":"stop_position","name:latin":"hdh"}},{"type":"Feature","id":8355810893,"geometry":{"type":"Point","coordinates":[44.1874249,15.313205100000001]},"properties":{"id":8355810893,"name":"حده","type":"stop_position","category":"transport","subcategory":"public_transit","osmType":"node","bus":"yes","public_transport":"stop_position","name:latin":"hdh"}},{"type":"Feature","id":8444546817,"geometry":{"type":"Point","coordinates":[44.191749800000004,15.368472800000001]},"properties":{"id":8444546817,"name":"حنين لتاجير السيارات","type":"car_rental","category":"transport","subcategory":"taxi","osmType":"node","addr:housenumber":"77","addr:street":"الخط الدائري","amenity":"car_rental","name:en":"hanen rant car","opening_hours":"Sa-Th 00:00-24:00","phone":"778822227"}},{"type":"Feature","id":9155796101,"geometry":{"type":"Point","coordinates":[44.16997370000001,15.344023300000002]},"properties":{"id":9155796101,"name":"فرزة عصر","type":"stop_position","category":"transport","subcategory":"public_transit","osmType":"node","bus":"yes","public_transport":"stop_position","name:latin":"frza 'sr"}},{"type":"Feature","id":9431256420,"geometry":{"type":"Point","coordinates":[44.219081100000004,15.3622045]},"properties":{"id":9431256420,"name":"المشهد","type":"stop_position","category":"transport","subcategory":"public_transit","osmType":"node","bus":"yes","public_transport":"stop_position","name:latin":"al-mshhd"}},{"type":"Feature","id":9432863754,"geometry":{"type":"Point","coordinates":[44.2058047,15.354377000000001]},"properties":{"id":9432863754,"name":"التحرير","type":"stop_position","category":"transport","subcategory":"public_transit","osmType":"node","bus":"yes","public_transport":"stop_position","name:latin":"al-thryr"}},{"type":"Feature","id":9458954260,"geometry":{"type":"Point","coordinates":[44.249425200000005,15.172533800000002]},"properties":{"id":9458954260,"name":"قاع القيضي","type":"stop_position","category":"transport","subcategory":"public_transit","osmType":"node","bus":"yes","public_transport":"stop_position","name:latin":"qa' al-qydy"}},{"type":"Feature","id":9527386860,"geometry":{"type":"Point","coordinates":[44.2194056,15.351563400000002]},"properties":{"id":9527386860,"name":"فرزة باب اليمن","type":"stop_position","category":"transport","subcategory":"public_transit","osmType":"node","bus":"yes","public_transport":"stop_position","name:latin":"frza bab al-ymn","name:en":"Bab al-Yaman Bus Station"}},{"type":"Feature","id":9527386867,"geometry":{"type":"Point","coordinates":[44.219385100000004,15.351610800000001]},"properties":{"id":9527386867,"name":"فرزة باب اليمن","type":"stop_position","category":"transport","subcategory":"public_transit","osmType":"node","bus":"yes","public_transport":"stop_position","name:latin":"frza bab al-ymn","name:en":"Bab al-Yaman Bus Station"}},{"type":"Feature","id":9529951882,"geometry":{"type":"Point","coordinates":[44.217362800000004,15.348406700000002]},"properties":{"id":9529951882,"name":"فرزة باب اليمن","type":"stop_position","category":"transport","subcategory":"public_transit","osmType":"node","bus":"yes","public_transport":"stop_position","name:latin":"frza bab al-ymn","name:en":"Bab al-Yaman Bus Station"}},{"type":"Feature","id":9829628517,"geometry":{"type":"Point","coordinates":[44.2293668,15.308143600000001]},"properties":{"id":9829628517,"name":"سمكره سيارات","type":"car_rental","category":"transport","subcategory":"taxi","osmType":"node","amenity":"car_rental","name:latin":"smkrh syarat"}},{"type":"Feature","id":10006875417,"geometry":{"type":"Point","coordinates":[44.176398600000006,15.341204000000001]},"properties":{"id":10006875417,"name":"Yemen uto","type":"car_rental","category":"transport","subcategory":"taxi","osmType":"node","amenity":"car_rental"}},{"type":"Feature","id":10068919317,"geometry":{"type":"Point","coordinates":[44.2146831,15.363376200000001]},"properties":{"id":10068919317,"name":"شعوب قطع غيار السيارات","type":"car_rental","category":"transport","subcategory":"taxi","osmType":"node","amenity":"car_rental","name:latin":"sh'wb qt' ghyar al-syarat"}},{"type":"Feature","id":10151946223,"geometry":{"type":"Point","coordinates":[44.165469300000005,15.372240600000001]},"properties":{"id":10151946223,"name":"شارع الاربعين","type":"stop_position","category":"transport","subcategory":"public_transit","osmType":"node","bus":"yes","public_transport":"stop_position","name:latin":"shar' al-arb'yn"}},{"type":"Feature","id":10564642532,"geometry":{"type":"Point","coordinates":[44.216174,15.349189700000002]},"properties":{"id":10564642532,"name":"فرزة باب اليمن","type":"stop_position","category":"transport","subcategory":"public_transit","osmType":"node","bus":"yes","public_transport":"stop_position","name:latin":"frza bab al-ymn","name:en":"Bab al-Yaman Bus Station"}},{"type":"Feature","id":10624927365,"geometry":{"type":"Point","coordinates":[44.189139100000006,15.339067300000002]},"properties":{"id":10624927365,"name":"ايفاء لتأجير السيارات","type":"car_rental","category":"transport","subcategory":"taxi","osmType":"node","addr:street":"شارع عمان","amenity":"car_rental","name:latin":"ayfa' ltajyr al-syarat"}},{"type":"Feature","id":10624927371,"geometry":{"type":"Point","coordinates":[44.1898021,15.346437200000002]},"properties":{"id":10624927371,"name":"فرزة باصات الحصبة-الدائري","type":"platform","category":"transport","subcategory":"public_transit","osmType":"node","bus":"yes","highway":"bus_stop","public_transport":"platform","name:latin":"frza basat al-hsba-al-da'ry"}},{"type":"Feature","id":11013026684,"geometry":{"type":"Point","coordinates":[44.178680500000006,15.372890000000002]},"properties":{"id":11013026684,"name":"جولة مذبح","type":"stop_position","category":"transport","subcategory":"public_transit","osmType":"node","bus":"yes","public_transport":"stop_position","name:latin":"jwla mdhbh"}},{"type":"Feature","id":11470413270,"geometry":{"type":"Point","coordinates":[44.159691300000006,15.340260800000001]},"properties":{"id":11470413270,"name":"فرزة عصر الصباحة","type":"stop_position","category":"transport","subcategory":"public_transit","osmType":"node","bus":"yes","public_transport":"stop_position","name:latin":"frza 'sr al-sbaha"}},{"type":"Feature","id":11522018869,"geometry":{"type":"Point","coordinates":[44.2218153,15.3176248]},"properties":{"id":11522018869,"name":"كونكت اوتو لتأجير للسيارات","type":"car_rental","category":"transport","subcategory":"taxi","osmType":"node","amenity":"car_rental","phone":"738961462","name:latin":"kwnkt awtw ltajyr llsyarat"}},{"type":"Feature","id":11765798331,"geometry":{"type":"Point","coordinates":[44.23527850000001,15.3078891]},"properties":{"id":11765798331,"name":"فرزة شميلة","type":"stop_position","category":"transport","subcategory":"public_transit","osmType":"node","bus":"yes","public_transport":"stop_position","name:latin":"frza shmyla"}},{"type":"Feature","id":11789487852,"geometry":{"type":"Point","coordinates":[44.2390831,15.307953900000001]},"properties":{"id":11789487852,"name":"شميلة","type":"stop_position","category":"transport","subcategory":"public_transit","osmType":"node","bus":"yes","public_transport":"stop_position","name:latin":"shmyla"}},{"type":"Feature","id":11789489571,"geometry":{"type":"Point","coordinates":[44.2344943,15.3069026]},"properties":{"id":11789489571,"name":"فرزة شميلة","type":"stop_position","category":"transport","subcategory":"public_transit","osmType":"node","bus":"yes","public_transport":"stop_position","name:latin":"frza shmyla"}},{"type":"Feature","id":12012819873,"geometry":{"type":"Point","coordinates":[44.248975,15.4065331]},"properties":{"id":12012819873,"name":"كلية المجتمع","type":"stop_position","category":"transport","subcategory":"public_transit","osmType":"node","bus":"yes","public_transport":"stop_position","name:latin":"klya al-mjtm'"}},{"type":"Feature","id":12403304149,"geometry":{"type":"Point","coordinates":[44.2452326,15.370604600000002]},"properties":{"id":12403304149,"name":"الاربعين (البريد)","type":"stop_position","category":"transport","subcategory":"public_transit","osmType":"node","bus":"yes","public_transport":"stop_position","name:latin":"al-arb'yn (al-bryd)"}},{"type":"Feature","id":12573635391,"geometry":{"type":"Point","coordinates":[44.219675900000006,15.277878800000002]},"properties":{"id":12573635391,"name":"جولة بيت بوس","type":"stop_position","category":"transport","subcategory":"public_transit","osmType":"node","bus":"yes","public_transport":"stop_position","name:latin":"jwla byt bws"}},{"type":"Feature","id":12609703910,"geometry":{"type":"Point","coordinates":[44.169115000000005,15.3405856]},"properties":{"id":12609703910,"name":"فرزة عصر - شميلة","type":"platform","category":"transport","subcategory":"public_transit","osmType":"node","public_transport":"platform","name:latin":"frza 'sr - shmyla"}},{"type":"Feature","id":12945767363,"geometry":{"type":"Point","coordinates":[44.246264800000006,15.206908400000001]},"properties":{"id":12945767363,"name":"","type":"platform","category":"transport","subcategory":"public_transit","osmType":"node","bus":"yes","highway":"bus_stop","public_transport":"platform"}},{"type":"Feature","id":13363588554,"geometry":{"type":"Point","coordinates":[44.213335300000004,15.380958500000002]},"properties":{"id":13363588554,"name":"فرزة الحصبة","type":"stop_position","category":"transport","subcategory":"public_transit","osmType":"node","bus":"yes","public_transport":"stop_position","name:latin":"frza al-hsba"}},{"type":"Feature","id":13372704123,"geometry":{"type":"Point","coordinates":[44.165559,15.4608921]},"properties":{"id":13372704123,"name":"جدر","type":"stop_position","category":"transport","subcategory":"public_transit","osmType":"node","bus":"yes","public_transport":"stop_position","name:latin":"jdr"}},{"type":"Feature","id":13372704124,"geometry":{"type":"Point","coordinates":[44.165676100000006,15.4609283]},"properties":{"id":13372704124,"name":"جدر","type":"stop_position","category":"transport","subcategory":"public_transit","osmType":"node","bus":"yes","public_transport":"stop_position","name:latin":"jdr"}},{"type":"Feature","id":13372959726,"geometry":{"type":"Point","coordinates":[44.1823655,15.360376600000002]},"properties":{"id":13372959726,"name":"شارع هايل","type":"stop_position","category":"transport","subcategory":"public_transit","osmType":"node","bus":"yes","public_transport":"stop_position","name:latin":"shar' hayl"}},{"type":"Feature","id":13372997636,"geometry":{"type":"Point","coordinates":[44.207505600000005,15.359577200000002]},"properties":{"id":13372997636,"name":"التحرير","type":"stop_position","category":"transport","subcategory":"public_transit","osmType":"node","bus":"yes","public_transport":"stop_position","name:latin":"al-thryr"}},{"type":"Feature","id":13373024806,"geometry":{"type":"Point","coordinates":[44.242853600000004,15.385153800000001]},"properties":{"id":13373024806,"name":"دوار الاربعين","type":"stop_position","category":"transport","subcategory":"public_transit","osmType":"node","bus":"yes","public_transport":"stop_position","name:latin":"dwar al-arb'yn"}},{"type":"Feature","id":13386582839,"geometry":{"type":"Point","coordinates":[44.1745603,15.359660600000002]},"properties":{"id":13386582839,"name":"فرزة شارع الرباط","type":"stop_position","category":"transport","subcategory":"public_transit","osmType":"node","bus":"yes","public_transport":"stop_position","name:latin":"frza shar' al-rbat"}},{"type":"Feature","id":13389060332,"geometry":{"type":"Point","coordinates":[44.282360800000006,15.473074400000002]},"properties":{"id":13389060332,"name":"الحتارش","type":"stop_position","category":"transport","subcategory":"public_transit","osmType":"node","bus":"yes","public_transport":"stop_position","name:latin":"al-htarsh"}},{"type":"Feature","id":13389086506,"geometry":{"type":"Point","coordinates":[44.2139566,15.4340214]},"properties":{"id":13389086506,"name":"جسر دارس","type":"stop_position","category":"transport","subcategory":"public_transit","osmType":"node","bus":"yes","public_transport":"stop_position","name:latin":"jsr dars"}},{"type":"Feature","id":13392749375,"geometry":{"type":"Point","coordinates":[44.228047800000006,15.444640800000002]},"properties":{"id":13392749375,"name":"الروضة","type":"stop_position","category":"transport","subcategory":"public_transit","osmType":"node","bus":"yes","public_transport":"stop_position","name:latin":"al-rwda"}},{"type":"Feature","id":13396993037,"geometry":{"type":"Point","coordinates":[44.2074664,15.387539600000002]},"properties":{"id":13396993037,"name":"فرزة مازدا","type":"stop_position","category":"transport","subcategory":"public_transit","osmType":"node","bus":"yes","public_transport":"stop_position","name:latin":"frza mazda"}},{"type":"Feature","id":13396993038,"geometry":{"type":"Point","coordinates":[44.244307600000006,15.380029300000002]},"properties":{"id":13396993038,"name":"فرزة الأربعين","type":"stop_position","category":"transport","subcategory":"public_transit","osmType":"node","bus":"yes","public_transport":"stop_position","name:latin":"frza al-arb'yn"}},{"type":"Feature","id":13396993044,"geometry":{"type":"Point","coordinates":[44.2134408,15.380992]},"properties":{"id":13396993044,"name":"فرزة الحصبة","type":"stop_position","category":"transport","subcategory":"public_transit","osmType":"node","bus":"yes","public_transport":"stop_position","name:latin":"frza al-hsba"}},{"type":"Feature","id":13430518261,"geometry":{"type":"Point","coordinates":[44.231020300000004,15.382703200000002]},"properties":{"id":13430518261,"name":"جولة النصر","type":"stop_position","category":"transport","subcategory":"public_transit","osmType":"node","bus":"yes","public_transport":"stop_position","name:latin":"jwla al-nsr"}},{"type":"Feature","id":13433112962,"geometry":{"type":"Point","coordinates":[44.2400414,15.3787815]},"properties":{"id":13433112962,"name":"سعوان","type":"stop_position","category":"transport","subcategory":"public_transit","osmType":"node","bus":"yes","public_transport":"stop_position","name:latin":"s'wan"}},{"type":"Feature","id":13434112857,"geometry":{"type":"Point","coordinates":[44.1767954,15.397035400000002]},"properties":{"id":13434112857,"name":"فرزة سوق الخضار","type":"stop_position","category":"transport","subcategory":"public_transit","osmType":"node","bus":"yes","public_transport":"stop_position","name:latin":"frza swq al-khdar"}},{"type":"Feature","id":13463653429,"geometry":{"type":"Point","coordinates":[44.2197669,15.278457300000001]},"properties":{"id":13463653429,"name":"فرزة بيت بوس","type":"stop_position","category":"transport","subcategory":"public_transit","osmType":"node","bus":"yes","public_transport":"stop_position","name:latin":"frza byt bws"}},{"type":"Feature","id":45744477,"geometry":{"type":"Polygon","coordinates":[[[44.224794100000004,15.474566900000001],[44.224797200000005,15.474362300000001],[44.2248759,15.474359500000002],[44.224875700000005,15.4743843],[44.2249361,15.474381300000001],[44.2249362,15.474357200000002],[44.22500530000001,15.4743559],[44.225006500000006,15.474336800000001],[44.2251709,15.4743366],[44.225178500000005,15.4731678],[44.2250755,15.473165300000002],[44.2250402,15.473165100000001],[44.2250403,15.473073500000002],[44.2250048,15.473073500000002],[44.2250036,15.473041600000002],[44.2247987,15.473042500000002],[44.22463320000001,15.473043200000001],[44.224634300000005,15.472823600000002],[44.22440220000001,15.4728226],[44.224392400000006,15.474485000000001],[44.22444170000001,15.474485200000002],[44.2244414,15.474565400000001],[44.224688900000004,15.474566500000002],[44.224794100000004,15.474566900000001]]]},"properties":{"id":45744477,"name":"قاعة الوصول والمغادرة لمطار صنعاء","type":"terminal","category":"transport","subcategory":"airport","osmType":"way","aeroway":"terminal","building":"yes","name:ar":"قاعة الوصول والمغادرة لمطار صنعاء","name:en":"Sana'a Airport Terminal"}},{"type":"Feature","id":237753742,"geometry":{"type":"Polygon","coordinates":[[[44.212917600000004,15.379974100000002],[44.213191200000004,15.3809672],[44.213668600000005,15.380418900000002],[44.213159000000005,15.3800775],[44.212917600000004,15.379974100000002]]]},"properties":{"id":237753742,"name":"فرزة الحصبة","type":"bus_station","category":"transport","subcategory":"public_transit","osmType":"way","amenity":"bus_station","bus":"yes","name:ar":"فرزة الحصبة","public_transport":"station","name:latin":"frza al-hsba"}},{"type":"Feature","id":949941168,"geometry":{"type":"Polygon","coordinates":[[[44.2113486,15.462265600000002],[44.2119232,15.4622629],[44.2120174,15.4622945],[44.212539400000004,15.4623018],[44.2126085,15.462309000000001],[44.212676200000004,15.462324100000002],[44.2127416,15.462347000000001],[44.2128036,15.462377400000001],[44.213017300000004,15.462473300000001],[44.21309600000001,15.4625017],[44.213176100000005,15.462525900000001],[44.2132574,15.462545900000002],[44.21333980000001,15.4625616],[44.213422900000005,15.462572900000001],[44.2135065,15.462579900000001],[44.214143400000005,15.462609200000001],[44.2141498,15.461475300000002],[44.214230400000005,15.461478600000001],[44.214672900000004,15.461497000000001],[44.2152942,15.461521000000001],[44.21537970000001,15.462148200000001],[44.2155003,15.463037600000002],[44.214743000000006,15.463124200000001],[44.2147317,15.464045900000002],[44.2147209,15.467204400000002],[44.214812800000004,15.467212300000002],[44.2148143,15.467336800000002],[44.214848100000005,15.467335400000001],[44.214852500000006,15.467490800000002],[44.214814600000004,15.4674928],[44.2148109,15.46761],[44.214718700000006,15.467620100000001],[44.214702800000005,15.470080300000001],[44.214566000000005,15.470085500000001],[44.2145604,15.470662],[44.214713700000004,15.470668200000002],[44.2147045,15.4715842],[44.214696,15.472437600000001],[44.2145446,15.472443000000002],[44.2145328,15.474709500000001],[44.214109900000004,15.474734600000001],[44.214013300000005,15.4747403],[44.2138506,15.474941200000002],[44.2133892,15.475071800000002],[44.2127337,15.4750855],[44.211002900000004,15.475417100000001],[44.211126500000006,15.477086500000002],[44.21170360000001,15.477186600000001],[44.211323300000004,15.4788796],[44.210699600000005,15.480814400000002],[44.21076540000001,15.482633200000002],[44.211050500000006,15.489734700000001],[44.2145833,15.4897532],[44.214591600000006,15.490778800000001],[44.214542,15.496890500000001],[44.2145328,15.499963000000001],[44.2193909,15.4999885],[44.21961220000001,15.500064400000001],[44.21969970000001,15.500073900000002],[44.219771,15.500063700000002],[44.219838700000004,15.500035800000001],[44.219913000000005,15.499990900000002],[44.22104890000001,15.499996000000001],[44.2229,15.4979808],[44.222959800000005,15.489551700000002],[44.224084600000005,15.489556100000001],[44.2240814,15.489651900000002],[44.225109800000006,15.4901224],[44.225114500000004,15.489862],[44.225162600000004,15.4896115],[44.226826300000006,15.488691500000002],[44.226961900000006,15.488343000000002],[44.227153400000006,15.487660800000002],[44.226678500000006,15.487636100000001],[44.2266807,15.4875427],[44.2264167,15.487521800000001],[44.226417500000004,15.4874883],[44.22624570000001,15.487469100000002],[44.226244900000005,15.487441700000002],[44.2262441,15.487412500000001],[44.22628460000001,15.4874132],[44.226286300000005,15.487375000000002],[44.226288000000004,15.487336],[44.2262404,15.487332100000001],[44.2262538,15.486704000000001],[44.226237700000006,15.486665200000001],[44.22621590000001,15.486644400000001],[44.226177400000005,15.486630700000001],[44.22540420000001,15.486626800000002],[44.2254196,15.483992100000002],[44.225432600000005,15.481649500000001],[44.225159000000005,15.481644300000001],[44.225188300000006,15.480217300000001],[44.2256676,15.480218800000001],[44.2256457,15.4758749],[44.225487400000006,15.475870700000002],[44.225490900000004,15.475699600000002],[44.2256341,15.475699900000002],[44.2256476,15.475732500000001],[44.225854700000006,15.475740900000002],[44.225910000000006,15.4757615],[44.226101400000005,15.475732800000001],[44.226108100000005,15.4758647],[44.226765400000005,15.4758305],[44.226817800000006,15.4757539],[44.2267756,15.475298000000002],[44.226581,15.474978900000002],[44.22648530000001,15.474947300000002],[44.2264758,15.474944800000001],[44.226314300000006,15.474890900000002],[44.2259644,15.474829000000001],[44.225957900000004,15.4750127],[44.225954900000005,15.4750954],[44.2257869,15.475097700000001],[44.225502500000005,15.475101700000002],[44.224943,15.4750913],[44.224941900000005,15.474972700000002],[44.2249361,15.474381300000001],[44.2249362,15.474357200000002],[44.22500530000001,15.4743559],[44.225006500000006,15.474336800000001],[44.2251709,15.4743366],[44.225178500000005,15.4731678],[44.2250755,15.473165300000002],[44.2250402,15.473165100000001],[44.2250403,15.473073500000002],[44.2250048,15.473073500000002],[44.2250036,15.473041600000002],[44.2247987,15.473042500000002],[44.224791,15.472563300000001],[44.2247902,15.472513200000002],[44.225069500000004,15.472518800000001],[44.2250924,15.470682700000001],[44.225113,15.4677517],[44.22510810000001,15.467597200000002],[44.2250992,15.4674431],[44.225083500000004,15.467289500000001],[44.2250601,15.467129700000001],[44.2250261,15.466971700000002],[44.224979000000005,15.4668161],[44.22492450000001,15.466663500000001],[44.22486000000001,15.466514600000002],[44.2247831,15.466370000000001],[44.224699400000006,15.4662301],[44.224606800000004,15.466095700000002],[44.224505400000005,15.4659673],[44.2243958,15.465845300000002],[44.2242783,15.4657303],[44.2241611,15.465632000000001],[44.2240547,15.465550400000001],[44.2233348,15.465001800000001],[44.223196200000004,15.464895900000002],[44.223066300000006,15.464780200000002],[44.222945700000004,15.464655500000001],[44.222835100000005,15.464522400000002],[44.2227351,15.4643817],[44.2226464,15.464234300000001],[44.2225693,15.464080800000001],[44.222504400000005,15.4639222],[44.2224519,15.4637594],[44.2224123,15.463593200000002],[44.2223856,15.463424700000001],[44.2223721,15.463254700000002],[44.222371900000006,15.4630842],[44.2225632,15.460807400000002],[44.222692,15.459270300000002],[44.222908100000005,15.4567969],[44.2230909,15.454579100000002],[44.223091000000004,15.454423100000001],[44.223080700000004,15.454267300000001],[44.223060000000004,15.4541125],[44.223029100000005,15.453959400000002],[44.2229881,15.453808400000002],[44.222937200000004,15.453660300000001],[44.222876500000005,15.453515600000001],[44.222820000000006,15.453396300000001],[44.2227559,15.453280600000001],[44.222681800000004,15.453168900000001],[44.2226062,15.453061600000002],[44.2225212,15.452959200000002],[44.222429700000006,15.4528621],[44.222332300000005,15.452770500000002],[44.2222292,15.452685],[44.221515600000004,15.4520329],[44.21943950000001,15.450123200000002],[44.2193909,15.450102500000002],[44.2193399,15.450088200000001],[44.219287400000006,15.450080600000001],[44.2192342,15.4500796],[44.219181400000004,15.450085500000002],[44.219129900000006,15.450098100000002],[44.219056,15.450164000000001],[44.2190324,15.450149300000001],[44.218782000000004,15.449992700000001],[44.2187569,15.449986200000001],[44.2184491,15.4495315],[44.2183992,15.449451700000001],[44.2183549,15.449368800000002],[44.218316400000006,15.449283300000001],[44.218283400000004,15.449195800000002],[44.2182504,15.4491083],[44.218220900000006,15.449019800000002],[44.218195,15.448930200000001],[44.2181726,15.448839600000001],[44.217523500000006,15.448931000000002],[44.2168403,15.448999800000001],[44.216787100000005,15.449559200000001],[44.2165892,15.449564400000002],[44.216553000000005,15.4496993],[44.21651850000001,15.449958600000002],[44.21638420000001,15.449948400000002],[44.2162505,15.449931900000001],[44.216117800000006,15.449909100000001],[44.21598650000001,15.449880100000001],[44.215856800000005,15.449844900000002],[44.215729,15.449803500000002],[44.2156068,15.449758200000002],[44.2154827,15.449718],[44.215356500000006,15.449684200000002],[44.2152286,15.4496569],[44.21509940000001,15.4496362],[44.2149353,15.449574600000002],[44.2148922,15.449660000000002],[44.2148782,15.449693700000001],[44.214867700000006,15.449728700000001],[44.21486110000001,15.449764400000001],[44.2148582,15.4498007],[44.2147543,15.450074],[44.2145839,15.450204200000002],[44.2145664,15.450393100000001],[44.21452540000001,15.450511400000002],[44.214488700000004,15.4506311],[44.2144454,15.450786100000002],[44.2144325,15.4508737],[44.2144282,15.450944200000002],[44.214417100000006,15.451013900000001],[44.2143967,15.451081600000002],[44.214367300000006,15.451146200000002],[44.214349000000006,15.451145600000002],[44.21433090000001,15.4511505],[44.214315400000004,15.451160600000001],[44.214304000000006,15.451175100000002],[44.21429800000001,15.451192200000001],[44.214178800000006,15.4515813],[44.214122200000006,15.451731900000002],[44.21405790000001,15.451879600000002],[44.213985900000004,15.452024000000002],[44.213906300000005,15.4521647],[44.2138524,15.452279800000001],[44.213801200000006,15.452396000000002],[44.2137527,15.452513300000001],[44.213706800000004,15.4526315],[44.213663600000004,15.452750800000002],[44.2134104,15.453314500000001],[44.21293910000001,15.454312500000002],[44.212656200000005,15.454760400000001],[44.212368700000006,15.455183300000002],[44.212910300000004,15.455701200000002],[44.21240340000001,15.456120600000002],[44.2122904,15.456216300000001],[44.212191600000004,15.456286700000001],[44.2120776,15.456360600000002],[44.211956300000004,15.456428400000002],[44.208536800000005,15.458197900000002],[44.205932700000005,15.4595458],[44.206185500000004,15.4609307],[44.20671900000001,15.461005900000002],[44.2067082,15.461268300000002],[44.211246700000004,15.460997400000002],[44.211268700000005,15.4621898],[44.2112708,15.462209800000002],[44.21127860000001,15.462228600000001],[44.211291300000006,15.462244600000002],[44.211308100000004,15.462256700000001],[44.211327700000005,15.4622638],[44.2113486,15.462265600000002]]]},"properties":{"id":949941168,"name":"مطار صنعاء الدولي","type":"international","category":"transport","subcategory":"airport","osmType":"way","aerodrome":"international","aerodrome:type":"military/public","aeroway":"aerodrome","closest_town":"Sana'a","ele":"2199","iata":"SAH","icao":"OYSN","name:ar":"مطار صنعاء الدولي","name:de":"Internationaler Flughafen Sanaa","name:en":"Sana'a International Airport","name:fa":"فرودگاه بین‌المللی صنعا","name:ml":"സന അന്താരാഷ്ട്ര വിമാനത്താവളം","name:zh":"萨那国际机场","source":"wikipedia","wikidata":"Q1165296","wikipedia":"en:Sana'a International Airport"}},{"type":"Feature","id":1026417551,"geometry":{"type":"Polygon","coordinates":[[[44.23143640000001,15.381842700000002],[44.231205800000005,15.3818151],[44.231517600000004,15.379796200000001],[44.231718,15.379827500000001],[44.23143640000001,15.381842700000002]]]},"properties":{"id":1026417551,"name":"فرزة سعوان","type":"bus_station","category":"transport","subcategory":"public_transit","osmType":"way","amenity":"bus_station","bus":"yes","public_transport":"station","name:latin":"frza s'wan"}}]}